COLLNUM,Taxon.Name,CATNUM,PRESTYPE,STATUS,ORIGLOCAL,Locality.Selector,LocalityQualifier,ISGPPROV,COLLECTOR,DATECOLL1,gps,elevation,country,province,locality,site,lat,lon,gps_raw,A or B?
FK 4994,Oreophryne equus,15710,alcoholic,installed July 2017,"Cloudy Mts., Camp 1, along Upaelisafupi Stream, 10 deg 29.825 min S, 150 deg 13.978 min E, 715 m","Cloudy Mtns., SW of Gadowalai, along Upaelisafupi Stream, Camp 1 {Papua New Guinea: Milne Bay Prov.: Cloudy Mtns., SW of Gadowalai, along Upaelisafupi Stream, Camp 1    :    715 m    :    10.4970833ºS  150.2329666ºE.}",,Milne Bay Prov.,"F Kraus, I Bigilale",10 Apr 2002,"-10.4970833, 150.2329666",715 m,Papua New Guinea,Milne Bay Prov.,"Cloudy Mtns., SW of Gadowalai, along Upaelisafupi Stream, Camp 1    ","Cloudy Mtns., SW of Gadowalai, along Upaelisafupi Stream, Camp 1",-10.4970833,150.2329666,10.4970833ºS 150.2329666ºE,B
FK 4995,Oreophryne equus,15711,alcoholic,installed July 2017,"Cloudy Mts., Camp 1, along Upaelisafupi Stream, 10 deg 29.825 min S, 150 deg 13.978 min E, 715 m","Cloudy Mtns., SW of Gadowalai, along Upaelisafupi Stream, Camp 1 {Papua New Guinea: Milne Bay Prov.: Cloudy Mtns., SW of Gadowalai, along Upaelisafupi Stream, Camp 1    :    715 m    :    10.4970833ºS  150.2329666ºE.}",,Milne Bay Prov.,"F Kraus, I Bigilale",10 Apr 2002,"-10.4970833, 150.2329666",715 m,Papua New Guinea,Milne Bay Prov.,"Cloudy Mtns., SW of Gadowalai, along Upaelisafupi Stream, Camp 1    ","Cloudy Mtns., SW of Gadowalai, along Upaelisafupi Stream, Camp 1",-10.4970833,150.2329666,10.4970833ºS 150.2329666ºE,B
FK 5085,Oreophryne equus,15712,alcoholic,installed July 2017,"Cloudy Mts., Camp 1, along Upaelisafupi Stream, 10 deg 29.825 min S, 150 deg 13.978 min E, 715 m","Cloudy Mtns., SW of Gadowalai, along Upaelisafupi Stream, Camp 1 {Papua New Guinea: Milne Bay Prov.: Cloudy Mtns., SW of Gadowalai, along Upaelisafupi Stream, Camp 1    :    715 m    :    10.4970833ºS  150.2329666ºE.}",,Milne Bay Prov.,"F Kraus, I Bigilale",13 Apr 2002,"-10.4970833, 150.2329666",715 m,Papua New Guinea,Milne Bay Prov.,"Cloudy Mtns., SW of Gadowalai, along Upaelisafupi Stream, Camp 1    ","Cloudy Mtns., SW of Gadowalai, along Upaelisafupi Stream, Camp 1",-10.4970833,150.2329666,10.4970833ºS 150.2329666ºE,B
FK 5165,Oreophryne equus,15713,alcoholic,installed June 2017,"Cloudy Mts., Camp 1, along Upaelisafupi Stream, 10 deg 29.825 min S, 150 deg 13.978 min E, 715 m","Cloudy Mtns., SW of Gadowalai, along Upaelisafupi Stream, Camp 1 {Papua New Guinea: Milne Bay Prov.: Cloudy Mtns., SW of Gadowalai, along Upaelisafupi Stream, Camp 1    :    715 m    :    10.4970833ºS  150.2329666ºE.}",,Milne Bay Prov.,"F Kraus, I Bigilale",15 Apr 2002,"-10.4970833, 150.2329666",715 m,Papua New Guinea,Milne Bay Prov.,"Cloudy Mtns., SW of Gadowalai, along Upaelisafupi Stream, Camp 1    ","Cloudy Mtns., SW of Gadowalai, along Upaelisafupi Stream, Camp 1",-10.4970833,150.2329666,10.4970833ºS 150.2329666ºE,B
FK 5166,Oreophryne equus,15714,alcoholic,installed June 2017,"Cloudy Mts., Camp 1, along Upaelisafupi Stream, 10 deg 29.825 min S, 150 deg 13.978 min E, 715 m","Cloudy Mtns., SW of Gadowalai, along Upaelisafupi Stream, Camp 1 {Papua New Guinea: Milne Bay Prov.: Cloudy Mtns., SW of Gadowalai, along Upaelisafupi Stream, Camp 1    :    715 m    :    10.4970833ºS  150.2329666ºE.}",,Milne Bay Prov.,"F Kraus, I Bigilale",15 Apr 2002,"-10.4970833, 150.2329666",715 m,Papua New Guinea,Milne Bay Prov.,"Cloudy Mtns., SW of Gadowalai, along Upaelisafupi Stream, Camp 1    ","Cloudy Mtns., SW of Gadowalai, along Upaelisafupi Stream, Camp 1",-10.4970833,150.2329666,10.4970833ºS 150.2329666ºE,B
FK 5167,Oreophryne equus,15715,alcoholic,installed June 2017,"Cloudy Mts., Camp 1, along Upaelisafupi Stream, 10 deg 29.825 min S, 150 deg 13.978 min E, 715 m","Cloudy Mtns., SW of Gadowalai, along Upaelisafupi Stream, Camp 1 {Papua New Guinea: Milne Bay Prov.: Cloudy Mtns., SW of Gadowalai, along Upaelisafupi Stream, Camp 1    :    715 m    :    10.4970833ºS  150.2329666ºE.}",,Milne Bay Prov.,"F Kraus, I Bigilale",15 Apr 2002,"-10.4970833, 150.2329666",715 m,Papua New Guinea,Milne Bay Prov.,"Cloudy Mtns., SW of Gadowalai, along Upaelisafupi Stream, Camp 1    ","Cloudy Mtns., SW of Gadowalai, along Upaelisafupi Stream, Camp 1",-10.4970833,150.2329666,10.4970833ºS 150.2329666ºE,B
FK 5312,Oreophryne equus,15716,alcoholic,installed June 2017,"Cloudy Mts., Camp 1, along Upaelisafupi Stream, 10 deg 29.825 min S, 150 deg 13.978 min E, 715 m","Cloudy Mtns., SW of Gadowalai, along Upaelisafupi Stream, Camp 1 {Papua New Guinea: Milne Bay Prov.: Cloudy Mtns., SW of Gadowalai, along Upaelisafupi Stream, Camp 1    :    715 m    :    10.4970833ºS  150.2329666ºE.}",,Milne Bay Prov.,"F Kraus, I Bigilale",19 Apr 2002,"-10.4970833, 150.2329666",715 m,Papua New Guinea,Milne Bay Prov.,"Cloudy Mtns., SW of Gadowalai, along Upaelisafupi Stream, Camp 1    ","Cloudy Mtns., SW of Gadowalai, along Upaelisafupi Stream, Camp 1",-10.4970833,150.2329666,10.4970833ºS 150.2329666ºE,B
FK 5354,Oreophryne equus,15717,alcoholic,installed June 2017,"Cloudy Mts., Camp 1, along Upaelisafupi Stream, 10 deg 29.825 min S, 150 deg 13.978 min E, 715 m","Cloudy Mtns., SW of Gadowalai, along Upaelisafupi Stream, Camp 1 {Papua New Guinea: Milne Bay Prov.: Cloudy Mtns., SW of Gadowalai, along Upaelisafupi Stream, Camp 1    :    715 m    :    10.4970833ºS  150.2329666ºE.}",,Milne Bay Prov.,"F Kraus, I Bigilale",21 Apr 2002,"-10.4970833, 150.2329666",715 m,Papua New Guinea,Milne Bay Prov.,"Cloudy Mtns., SW of Gadowalai, along Upaelisafupi Stream, Camp 1    ","Cloudy Mtns., SW of Gadowalai, along Upaelisafupi Stream, Camp 1",-10.4970833,150.2329666,10.4970833ºS 150.2329666ºE,B
FK 5512,Oreophryne equus,15718,alcoholic,installed June 2017,"Cloudy Mts., Camp 1, along Upaelisafupi Stream, 10 deg 29.825 min S, 150 deg 13.978 min E, 715 m","Cloudy Mtns., SW of Gadowalai, along Upaelisafupi Stream, Camp 1 {Papua New Guinea: Milne Bay Prov.: Cloudy Mtns., SW of Gadowalai, along Upaelisafupi Stream, Camp 1    :    715 m    :    10.4970833ºS  150.2329666ºE.}",,Milne Bay Prov.,"F Kraus, I Bigilale",26 Apr 2002,"-10.4970833, 150.2329666",715 m,Papua New Guinea,Milne Bay Prov.,"Cloudy Mtns., SW of Gadowalai, along Upaelisafupi Stream, Camp 1    ","Cloudy Mtns., SW of Gadowalai, along Upaelisafupi Stream, Camp 1",-10.4970833,150.2329666,10.4970833ºS 150.2329666ºE,B
FK 5559,Oreophryne equus,15719,alcoholic,installed June 2017,"Duabo, Pini Range, Milne Bay Province, 10 deg 25.106 min S, 150 deg 18.410 min E, 300 m","Pini Range, Duabo {Papua New Guinea: Milne Bay Prov.: Pini Range, Duabo    :    300 m    :    10.4184333ºS  150.3068333ºE.}",,Milne Bay Prov.,F Kraus,01 May 2002,"-10.4184333, 150.3068333",300 m,Papua New Guinea,Milne Bay Prov.,"Pini Range, Duabo    ","Pini Range, Duabo",-10.4184333,150.3068333,10.4184333ºS 150.3068333ºE,B
FK 5560,Oreophryne equus,15720,alcoholic,installed July 2017,"Duabo, Pini Range, Milne Bay Province, 10 deg 25.106 min S, 150 deg 18.410 min E, 300 m","Pini Range, Duabo {Papua New Guinea: Milne Bay Prov.: Pini Range, Duabo    :    300 m    :    10.4184333ºS  150.3068333ºE.}",,Milne Bay Prov.,F Kraus,01 May 2002,"-10.4184333, 150.3068333",300 m,Papua New Guinea,Milne Bay Prov.,"Pini Range, Duabo    ","Pini Range, Duabo",-10.4184333,150.3068333,10.4184333ºS 150.3068333ºE,B
FK 5619,Oreophryne equus,15721,alcoholic,installed July 2017,"Owen Stanleys: Mt. Pekopekowana, Garden Camp, 10 deg 17.104 min S, 150 deg 10.930 min E, 330 m.","Owen Stanley Mtns., Mt. Pekopekowana, SE slope, Garden Camp {Papua New Guinea: Milne Bay Prov.: Owen Stanley Mtns., Mt. Pekopekowana, SE slope, Garden Camp    :    330 m    :    10.2850666ºS  150.1821666ºE.}",,Milne Bay Prov.,"F Kraus, I Bigilale",07 May 2002,"-10.2850666, 150.1821666",330 m,Papua New Guinea,Milne Bay Prov.,"Owen Stanley Mtns., Mt. Pekopekowana, SE slope, Garden Camp    ","Owen Stanley Mtns., Mt. Pekopekowana, SE slope, Garden Camp",-10.2850666,150.1821666,10.2850666ºS 150.1821666ºE,B
FK 5641,Oreophryne equus,15722,alcoholic,installed July 2017,"Owen Stanleys: Mt. Pekopekowana, Wailahabahaba Creek, trib. of Sagabada R., River Camp, 10 deg 16.957 min S, 150 deg 9.288 min E, 590 - 615 m.","Owen Stanley Mtns., Mt. Pekopekowana, SE slope, along Wailahabahaba Creek (trib. of Sagabada River), River Camp {Papua New Guinea: Milne Bay Prov.: Owen Stanley Mtns., Mt. Pekopekowana, SE slope, along Wailahabahaba Creek (trib. of Sagabada River), River ",,Milne Bay Prov.,"F Kraus, I Bigilale",10 May 2002,"--, Owen Stanley Mtns., Mt. Pekopekowana, SE slope, along Wailahabahaba Creek , River Camp {Papua New Guinea: Milne Bay Prov.: Owen -tanley Mtns., Mt. Pekopekowana,  slope, along ailahabahaba Creek , River ",Milne Bay Prov.,Papua New Guinea,Milne Bay Prov.,"Owen Stanley Mtns., Mt. Pekopekowana, SE slope, along Wailahabahaba Creek (trib. of Sagabada River), River Camp {Papua New Guinea: Milne Bay Prov.: Owen Stanley Mtns., Mt. Pekopekowana, SE slope, along Wailahabahaba Creek (trib. of Sagabada River), River ","Owen Stanley Mtns., Mt. Pekopekowana, SE slope, along Wailahabahaba Creek (trib. of Sagabada River), River Camp",-10.16957,150.9288,"Owen Stanley Mtns., Mt. Pekopekowana, SE slope, along Wailahabahaba Creek , River Camp {Papua New Guinea: Milne Bay Prov.: Owen Stanley Mtns., Mt. Pekopekowana, SE slope, along Wailahabahaba Creek , River ",B
FK 5044,Oreophryne equus,15775,alcoholic,installed July 2017,"Cloudy Mts., Camp 1, along Upaelisafupi Stream, 10 deg 29.825 min S, 150 deg 13.978 min E, 715 m","Cloudy Mtns., SW of Gadowalai, along Upaelisafupi Stream, Camp 1 {Papua New Guinea: Milne Bay Prov.: Cloudy Mtns., SW of Gadowalai, along Upaelisafupi Stream, Camp 1    :    715 m    :    10.4970833ºS  150.2329666ºE.}",,Milne Bay Prov.,"F Kraus, I Bigilale",12 Apr 2002,"-10.4970833, 150.2329666",715 m,Papua New Guinea,Milne Bay Prov.,"Cloudy Mtns., SW of Gadowalai, along Upaelisafupi Stream, Camp 1    ","Cloudy Mtns., SW of Gadowalai, along Upaelisafupi Stream, Camp 1",-10.4970833,150.2329666,10.4970833ºS 150.2329666ºE,B
FK 9712,Oreophryne ezra,20467,alcoholic,"installed, Apr 2010","Sudest Island, track up Mt. Rio, between Pts. 6 & 7, 650 m.  Point 6 = 11.50435° S, 153.42957° E (Aus66), 633 m.  Point 7 = 11.50659° S, 153.43050° E (Aus66), 726 m. = from F Kraus field catalogue","Mt. Rio, track up mountain between ""Point 6"" and ""Point 7"" {Papua New Guinea: Milne Bay Prov.: Sudest Island: Mt. Rio, track up mountain between ""Point 6"" and ""Point 7""    :    650 m    :    11.5058876ºS  153.4294871ºE.}",,Milne Bay Prov.,F Kraus,21 Apr 2004,"-11.5058876, 153.4294871",650 m,Papua New Guinea,Milne Bay Prov.,Sudest Island,"Mt. Rio, track up mountain between Point 6 and Point 7",-11.5058876,153.4294871,11.5058876ºS 153.4294871ºE,B
FK 9759,Oreophryne ezra,20468,alcoholic,"installed in type cabinet, Apr 2010","Sudest Island, track up Mt. Rio, between Pts. 6 & 7.  Point 6 = 11.50435° S, 153.42957° E (Aus66), 633 m.  Point 7 = 11.50659° S, 153.43050° E (Aus66), 726 m. = Kraus field catalog","Mt. Rio, track up mountain between ""Point 6"" and ""Point 7"" {Papua New Guinea: Milne Bay Prov.: Sudest Island: Mt. Rio, track up mountain between ""Point 6"" and ""Point 7""    :    633-726 m    :    11.5054347ºS  153.429945ºE.}",,Milne Bay Prov.,F Kraus,23 Apr 2004,"-11.5054347, 153.429945",633-726 m,Papua New Guinea,Milne Bay Prov.,Sudest Island,"Mt. Rio, track up mountain between Point 6 and Point 7",-11.5054347,153.429945,11.5054347ºS 153.429945ºE,B
FK 9760,Oreophryne ezra,20469,alcoholic,"installed, Apr 2010","Sudest Island, track up Mt. Rio, between Pts. 6 & 7.  Point 6 = 11.50435° S, 153.42957° E (Aus66), 633 m.  Point 7 = 11.50659° S, 153.43050° E (Aus66), 726 m. = Kraus field catalog","Mt. Rio, track up mountain between ""Point 6"" and ""Point 7"" {Papua New Guinea: Milne Bay Prov.: Sudest Island: Mt. Rio, track up mountain between ""Point 6"" and ""Point 7""    :    633-726 m    :    11.5054347ºS  153.429945ºE.}",,Milne Bay Prov.,F Kraus,23 Apr 2004,"-11.5054347, 153.429945",633-726 m,Papua New Guinea,Milne Bay Prov.,Sudest Island,"Mt. Rio, track up mountain between Point 6 and Point 7",-11.5054347,153.429945,11.5054347ºS 153.429945ºE,B
FK 9761,Oreophryne ezra,20470,alcoholic,"installed, Apr 2010","Sudest Island, track up Mt. Rio, between Pts. 6 & 7.  Point 6 = 11.50435° S, 153.42957° E (Aus66), 633 m.  Point 7 = 11.50659° S, 153.43050° E (Aus66), 726 m. = Kraus field catalog","Mt. Rio, track up mountain between ""Point 6"" and ""Point 7"" {Papua New Guinea: Milne Bay Prov.: Sudest Island: Mt. Rio, track up mountain between ""Point 6"" and ""Point 7""    :    633-726 m    :    11.5054347ºS  153.429945ºE.}",,Milne Bay Prov.,F Kraus,23 Apr 2004,"-11.5054347, 153.429945",633-726 m,Papua New Guinea,Milne Bay Prov.,Sudest Island,"Mt. Rio, track up mountain between Point 6 and Point 7",-11.5054347,153.429945,11.5054347ºS 153.429945ºE,B
FK 9762,Oreophryne ezra,20471,alcoholic,"installed, Apr 2010","Sudest Island, track up Mt. Rio, between Pts. 6 & 7.  Point 6 = 11.50435° S, 153.42957° E (Aus66), 633 m.  Point 7 = 11.50659° S, 153.43050° E (Aus66), 726 m. = Kraus field catalog","Mt. Rio, track up mountain between ""Point 6"" and ""Point 7"" {Papua New Guinea: Milne Bay Prov.: Sudest Island: Mt. Rio, track up mountain between ""Point 6"" and ""Point 7""    :    633-726 m    :    11.5054347ºS  153.429945ºE.}",,Milne Bay Prov.,F Kraus,23 Apr 2004,"-11.5054347, 153.429945",633-726 m,Papua New Guinea,Milne Bay Prov.,Sudest Island,"Mt. Rio, track up mountain between Point 6 and Point 7",-11.5054347,153.429945,11.5054347ºS 153.429945ºE,B
FK 9763,Oreophryne ezra,20472,alcoholic,"installed, Apr 2010","Sudest Island, track up Mt. Rio, between Pts. 6 & 7.  Point 6 = 11.50435° S, 153.42957° E (Aus66), 633 m.  Point 7 = 11.50659° S, 153.43050° E (Aus66), 726 m. = Kraus field catalog","Mt. Rio, track up mountain between ""Point 6"" and ""Point 7"" {Papua New Guinea: Milne Bay Prov.: Sudest Island: Mt. Rio, track up mountain between ""Point 6"" and ""Point 7""    :    633-726 m    :    11.5054347ºS  153.429945ºE.}",,Milne Bay Prov.,F Kraus,23 Apr 2004,"-11.5054347, 153.429945",633-726 m,Papua New Guinea,Milne Bay Prov.,Sudest Island,"Mt. Rio, track up mountain between Point 6 and Point 7",-11.5054347,153.429945,11.5054347ºS 153.429945ºE,B
FK 9764,Oreophryne ezra,20473,alcoholic,"installed, Apr 2010","Sudest Island, track up Mt. Rio, between Pts. 6 & 7.  Point 6 = 11.50435° S, 153.42957° E (Aus66), 633 m.  Point 7 = 11.50659° S, 153.43050° E (Aus66), 726 m. = Kraus field catalog","Mt. Rio, track up mountain between ""Point 6"" and ""Point 7"" {Papua New Guinea: Milne Bay Prov.: Sudest Island: Mt. Rio, track up mountain between ""Point 6"" and ""Point 7""    :    633-726 m    :    11.5054347ºS  153.429945ºE.}",,Milne Bay Prov.,F Kraus,23 Apr 2004,"-11.5054347, 153.429945",633-726 m,Papua New Guinea,Milne Bay Prov.,Sudest Island,"Mt. Rio, track up mountain between Point 6 and Point 7",-11.5054347,153.429945,11.5054347ºS 153.429945ºE,B
FK 9768,Oreophryne ezra,20474,alcoholic,"installed, Apr 2010","Sudest Island, track up Mt. Rio, between Pt. 7 & Mt. Rio summit.  Point 7 = 11.50659° S, 153.43050° E [Aus66], 726 m. = Kraus field catalog","Mt. Rio, track up mountain between ""Point 7"" and summit {Papua New Guinea: Milne Bay Prov.: Sudest Island: Mt. Rio, track up mountain between ""Point 7"" and summit    :    726-799 m    :    11.5081521ºS  153.4308608ºE.}",,Milne Bay Prov.,F Kraus,23 Apr 2004,"-11.5081521, 153.4308608",726-799 m,Papua New Guinea,Milne Bay Prov.,Sudest Island,"Mt. Rio, track up mountain between Point 7 and summit",-11.5081521,153.4308608,11.5081521ºS 153.4308608ºE,B
FK 9769,Oreophryne ezra,20475,alcoholic,"installed, Apr 2010","Sudest Island, track up Mt. Rio, between Pt. 7 & Mt. Rio summit.  Point 7 = 11.50659° S, 153.43050° E [Aus66], 726 m. = Kraus field catalog","Mt. Rio, track up mountain between ""Point 7"" and summit {Papua New Guinea: Milne Bay Prov.: Sudest Island: Mt. Rio, track up mountain between ""Point 7"" and summit    :    726-799 m    :    11.5081521ºS  153.4308608ºE.}",,Milne Bay Prov.,F Kraus,23 Apr 2004,"-11.5081521, 153.4308608",726-799 m,Papua New Guinea,Milne Bay Prov.,Sudest Island,"Mt. Rio, track up mountain between Point 7 and summit",-11.5081521,153.4308608,11.5081521ºS 153.4308608ºE,B
FK 9770,Oreophryne ezra,20476,alcoholic,"installed, Apr 2010","Sudest Island, track up Mt. Rio, between Pt. 7 & Mt. Rio summit.  Point 7 = 11.50659° S, 153.43050° E [Aus66], 726 m. = Kraus field catalog","Mt. Rio, track up mountain between ""Point 7"" and summit {Papua New Guinea: Milne Bay Prov.: Sudest Island: Mt. Rio, track up mountain between ""Point 7"" and summit    :    726-799 m    :    11.5081521ºS  153.4308608ºE.}",,Milne Bay Prov.,F Kraus,23 Apr 2004,"-11.5081521, 153.4308608",726-799 m,Papua New Guinea,Milne Bay Prov.,Sudest Island,"Mt. Rio, track up mountain between Point 7 and summit",-11.5081521,153.4308608,11.5081521ºS 153.4308608ºE,B
FK 9775,Oreophryne ezra,20477,alcoholic,"installed, Apr 2010","Sudest Island, track up Mt. Rio, between Pt. 7 & Mt. Rio summit.  Point 7 = 11.50659° S, 153.43050° E [Aus66], 726 m. = Kraus field catalog","Mt. Rio, track up mountain between ""Point 7"" and summit {Papua New Guinea: Milne Bay Prov.: Sudest Island: Mt. Rio, track up mountain between ""Point 7"" and summit    :    726-799 m    :    11.5081521ºS  153.4308608ºE.}",,Milne Bay Prov.,F Kraus,23 Apr 2004,"-11.5081521, 153.4308608",726-799 m,Papua New Guinea,Milne Bay Prov.,Sudest Island,"Mt. Rio, track up mountain between Point 7 and summit",-11.5081521,153.4308608,11.5081521ºS 153.4308608ºE,B
FK 9776,Oreophryne ezra,20478,alcoholic,"installed, Apr 2010","Sudest Island, track up Mt. Rio, between Pt. 7 & Mt. Rio summit.  Point 7 = 11.50659° S, 153.43050° E [Aus66], 726 m. = Kraus field catalog","Mt. Rio, track up mountain between ""Point 7"" and summit {Papua New Guinea: Milne Bay Prov.: Sudest Island: Mt. Rio, track up mountain between ""Point 7"" and summit    :    726-799 m    :    11.5081521ºS  153.4308608ºE.}",,Milne Bay Prov.,F Kraus,23 Apr 2004,"-11.5081521, 153.4308608",726-799 m,Papua New Guinea,Milne Bay Prov.,Sudest Island,"Mt. Rio, track up mountain between Point 7 and summit",-11.5081521,153.4308608,11.5081521ºS 153.4308608ºE,B
FK 9777,Oreophryne ezra,20479,alcoholic,"installed, Apr 2010","Sudest Island, track up Mt. Rio, between Pt. 7 & Mt. Rio summit.  Point 7 = 11.50659° S, 153.43050° E [Aus66], 726 m. = Kraus field catalog","Mt. Rio, track up mountain between ""Point 7"" and summit {Papua New Guinea: Milne Bay Prov.: Sudest Island: Mt. Rio, track up mountain between ""Point 7"" and summit    :    726-799 m    :    11.5081521ºS  153.4308608ºE.}",,Milne Bay Prov.,F Kraus,23 Apr 2004,"-11.5081521, 153.4308608",726-799 m,Papua New Guinea,Milne Bay Prov.,Sudest Island,"Mt. Rio, track up mountain between Point 7 and summit",-11.5081521,153.4308608,11.5081521ºS 153.4308608ºE,B
FK 9779,Oreophryne ezra,20480,alcoholic,"installed, Apr 2010","Sudest Island, track up Mt. Rio, between Pt. 7 & Mt. Rio summit.  Point 7 = 11.50659° S, 153.43050° E [Aus66], 726 m. = Kraus field catalog","Mt. Rio, track up mountain between ""Point 7"" and summit {Papua New Guinea: Milne Bay Prov.: Sudest Island: Mt. Rio, track up mountain between ""Point 7"" and summit    :    726-799 m    :    11.5081521ºS  153.4308608ºE.}",,Milne Bay Prov.,F Kraus,23 Apr 2004,"-11.5081521, 153.4308608",726-799 m,Papua New Guinea,Milne Bay Prov.,Sudest Island,"Mt. Rio, track up mountain between Point 7 and summit",-11.5081521,153.4308608,11.5081521ºS 153.4308608ºE,B
FK 9780,Oreophryne ezra,20481,alcoholic,"installed, Apr 2010","Sudest Island, track up Mt. Rio, between Pt. 7 & Mt. Rio summit.  Point 7 = 11.50659° S, 153.43050° E [Aus66], 726 m. = Kraus field catalog","Mt. Rio, track up mountain between ""Point 7"" and summit {Papua New Guinea: Milne Bay Prov.: Sudest Island: Mt. Rio, track up mountain between ""Point 7"" and summit    :    726-799 m    :    11.5081521ºS  153.4308608ºE.}",,Milne Bay Prov.,F Kraus,23 Apr 2004,"-11.5081521, 153.4308608",726-799 m,Papua New Guinea,Milne Bay Prov.,Sudest Island,"Mt. Rio, track up mountain between Point 7 and summit",-11.5081521,153.4308608,11.5081521ºS 153.4308608ºE,B
FK 9781,Oreophryne ezra,20482,alcoholic,"installed, Apr 2010","Sudest Island, track up Mt. Rio, between Pt. 7 & Mt. Rio summit.  Point 7 = 11.50659° S, 153.43050° E [Aus66], 726 m. = Kraus field catalog","Mt. Rio, track up mountain between ""Point 7"" and summit {Papua New Guinea: Milne Bay Prov.: Sudest Island: Mt. Rio, track up mountain between ""Point 7"" and summit    :    726-799 m    :    11.5081521ºS  153.4308608ºE.}",,Milne Bay Prov.,F Kraus,23 Apr 2004,"-11.5081521, 153.4308608",726-799 m,Papua New Guinea,Milne Bay Prov.,Sudest Island,"Mt. Rio, track up mountain between Point 7 and summit",-11.5081521,153.4308608,11.5081521ºS 153.4308608ºE,B
FK 9786,Oreophryne ezra,20483,alcoholic,"installed, Apr 2010","Sudest Island, track up Mt. Rio, between Pts. 6 & 7.  Point 6 = 11.50435° S, 153.42957° E (Aus66), 633 m.  Point 7 = 11.50659° S, 153.43050° E (Aus66), 726 m. = Kraus field catalog","Mt. Rio, track up mountain between ""Point 6"" and ""Point 7"" {Papua New Guinea: Milne Bay Prov.: Sudest Island: Mt. Rio, track up mountain between ""Point 6"" and ""Point 7""    :    633-726 m    :    11.5054347ºS  153.429945ºE.}",,Milne Bay Prov.,F Kraus,23 Apr 2004,"-11.5054347, 153.429945",633-726 m,Papua New Guinea,Milne Bay Prov.,Sudest Island,"Mt. Rio, track up mountain between Point 6 and Point 7",-11.5054347,153.429945,11.5054347ºS 153.429945ºE,B
FK 9787,Oreophryne ezra,20484,alcoholic,"installed, Apr 2010","Sudest Island, track up Mt. Rio, between Pts. 6 & 7.  Point 6 = 11.50435° S, 153.42957° E (Aus66), 633 m.  Point 7 = 11.50659° S, 153.43050° E (Aus66), 726 m. = Kraus field catalog","Mt. Rio, track up mountain between ""Point 6"" and ""Point 7"" {Papua New Guinea: Milne Bay Prov.: Sudest Island: Mt. Rio, track up mountain between ""Point 6"" and ""Point 7""    :    633-726 m    :    11.5054347ºS  153.429945ºE.}",,Milne Bay Prov.,F Kraus,23 Apr 2004,"-11.5054347, 153.429945",633-726 m,Papua New Guinea,Milne Bay Prov.,Sudest Island,"Mt. Rio, track up mountain between Point 6 and Point 7",-11.5054347,153.429945,11.5054347ºS 153.429945ºE,B
FK 9788,Oreophryne ezra,20485,alcoholic,"installed, Apr 2010","Sudest Island, track up Mt. Rio, between Pts. 6 & 7.  Point 6 = 11.50435° S, 153.42957° E (Aus66), 633 m.  Point 7 = 11.50659° S, 153.43050° E (Aus66), 726 m. = Kraus field catalog","Mt. Rio, track up mountain between ""Point 6"" and ""Point 7"" {Papua New Guinea: Milne Bay Prov.: Sudest Island: Mt. Rio, track up mountain between ""Point 6"" and ""Point 7""    :    633-726 m    :    11.5054347ºS  153.429945ºE.}",,Milne Bay Prov.,F Kraus,23 Apr 2004,"-11.5054347, 153.429945",633-726 m,Papua New Guinea,Milne Bay Prov.,Sudest Island,"Mt. Rio, track up mountain between Point 6 and Point 7",-11.5054347,153.429945,11.5054347ºS 153.429945ºE,B
FK 9846,Oreophryne ezra,20486,alcoholic,"installed, Apr 2010","Sudest Island, track up Mt. Rio, between Pts. 6 & 7, 680 m.    Point 6 = 11.50435° S, 153.42957° E (Aus66), 633 m.  Point 7 = 11.50659° S, 153.43050° E (Aus66), 726 m. = Kraus field catalog","Mt. Rio, track up mountain between ""Point 6"" and ""Point 7"" {Papua New Guinea: Milne Bay Prov.: Sudest Island: Mt. Rio, track up mountain between ""Point 6"" and ""Point 7""    :    680 m    :    11.5058876ºS  153.429945ºE.}",,Milne Bay Prov.,F Kraus,25 Apr 2004,"-11.5058876, 153.429945",680 m,Papua New Guinea,Milne Bay Prov.,Sudest Island,"Mt. Rio, track up mountain between Point 6 and Point 7",-11.5058876,153.429945,11.5058876ºS 153.429945ºE,B
FK 9847,Oreophryne ezra,20487,alcoholic,"installed, Apr 2010","Sudest Island, track up Mt. Rio, Point 7 area, 11.50659° S, 153.43050° E [Aus66], 726 m. = Kraus field catalog","Mt. Rio, track up mountain, ""Point 7"" area (shoulder lookout) {Papua New Guinea: Milne Bay Prov.: Sudest Island: Mt. Rio, track up mountain, ""Point 7"" area (shoulder lookout)    :    726 m    :    11.50659ºS [11.50659° S (AGD66)]  153.4305ºE [153.43050° E",,Milne Bay Prov.,F Kraus,25 Apr 2004,"-, Mt. Rio, track up mountain, ""Point 7"" area {Papua ew Guinea: Milne Bay Prov.: Sudest Island: Mt. Rio, track up mountain, ""Point 7"" area : 726 m : 11.50659 153.4305 [153.43050 ",726 m,Papua New Guinea,Milne Bay Prov.,Sudest Island,"Mt. Rio, track up mountain, Point 7 area (shoulder lookout)",-11.50659,153.4305,"Mt. Rio, track up mountain, ""Point 7"" area {Papua New Guinea: Milne Bay Prov.: Sudest Island: Mt. Rio, track up mountain, ""Point 7"" area : 726 m : 11.50659ºS 153.4305ºE [153.43050° E",B
FK 9848,Oreophryne ezra,20488,alcoholic,"installed, Apr 2010","Sudest Island, track up Mt. Rio, Point 7 area, 11.50659° S, 153.43050° E [Aus66], 726 m. = Kraus field catalog","Mt. Rio, track up mountain, ""Point 7"" area (shoulder lookout) {Papua New Guinea: Milne Bay Prov.: Sudest Island: Mt. Rio, track up mountain, ""Point 7"" area (shoulder lookout)    :    726 m    :    11.50659ºS [11.50659° S (AGD66)]  153.4305ºE [153.43050° E",,Milne Bay Prov.,F Kraus,25 Apr 2004,"-, Mt. Rio, track up mountain, ""Point 7"" area {Papua ew Guinea: Milne Bay Prov.: Sudest Island: Mt. Rio, track up mountain, ""Point 7"" area : 726 m : 11.50659 153.4305 [153.43050 ",726 m,Papua New Guinea,Milne Bay Prov.,Sudest Island,"Mt. Rio, track up mountain, Point 7 area (shoulder lookout)",-11.50659,153.4305,"Mt. Rio, track up mountain, ""Point 7"" area {Papua New Guinea: Milne Bay Prov.: Sudest Island: Mt. Rio, track up mountain, ""Point 7"" area : 726 m : 11.50659ºS 153.4305ºE [153.43050° E",B
FK 9849,Oreophryne ezra,20489,alcoholic,"installed, Apr 2010","Sudest Island, track up Mt. Rio, Point 7 area, 11.50659° S, 153.43050° E [Aus66], 726 m. = Kraus field catalog","Mt. Rio, track up mountain, ""Point 7"" area (shoulder lookout) {Papua New Guinea: Milne Bay Prov.: Sudest Island: Mt. Rio, track up mountain, ""Point 7"" area (shoulder lookout)    :    726 m    :    11.50659ºS [11.50659° S (AGD66)]  153.4305ºE [153.43050° E",,Milne Bay Prov.,F Kraus,25 Apr 2004,"-, Mt. Rio, track up mountain, ""Point 7"" area {Papua ew Guinea: Milne Bay Prov.: Sudest Island: Mt. Rio, track up mountain, ""Point 7"" area : 726 m : 11.50659 153.4305 [153.43050 ",726 m,Papua New Guinea,Milne Bay Prov.,Sudest Island,"Mt. Rio, track up mountain, Point 7 area (shoulder lookout)",-11.50659,153.4305,"Mt. Rio, track up mountain, ""Point 7"" area {Papua New Guinea: Milne Bay Prov.: Sudest Island: Mt. Rio, track up mountain, ""Point 7"" area : 726 m : 11.50659ºS 153.4305ºE [153.43050° E",B
FK 9850,Oreophryne ezra,20490,alcoholic,"installed, Apr 2010","Sudest Island, track up Mt. Rio, Point 7 area, 11.50659° S, 153.43050° E [Aus66], 726 m. = Kraus field catalog","Mt. Rio, track up mountain, ""Point 7"" area (shoulder lookout) {Papua New Guinea: Milne Bay Prov.: Sudest Island: Mt. Rio, track up mountain, ""Point 7"" area (shoulder lookout)    :    726 m    :    11.50659ºS [11.50659° S (AGD66)]  153.4305ºE [153.43050° E",,Milne Bay Prov.,F Kraus,25 Apr 2004,"-, Mt. Rio, track up mountain, ""Point 7"" area {Papua ew Guinea: Milne Bay Prov.: Sudest Island: Mt. Rio, track up mountain, ""Point 7"" area : 726 m : 11.50659 153.4305 [153.43050 ",726 m,Papua New Guinea,Milne Bay Prov.,Sudest Island,"Mt. Rio, track up mountain, Point 7 area (shoulder lookout)",-11.50659,153.4305,"Mt. Rio, track up mountain, ""Point 7"" area {Papua New Guinea: Milne Bay Prov.: Sudest Island: Mt. Rio, track up mountain, ""Point 7"" area : 726 m : 11.50659ºS 153.4305ºE [153.43050° E",B
FK 9851,Oreophryne ezra,20491,alcoholic,"installed, Apr 2010","Sudest Island, track up Mt. Rio, Point 7 area, 11.50659° S, 153.43050° E [Aus66], 726 m. = Kraus field catalog","Mt. Rio, track up mountain, ""Point 7"" area (shoulder lookout) {Papua New Guinea: Milne Bay Prov.: Sudest Island: Mt. Rio, track up mountain, ""Point 7"" area (shoulder lookout)    :    726 m    :    11.50659ºS [11.50659° S (AGD66)]  153.4305ºE [153.43050° E",,Milne Bay Prov.,F Kraus,25 Apr 2004,"-, Mt. Rio, track up mountain, ""Point 7"" area {Papua ew Guinea: Milne Bay Prov.: Sudest Island: Mt. Rio, track up mountain, ""Point 7"" area : 726 m : 11.50659 153.4305 [153.43050 ",726 m,Papua New Guinea,Milne Bay Prov.,Sudest Island,"Mt. Rio, track up mountain, Point 7 area (shoulder lookout)",-11.50659,153.4305,"Mt. Rio, track up mountain, ""Point 7"" area {Papua New Guinea: Milne Bay Prov.: Sudest Island: Mt. Rio, track up mountain, ""Point 7"" area : 726 m : 11.50659ºS 153.4305ºE [153.43050° E",B
FK 9856,Oreophryne ezra,20492,alcoholic,"installed, Apr 2010","Sudest Island, track up Mt. Rio, between Pt. 7 & Mt. Rio summit.  Point 7 = 11.50659° S, 153.43050° E [Aus66], 726 m. = Kraus field catalog","Mt. Rio, track up mountain between ""Point 7"" and summit {Papua New Guinea: Milne Bay Prov.: Sudest Island: Mt. Rio, track up mountain between ""Point 7"" and summit    :    726-799 m    :    11.5081521ºS  153.4308608ºE.}",,Milne Bay Prov.,F Kraus,25 Apr 2004,"-11.5081521, 153.4308608",726-799 m,Papua New Guinea,Milne Bay Prov.,Sudest Island,"Mt. Rio, track up mountain between Point 7 and summit",-11.5081521,153.4308608,11.5081521ºS 153.4308608ºE,B
FK 9857,Oreophryne ezra,20493,alcoholic,"installed, Apr 2010","Sudest Island, track up Mt. Rio, between Pt. 7 & Mt. Rio summit.  Point 7 = 11.50659° S, 153.43050° E [Aus66], 726 m. = Kraus field catalog","Mt. Rio, track up mountain between ""Point 7"" and summit {Papua New Guinea: Milne Bay Prov.: Sudest Island: Mt. Rio, track up mountain between ""Point 7"" and summit    :    726-799 m    :    11.5081521ºS  153.4308608ºE.}",,Milne Bay Prov.,F Kraus,25 Apr 2004,"-11.5081521, 153.4308608",726-799 m,Papua New Guinea,Milne Bay Prov.,Sudest Island,"Mt. Rio, track up mountain between Point 7 and summit",-11.5081521,153.4308608,11.5081521ºS 153.4308608ºE,B
FK 9858,Oreophryne ezra,20494,alcoholic,"installed, Apr 2010","Sudest Island, track up Mt. Rio, between Pt. 7 & Mt. Rio summit.  Point 7 = 11.50659° S, 153.43050° E [Aus66], 726 m. = Kraus field catalog","Mt. Rio, track up mountain between ""Point 7"" and summit {Papua New Guinea: Milne Bay Prov.: Sudest Island: Mt. Rio, track up mountain between ""Point 7"" and summit    :    726-799 m    :    11.5081521ºS  153.4308608ºE.}",,Milne Bay Prov.,F Kraus,25 Apr 2004,"-11.5081521, 153.4308608",726-799 m,Papua New Guinea,Milne Bay Prov.,Sudest Island,"Mt. Rio, track up mountain between Point 7 and summit",-11.5081521,153.4308608,11.5081521ºS 153.4308608ºE,B
FK 9859,Oreophryne ezra,20495,alcoholic,"installed, Apr 2010","Sudest Island, track up Mt. Rio, between Pt. 7 & Mt. Rio summit.  Point 7 = 11.50659° S, 153.43050° E [Aus66], 726 m. = Kraus field catalog","Mt. Rio, track up mountain between ""Point 7"" and summit {Papua New Guinea: Milne Bay Prov.: Sudest Island: Mt. Rio, track up mountain between ""Point 7"" and summit    :    726-799 m    :    11.5081521ºS  153.4308608ºE.}",,Milne Bay Prov.,F Kraus,25 Apr 2004,"-11.5081521, 153.4308608",726-799 m,Papua New Guinea,Milne Bay Prov.,Sudest Island,"Mt. Rio, track up mountain between Point 7 and summit",-11.5081521,153.4308608,11.5081521ºS 153.4308608ºE,B
FK 6164,Oreophryne insulana,16119,alcoholic + alc gut,"installed, May 2003","Fergusson Is., 1720 m on Oyatabu = F Kraus field catalogue; see master list of localities in the Accession file","Mt. Kilkerran (=Oya Tabu), E slope {Papua New Guinea: Milne Bay Prov.: Fergusson Island: Mt. Kilkerran (=Oya Tabu), E slope    :    1720 m    :    9.4601449ºS  150.7723133ºE.}",,Milne Bay Prov.,F Kraus,29 Aug 2002,"-9.4601449, 150.7723133",1720 m,Papua New Guinea,Milne Bay Prov.,Fergusson Island,"Mt. Kilkerran (=Oya Tabu), E slope",-9.4601449,150.7723133,9.4601449ºS 150.7723133ºE,B
FK 6158,Oreophryne insulana,16546,alcoholic,"installed, Apr 2003","Fergusson Is., Mt. Kilkerran (Oyatabu) summit - 9° 27.511' S, 150° 46.147' E, 1830 m. = F Kraus field catalogue; see master list of localities in the Accession file","Mt. Kilkerran (=Oya Tabu), summit {Papua New Guinea: Milne Bay Prov.: Fergusson Island: Mt. Kilkerran (=Oya Tabu), summit    :    1830 m    :    9.4624094ºS  150.7668488ºE.}",,Milne Bay Prov.,F Kraus and D Salepuna,28 Aug 2002,"-9.4624094, 150.7668488",1830 m,Papua New Guinea,Milne Bay Prov.,Fergusson Island,"Mt. Kilkerran (=Oya Tabu), summit",-9.4624094,150.7668488,9.4624094ºS 150.7668488ºE,B
FK 6159,Oreophryne insulana,16547,alcoholic,"installed, Apr 2003","Fergusson Is., Mt. Kilkerran (Oyatabu) summit - 9° 27.511' S, 150° 46.147' E, 1830 m. = F Kraus field catalogue; see master list of localities in the Accession file","Mt. Kilkerran (=Oya Tabu), summit {Papua New Guinea: Milne Bay Prov.: Fergusson Island: Mt. Kilkerran (=Oya Tabu), summit    :    1830 m    :    9.4624094ºS  150.7668488ºE.}",,Milne Bay Prov.,F Kraus and D Salepuna,28 Aug 2002,"-9.4624094, 150.7668488",1830 m,Papua New Guinea,Milne Bay Prov.,Fergusson Island,"Mt. Kilkerran (=Oya Tabu), summit",-9.4624094,150.7668488,9.4624094ºS 150.7668488ºE,B
FK 6162,Oreophryne insulana,16548,alcoholic,"installed, Apr 2003","Fergusson Is., 1720 m on Oyatabu = F Kraus field catalogue; see master list of localities in the Accession file","Mt. Kilkerran (=Oya Tabu), E slope {Papua New Guinea: Milne Bay Prov.: Fergusson Island: Mt. Kilkerran (=Oya Tabu), E slope    :    1720 m    :    9.4601449ºS  150.7723133ºE.}",,Milne Bay Prov.,F Kraus and D Salepuna,29 Aug 2002,"-9.4601449, 150.7723133",1720 m,Papua New Guinea,Milne Bay Prov.,Fergusson Island,"Mt. Kilkerran (=Oya Tabu), E slope",-9.4601449,150.7723133,9.4601449ºS 150.7723133ºE,B
FK 6163,Oreophryne insulana,16549,alcoholic,"installed, Apr 2003","Fergusson Is., 1720 m on Oyatabu = F Kraus field catalogue; see master list of localities in the Accession file","Mt. Kilkerran (=Oya Tabu), E slope {Papua New Guinea: Milne Bay Prov.: Fergusson Island: Mt. Kilkerran (=Oya Tabu), E slope    :    1720 m    :    9.4601449ºS  150.7723133ºE.}",,Milne Bay Prov.,F Kraus and D Salepuna,29 Aug 2002,"-9.4601449, 150.7723133",1720 m,Papua New Guinea,Milne Bay Prov.,Fergusson Island,"Mt. Kilkerran (=Oya Tabu), E slope",-9.4601449,150.7723133,9.4601449ºS 150.7723133ºE,B
FK 6165,Oreophryne insulana,16550,alcoholic,"installed, Apr 2003","Fergusson Is., 1720 m on Oyatabu = F Kraus field catalogue; see master list of localities in the Accession file","Mt. Kilkerran (=Oya Tabu), E slope {Papua New Guinea: Milne Bay Prov.: Fergusson Island: Mt. Kilkerran (=Oya Tabu), E slope    :    1720 m    :    9.4601449ºS  150.7723133ºE.}",,Milne Bay Prov.,F Kraus and D Salepuna,29 Aug 2002,"-9.4601449, 150.7723133",1720 m,Papua New Guinea,Milne Bay Prov.,Fergusson Island,"Mt. Kilkerran (=Oya Tabu), E slope",-9.4601449,150.7723133,9.4601449ºS 150.7723133ºE,B
FK 6166,Oreophryne insulana,16551,alcoholic,"installed, Apr 2003","Fergusson Is., 1720 m on Oyatabu = F Kraus field catalogue; see master list of localities in the Accession file","Mt. Kilkerran (=Oya Tabu), E slope {Papua New Guinea: Milne Bay Prov.: Fergusson Island: Mt. Kilkerran (=Oya Tabu), E slope    :    1720 m    :    9.4601449ºS  150.7723133ºE.}",,Milne Bay Prov.,F Kraus and D Salepuna,29 Aug 2002,"-9.4601449, 150.7723133",1720 m,Papua New Guinea,Milne Bay Prov.,Fergusson Island,"Mt. Kilkerran (=Oya Tabu), E slope",-9.4601449,150.7723133,9.4601449ºS 150.7723133ºE,B
FK 7798,Oreophryne matawan,17978,alcoholic,installed July 2017,nr. Uga R. below Camp 5,"Bunisi Village, 1 km S, near Uga River {Papua New Guinea: Milne Bay Prov.: Bunisi Village, 1 km S, near Uga River    :    1400 m    :    10.0226449ºS  149.5919854ºE.}",,Milne Bay Prov.,F Kraus,27 Feb 2003,"-10.0226449, 149.5919854",1400 m,Papua New Guinea,Milne Bay Prov.,"Bunisi Village, 1 km S, near Uga River    ","Bunisi Village, 1 km S, near Uga River",-10.0226449,149.5919854,10.0226449ºS 149.5919854ºE,B
FK 7799,Oreophryne matawan,17979,alcoholic,installed July 2017,nr. Uga R. below Camp 5,"Bunisi Village, 1 km S, near Uga River {Papua New Guinea: Milne Bay Prov.: Bunisi Village, 1 km S, near Uga River    :    1400 m    :    10.0226449ºS  149.5919854ºE.}",,Milne Bay Prov.,F Kraus,27 Feb 2003,"-10.0226449, 149.5919854",1400 m,Papua New Guinea,Milne Bay Prov.,"Bunisi Village, 1 km S, near Uga River    ","Bunisi Village, 1 km S, near Uga River",-10.0226449,149.5919854,10.0226449ºS 149.5919854ºE,B
FK 7800,Oreophryne matawan,17980,alcoholic,installed July 2017,nr. Uga R. below Camp 5,"Bunisi Village, 1 km S, near Uga River {Papua New Guinea: Milne Bay Prov.: Bunisi Village, 1 km S, near Uga River    :    1400 m    :    10.0226449ºS  149.5919854ºE.}",,Milne Bay Prov.,F Kraus,27 Feb 2003,"-10.0226449, 149.5919854",1400 m,Papua New Guinea,Milne Bay Prov.,"Bunisi Village, 1 km S, near Uga River    ","Bunisi Village, 1 km S, near Uga River",-10.0226449,149.5919854,10.0226449ºS 149.5919854ºE,B
FK 7801,Oreophryne matawan,17981,alcoholic,installed July 2017,nr. Uga R. below Camp 5,"Bunisi Village, 1 km S, near Uga River {Papua New Guinea: Milne Bay Prov.: Bunisi Village, 1 km S, near Uga River    :    1400 m    :    10.0226449ºS  149.5919854ºE.}",,Milne Bay Prov.,F Kraus,27 Feb 2003,"-10.0226449, 149.5919854",1400 m,Papua New Guinea,Milne Bay Prov.,"Bunisi Village, 1 km S, near Uga River    ","Bunisi Village, 1 km S, near Uga River",-10.0226449,149.5919854,10.0226449ºS 149.5919854ºE,B
FK 7802,Oreophryne matawan,17982,alcoholic,installed June 2017,nr. Uga R. below Camp 5,"Bunisi Village, 1 km S, near Uga River {Papua New Guinea: Milne Bay Prov.: Bunisi Village, 1 km S, near Uga River    :    1400 m    :    10.0226449ºS  149.5919854ºE.}",,Milne Bay Prov.,F Kraus,27 Feb 2003,"-10.0226449, 149.5919854",1400 m,Papua New Guinea,Milne Bay Prov.,"Bunisi Village, 1 km S, near Uga River    ","Bunisi Village, 1 km S, near Uga River",-10.0226449,149.5919854,10.0226449ºS 149.5919854ºE,B
FK 7803,Oreophryne matawan,17983,alcoholic,installed June 2017,nr. Uga R. below Camp 5,"Bunisi Village, 1 km S, near Uga River {Papua New Guinea: Milne Bay Prov.: Bunisi Village, 1 km S, near Uga River    :    1400 m    :    10.0226449ºS  149.5919854ºE.}",,Milne Bay Prov.,F Kraus,27 Feb 2003,"-10.0226449, 149.5919854",1400 m,Papua New Guinea,Milne Bay Prov.,"Bunisi Village, 1 km S, near Uga River    ","Bunisi Village, 1 km S, near Uga River",-10.0226449,149.5919854,10.0226449ºS 149.5919854ºE,B
FK 7804,Oreophryne matawan,17984,alcoholic,installed June 2017,nr. Uga R. below Camp 5,"Bunisi Village, 1 km S, near Uga River {Papua New Guinea: Milne Bay Prov.: Bunisi Village, 1 km S, near Uga River    :    1400 m    :    10.0226449ºS  149.5919854ºE.}",,Milne Bay Prov.,F Kraus,27 Feb 2003,"-10.0226449, 149.5919854",1400 m,Papua New Guinea,Milne Bay Prov.,"Bunisi Village, 1 km S, near Uga River    ","Bunisi Village, 1 km S, near Uga River",-10.0226449,149.5919854,10.0226449ºS 149.5919854ºE,B
FK 7805,Oreophryne matawan,17985,alcoholic,installed June 2017,nr. Uga R. below Camp 5,"Bunisi Village, 1 km S, near Uga River {Papua New Guinea: Milne Bay Prov.: Bunisi Village, 1 km S, near Uga River    :    1400 m    :    10.0226449ºS  149.5919854ºE.}",,Milne Bay Prov.,F Kraus,27 Feb 2003,"-10.0226449, 149.5919854",1400 m,Papua New Guinea,Milne Bay Prov.,"Bunisi Village, 1 km S, near Uga River    ","Bunisi Village, 1 km S, near Uga River",-10.0226449,149.5919854,10.0226449ºS 149.5919854ºE,B
FK 7856,Oreophryne matawan,17986,alcoholic,installed June 2017,nr. Uga R. below Camp 5,"Bunisi Village, 1 km S, near Uga River {Papua New Guinea: Milne Bay Prov.: Bunisi Village, 1 km S, near Uga River    :    1400 m    :    10.0226449ºS  149.5919854ºE.}",,Milne Bay Prov.,F Kraus,28 Feb 2003,"-10.0226449, 149.5919854",1400 m,Papua New Guinea,Milne Bay Prov.,"Bunisi Village, 1 km S, near Uga River    ","Bunisi Village, 1 km S, near Uga River",-10.0226449,149.5919854,10.0226449ºS 149.5919854ºE,B
FK 6875,Oreophryne picticrus,18118,alcoholic,installed July 2017,"Misima Island, Bwaga Bwaga ridge camp: 10° 40.437' S, 152° 40.971' E, 350-400 m.",Bwaga Bwaga Ridge camp {Papua New Guinea: Milne Bay Prov.: Misima Island: Bwaga Bwaga Ridge camp    :    440-480 m    :    10.67395ºS [10 40.437S (AGD66)]  152.68285ºE [152 40.971E (AGD66)].},,Milne Bay Prov.,F Kraus,12 Jan 2003,"-10.67395, 152.68285",440-480 m,Papua New Guinea,Milne Bay Prov.,Misima Island,Bwaga Bwaga Ridge camp,-10.67395,152.68285,10.67395ºS 152.68285ºE ,B
FK 6876,Oreophryne picticrus,18119,alcoholic,installed July 2017,"Misima Island, Bwaga Bwaga ridge camp: 10° 40.437' S, 152° 40.971' E, 350-400 m.",Bwaga Bwaga Ridge camp {Papua New Guinea: Milne Bay Prov.: Misima Island: Bwaga Bwaga Ridge camp    :    440-480 m    :    10.67395ºS [10 40.437S (AGD66)]  152.68285ºE [152 40.971E (AGD66)].},,Milne Bay Prov.,F Kraus,12 Jan 2003,"-10.67395, 152.68285",440-480 m,Papua New Guinea,Milne Bay Prov.,Misima Island,Bwaga Bwaga Ridge camp,-10.67395,152.68285,10.67395ºS 152.68285ºE ,B
FK 6877,Oreophryne picticrus,18120,alcoholic,installed July 2017,"Misima Island, Bwaga Bwaga ridge camp: 10° 40.437' S, 152° 40.971' E, 350-400 m.",Bwaga Bwaga Ridge camp {Papua New Guinea: Milne Bay Prov.: Misima Island: Bwaga Bwaga Ridge camp    :    440-480 m    :    10.67395ºS [10 40.437S (AGD66)]  152.68285ºE [152 40.971E (AGD66)].},,Milne Bay Prov.,F Kraus,12 Jan 2003,"-10.67395, 152.68285",440-480 m,Papua New Guinea,Milne Bay Prov.,Misima Island,Bwaga Bwaga Ridge camp,-10.67395,152.68285,10.67395ºS 152.68285ºE ,B
FK 6878,Oreophryne picticrus,18121,alcoholic,installed July 2017,"Misima Island, Bwaga Bwaga ridge camp: 10° 40.437' S, 152° 40.971' E, 350-400 m.",Bwaga Bwaga Ridge camp {Papua New Guinea: Milne Bay Prov.: Misima Island: Bwaga Bwaga Ridge camp    :    440-480 m    :    10.67395ºS [10 40.437S (AGD66)]  152.68285ºE [152 40.971E (AGD66)].},,Milne Bay Prov.,F Kraus,12 Jan 2003,"-10.67395, 152.68285",440-480 m,Papua New Guinea,Milne Bay Prov.,Misima Island,Bwaga Bwaga Ridge camp,-10.67395,152.68285,10.67395ºS 152.68285ºE ,B
FK 6879,Oreophryne picticrus,18122,alcoholic,installed July 2017,"Misima Island, Bwaga Bwaga ridge camp: 10° 40.437' S, 152° 40.971' E, 350-400 m.",Bwaga Bwaga Ridge camp {Papua New Guinea: Milne Bay Prov.: Misima Island: Bwaga Bwaga Ridge camp    :    440-480 m    :    10.67395ºS [10 40.437S (AGD66)]  152.68285ºE [152 40.971E (AGD66)].},,Milne Bay Prov.,F Kraus,12 Jan 2003,"-10.67395, 152.68285",440-480 m,Papua New Guinea,Milne Bay Prov.,Misima Island,Bwaga Bwaga Ridge camp,-10.67395,152.68285,10.67395ºS 152.68285ºE ,B
FK 6880,Oreophryne picticrus,18123,alcoholic,installed July 2017,"Misima Island, Bwaga Bwaga ridge camp: 10° 40.437' S, 152° 40.971' E, 350-400 m.",Bwaga Bwaga Ridge camp {Papua New Guinea: Milne Bay Prov.: Misima Island: Bwaga Bwaga Ridge camp    :    440-480 m    :    10.67395ºS [10 40.437S (AGD66)]  152.68285ºE [152 40.971E (AGD66)].},,Milne Bay Prov.,F Kraus,12 Jan 2003,"-10.67395, 152.68285",440-480 m,Papua New Guinea,Milne Bay Prov.,Misima Island,Bwaga Bwaga Ridge camp,-10.67395,152.68285,10.67395ºS 152.68285ºE ,B
FK 6881,Oreophryne picticrus,18124,alcoholic,installed July 2017,"Misima Island, Bwaga Bwaga ridge camp: 10° 40.437' S, 152° 40.971' E, 350-400 m.",Bwaga Bwaga Ridge camp {Papua New Guinea: Milne Bay Prov.: Misima Island: Bwaga Bwaga Ridge camp    :    440-480 m    :    10.67395ºS [10 40.437S (AGD66)]  152.68285ºE [152 40.971E (AGD66)].},,Milne Bay Prov.,F Kraus,12 Jan 2003,"-10.67395, 152.68285",440-480 m,Papua New Guinea,Milne Bay Prov.,Misima Island,Bwaga Bwaga Ridge camp,-10.67395,152.68285,10.67395ºS 152.68285ºE ,B
FK 6882,Oreophryne picticrus,18125,alcoholic,installed July 2017,"Misima Island, Bwaga Bwaga ridge camp: 10° 40.437' S, 152° 40.971' E, 350-400 m.",Bwaga Bwaga Ridge camp {Papua New Guinea: Milne Bay Prov.: Misima Island: Bwaga Bwaga Ridge camp    :    440-480 m    :    10.67395ºS [10 40.437S (AGD66)]  152.68285ºE [152 40.971E (AGD66)].},,Milne Bay Prov.,F Kraus,12 Jan 2003,"-10.67395, 152.68285",440-480 m,Papua New Guinea,Milne Bay Prov.,Misima Island,Bwaga Bwaga Ridge camp,-10.67395,152.68285,10.67395ºS 152.68285ºE ,B
FK 6883,Oreophryne picticrus,18126,alcoholic,installed July 2017,"Misima Island, Bwaga Bwaga ridge camp: 10° 40.437' S, 152° 40.971' E, 350-400 m.",Bwaga Bwaga Ridge camp {Papua New Guinea: Milne Bay Prov.: Misima Island: Bwaga Bwaga Ridge camp    :    440-480 m    :    10.67395ºS [10 40.437S (AGD66)]  152.68285ºE [152 40.971E (AGD66)].},,Milne Bay Prov.,F Kraus,12 Jan 2003,"-10.67395, 152.68285",440-480 m,Papua New Guinea,Milne Bay Prov.,Misima Island,Bwaga Bwaga Ridge camp,-10.67395,152.68285,10.67395ºS 152.68285ºE ,B
FK 6884,Oreophryne picticrus,18127,alcoholic,installed July 2017,"Misima Island, Bwaga Bwaga ridge camp: 10° 40.437' S, 152° 40.971' E, 350-400 m.",Bwaga Bwaga Ridge camp {Papua New Guinea: Milne Bay Prov.: Misima Island: Bwaga Bwaga Ridge camp    :    440-480 m    :    10.67395ºS [10 40.437S (AGD66)]  152.68285ºE [152 40.971E (AGD66)].},,Milne Bay Prov.,F Kraus,12 Jan 2003,"-10.67395, 152.68285",440-480 m,Papua New Guinea,Milne Bay Prov.,Misima Island,Bwaga Bwaga Ridge camp,-10.67395,152.68285,10.67395ºS 152.68285ºE ,B
FK 6885,Oreophryne picticrus,18128,alcoholic,installed July 2017,"Misima Island, Bwaga Bwaga ridge camp: 10° 40.437' S, 152° 40.971' E, 350-400 m.",Bwaga Bwaga Ridge camp {Papua New Guinea: Milne Bay Prov.: Misima Island: Bwaga Bwaga Ridge camp    :    440-480 m    :    10.67395ºS [10 40.437S (AGD66)]  152.68285ºE [152 40.971E (AGD66)].},,Milne Bay Prov.,F Kraus,12 Jan 2003,"-10.67395, 152.68285",440-480 m,Papua New Guinea,Milne Bay Prov.,Misima Island,Bwaga Bwaga Ridge camp,-10.67395,152.68285,10.67395ºS 152.68285ºE ,B
FK 6886,Oreophryne picticrus,18129,alcoholic,installed July 2017,"Misima Island, Bwaga Bwaga ridge camp: 10° 40.437' S, 152° 40.971' E, 350-400 m.",Bwaga Bwaga Ridge camp {Papua New Guinea: Milne Bay Prov.: Misima Island: Bwaga Bwaga Ridge camp    :    440-480 m    :    10.67395ºS [10 40.437S (AGD66)]  152.68285ºE [152 40.971E (AGD66)].},,Milne Bay Prov.,F Kraus,12 Jan 2003,"-10.67395, 152.68285",440-480 m,Papua New Guinea,Milne Bay Prov.,Misima Island,Bwaga Bwaga Ridge camp,-10.67395,152.68285,10.67395ºS 152.68285ºE ,B
FK 6890,Oreophryne picticrus,18130,alcoholic,installed July 2017,"Misima Island, Bwaga Bwaga ridge camp: 10° 40.437' S, 152° 40.971' E, 350-400 m.",Bwaga Bwaga Ridge camp {Papua New Guinea: Milne Bay Prov.: Misima Island: Bwaga Bwaga Ridge camp    :    440-480 m    :    10.67395ºS [10 40.437S (AGD66)]  152.68285ºE [152 40.971E (AGD66)].},,Milne Bay Prov.,F Kraus,12 Jan 2003,"-10.67395, 152.68285",440-480 m,Papua New Guinea,Milne Bay Prov.,Misima Island,Bwaga Bwaga Ridge camp,-10.67395,152.68285,10.67395ºS 152.68285ºE ,B
FK 6891,Oreophryne picticrus,18131,alcoholic,installed July 2017,"Misima Island, Bwaga Bwaga ridge camp: 10° 40.437' S, 152° 40.971' E, 350-400 m.",Bwaga Bwaga Ridge camp {Papua New Guinea: Milne Bay Prov.: Misima Island: Bwaga Bwaga Ridge camp    :    440-480 m    :    10.67395ºS [10 40.437S (AGD66)]  152.68285ºE [152 40.971E (AGD66)].},,Milne Bay Prov.,F Kraus,12 Jan 2003,"-10.67395, 152.68285",440-480 m,Papua New Guinea,Milne Bay Prov.,Misima Island,Bwaga Bwaga Ridge camp,-10.67395,152.68285,10.67395ºS 152.68285ºE ,B
FK 6892,Oreophryne picticrus,18132,alcoholic,installed July 2017,"Misima Island, Bwaga Bwaga ridge camp: 10° 40.437' S, 152° 40.971' E, 350-400 m.",Bwaga Bwaga Ridge camp {Papua New Guinea: Milne Bay Prov.: Misima Island: Bwaga Bwaga Ridge camp    :    440-480 m    :    10.67395ºS [10 40.437S (AGD66)]  152.68285ºE [152 40.971E (AGD66)].},,Milne Bay Prov.,F Kraus,12 Jan 2003,"-10.67395, 152.68285",440-480 m,Papua New Guinea,Milne Bay Prov.,Misima Island,Bwaga Bwaga Ridge camp,-10.67395,152.68285,10.67395ºS 152.68285ºE ,B
FK 6893,Oreophryne picticrus,18133,alcoholic,installed July 2017,"Misima Island, Bwaga Bwaga ridge camp: 10° 40.437' S, 152° 40.971' E, 350-400 m.",Bwaga Bwaga Ridge camp {Papua New Guinea: Milne Bay Prov.: Misima Island: Bwaga Bwaga Ridge camp    :    440-480 m    :    10.67395ºS [10 40.437S (AGD66)]  152.68285ºE [152 40.971E (AGD66)].},,Milne Bay Prov.,F Kraus,12 Jan 2003,"-10.67395, 152.68285",440-480 m,Papua New Guinea,Milne Bay Prov.,Misima Island,Bwaga Bwaga Ridge camp,-10.67395,152.68285,10.67395ºS 152.68285ºE ,B
FK 6894,Oreophryne picticrus,18134,alcoholic,installed July 2017,"Misima Island, Bwaga Bwaga ridge camp: 10° 40.437' S, 152° 40.971' E, 350-400 m.",Bwaga Bwaga Ridge camp {Papua New Guinea: Milne Bay Prov.: Misima Island: Bwaga Bwaga Ridge camp    :    440-480 m    :    10.67395ºS [10 40.437S (AGD66)]  152.68285ºE [152 40.971E (AGD66)].},,Milne Bay Prov.,F Kraus,12 Jan 2003,"-10.67395, 152.68285",440-480 m,Papua New Guinea,Milne Bay Prov.,Misima Island,Bwaga Bwaga Ridge camp,-10.67395,152.68285,10.67395ºS 152.68285ºE ,B
FK 6895,Oreophryne picticrus,18135,alcoholic,installed July 2017,"Misima Island, Bwaga Bwaga ridge camp: 10° 40.437' S, 152° 40.971' E, 350-400 m.",Bwaga Bwaga Ridge camp {Papua New Guinea: Milne Bay Prov.: Misima Island: Bwaga Bwaga Ridge camp    :    440-480 m    :    10.67395ºS [10 40.437S (AGD66)]  152.68285ºE [152 40.971E (AGD66)].},,Milne Bay Prov.,F Kraus,12 Jan 2003,"-10.67395, 152.68285",440-480 m,Papua New Guinea,Milne Bay Prov.,Misima Island,Bwaga Bwaga Ridge camp,-10.67395,152.68285,10.67395ºS 152.68285ºE ,B
FK 6896,Oreophryne picticrus,18136,alcoholic,installed July 2017,"Misima Island, Bwaga Bwaga ridge camp: 10° 40.437' S, 152° 40.971' E, 350-400 m.",Bwaga Bwaga Ridge camp {Papua New Guinea: Milne Bay Prov.: Misima Island: Bwaga Bwaga Ridge camp    :    440-480 m    :    10.67395ºS [10 40.437S (AGD66)]  152.68285ºE [152 40.971E (AGD66)].},,Milne Bay Prov.,F Kraus,12 Jan 2003,"-10.67395, 152.68285",440-480 m,Papua New Guinea,Milne Bay Prov.,Misima Island,Bwaga Bwaga Ridge camp,-10.67395,152.68285,10.67395ºS 152.68285ºE ,B
FK 6897,Oreophryne picticrus,18137,alcoholic,installed July 2017,"Misima Island, Bwaga Bwaga ridge camp: 10° 40.437' S, 152° 40.971' E, 350-400 m.",Bwaga Bwaga Ridge camp {Papua New Guinea: Milne Bay Prov.: Misima Island: Bwaga Bwaga Ridge camp    :    440-480 m    :    10.67395ºS [10 40.437S (AGD66)]  152.68285ºE [152 40.971E (AGD66)].},,Milne Bay Prov.,F Kraus,12 Jan 2003,"-10.67395, 152.68285",440-480 m,Papua New Guinea,Milne Bay Prov.,Misima Island,Bwaga Bwaga Ridge camp,-10.67395,152.68285,10.67395ºS 152.68285ºE ,B
FK 6898,Oreophryne picticrus,18138,alcoholic,installed July 2017,"Misima Island, Bwaga Bwaga ridge camp: 10° 40.437' S, 152° 40.971' E, 350-400 m.",Bwaga Bwaga Ridge camp {Papua New Guinea: Milne Bay Prov.: Misima Island: Bwaga Bwaga Ridge camp    :    440-480 m    :    10.67395ºS [10 40.437S (AGD66)]  152.68285ºE [152 40.971E (AGD66)].},,Milne Bay Prov.,F Kraus,12 Jan 2003,"-10.67395, 152.68285",440-480 m,Papua New Guinea,Milne Bay Prov.,Misima Island,Bwaga Bwaga Ridge camp,-10.67395,152.68285,10.67395ºS 152.68285ºE ,B
FK 6899,Oreophryne picticrus,18139,alcoholic,installed July 2017,"Misima Island, Bwaga Bwaga ridge camp: 10° 40.437' S, 152° 40.971' E, 350-400 m.",Bwaga Bwaga Ridge camp {Papua New Guinea: Milne Bay Prov.: Misima Island: Bwaga Bwaga Ridge camp    :    440-480 m    :    10.67395ºS [10 40.437S (AGD66)]  152.68285ºE [152 40.971E (AGD66)].},,Milne Bay Prov.,F Kraus,12 Jan 2003,"-10.67395, 152.68285",440-480 m,Papua New Guinea,Milne Bay Prov.,Misima Island,Bwaga Bwaga Ridge camp,-10.67395,152.68285,10.67395ºS 152.68285ºE ,B
FK 6900,Oreophryne picticrus,18140,alcoholic,installed July 2017,"Misima Island, Bwaga Bwaga ridge camp: 10° 40.437' S, 152° 40.971' E, 350-400 m.",Bwaga Bwaga Ridge camp {Papua New Guinea: Milne Bay Prov.: Misima Island: Bwaga Bwaga Ridge camp    :    440-480 m    :    10.67395ºS [10 40.437S (AGD66)]  152.68285ºE [152 40.971E (AGD66)].},,Milne Bay Prov.,F Kraus,12 Jan 2003,"-10.67395, 152.68285",440-480 m,Papua New Guinea,Milne Bay Prov.,Misima Island,Bwaga Bwaga Ridge camp,-10.67395,152.68285,10.67395ºS 152.68285ºE ,B
FK 6901,Oreophryne picticrus,18141,alcoholic,installed July 2017,"Misima Island, Bwaga Bwaga ridge camp: 10° 40.437' S, 152° 40.971' E, 350-400 m.",Bwaga Bwaga Ridge camp {Papua New Guinea: Milne Bay Prov.: Misima Island: Bwaga Bwaga Ridge camp    :    440-480 m    :    10.67395ºS [10 40.437S (AGD66)]  152.68285ºE [152 40.971E (AGD66)].},,Milne Bay Prov.,F Kraus,12 Jan 2003,"-10.67395, 152.68285",440-480 m,Papua New Guinea,Milne Bay Prov.,Misima Island,Bwaga Bwaga Ridge camp,-10.67395,152.68285,10.67395ºS 152.68285ºE ,B
FK 6902,Oreophryne picticrus,18142,alcoholic,installed July 2017,"Misima Island, Bwaga Bwaga ridge camp: 10° 40.437' S, 152° 40.971' E, 350-400 m.",Bwaga Bwaga Ridge camp {Papua New Guinea: Milne Bay Prov.: Misima Island: Bwaga Bwaga Ridge camp    :    440-480 m    :    10.67395ºS [10 40.437S (AGD66)]  152.68285ºE [152 40.971E (AGD66)].},,Milne Bay Prov.,F Kraus,12 Jan 2003,"-10.67395, 152.68285",440-480 m,Papua New Guinea,Milne Bay Prov.,Misima Island,Bwaga Bwaga Ridge camp,-10.67395,152.68285,10.67395ºS 152.68285ºE ,B
FK 6903,Oreophryne picticrus,18143,alcoholic,installed July 2017,"Misima Island, Bwaga Bwaga ridge camp: 10° 40.437' S, 152° 40.971' E, 350-400 m.",Bwaga Bwaga Ridge camp {Papua New Guinea: Milne Bay Prov.: Misima Island: Bwaga Bwaga Ridge camp    :    440-480 m    :    10.67395ºS [10 40.437S (AGD66)]  152.68285ºE [152 40.971E (AGD66)].},,Milne Bay Prov.,F Kraus,12 Jan 2003,"-10.67395, 152.68285",440-480 m,Papua New Guinea,Milne Bay Prov.,Misima Island,Bwaga Bwaga Ridge camp,-10.67395,152.68285,10.67395ºS 152.68285ºE ,B
FK 6925,Oreophryne picticrus,18144,alcoholic,installed July 2017,"Misima Island, Bwaga Bwaga ridge camp: 10° 40.437' S, 152° 40.971' E, 350-400 m.",Bwaga Bwaga Ridge camp {Papua New Guinea: Milne Bay Prov.: Misima Island: Bwaga Bwaga Ridge camp    :    440-480 m    :    10.67395ºS [10 40.437S (AGD66)]  152.68285ºE [152 40.971E (AGD66)].},,Milne Bay Prov.,F Kraus,12 Jan 2003,"-10.67395, 152.68285",440-480 m,Papua New Guinea,Milne Bay Prov.,Misima Island,Bwaga Bwaga Ridge camp,-10.67395,152.68285,10.67395ºS 152.68285ºE ,B
FK 6926,Oreophryne picticrus,18145,alcoholic,installed June 2017,"Misima Island, Bwaga Bwaga ridge camp: 10° 40.437' S, 152° 40.971' E, 350-400 m.",Bwaga Bwaga Ridge camp {Papua New Guinea: Milne Bay Prov.: Misima Island: Bwaga Bwaga Ridge camp    :    440-480 m    :    10.67395ºS [10 40.437S (AGD66)]  152.68285ºE [152 40.971E (AGD66)].},,Milne Bay Prov.,F Kraus,12 Jan 2003,"-10.67395, 152.68285",440-480 m,Papua New Guinea,Milne Bay Prov.,Misima Island,Bwaga Bwaga Ridge camp,-10.67395,152.68285,10.67395ºS 152.68285ºE ,B
FK 6931,Oreophryne picticrus,18146,alcoholic,installed June 2017,"Misima Island, Bwaga Bwaga ridge camp: 10° 40.437' S, 152° 40.971' E, 350-400 m.",Bwaga Bwaga Ridge camp {Papua New Guinea: Milne Bay Prov.: Misima Island: Bwaga Bwaga Ridge camp    :    440-480 m    :    10.67395ºS [10 40.437S (AGD66)]  152.68285ºE [152 40.971E (AGD66)].},,Milne Bay Prov.,F Kraus,12 Jan 2003,"-10.67395, 152.68285",440-480 m,Papua New Guinea,Milne Bay Prov.,Misima Island,Bwaga Bwaga Ridge camp,-10.67395,152.68285,10.67395ºS 152.68285ºE ,B
FK 6963,Oreophryne picticrus,18147,alcoholic,installed June 2017,"Misima Island, Bwaga Bwaga ridge camp: 10° 40.437' S, 152° 40.971' E, 350-400 m.",Bwaga Bwaga Ridge camp {Papua New Guinea: Milne Bay Prov.: Misima Island: Bwaga Bwaga Ridge camp    :    440-480 m    :    10.67395ºS [10 40.437S (AGD66)]  152.68285ºE [152 40.971E (AGD66)].},,Milne Bay Prov.,F Kraus,13 Jan 2003,"-10.67395, 152.68285",440-480 m,Papua New Guinea,Milne Bay Prov.,Misima Island,Bwaga Bwaga Ridge camp,-10.67395,152.68285,10.67395ºS 152.68285ºE ,B
FK 6965,Oreophryne picticrus,18148,alcoholic,installed June 2017,"Misima Island, Bwaga Bwaga ridge camp: 10° 40.437' S, 152° 40.971' E, 350-400 m.",Bwaga Bwaga Ridge camp {Papua New Guinea: Milne Bay Prov.: Misima Island: Bwaga Bwaga Ridge camp    :    440-480 m    :    10.67395ºS [10 40.437S (AGD66)]  152.68285ºE [152 40.971E (AGD66)].},,Milne Bay Prov.,F Kraus,13 Jan 2003,"-10.67395, 152.68285",440-480 m,Papua New Guinea,Milne Bay Prov.,Misima Island,Bwaga Bwaga Ridge camp,-10.67395,152.68285,10.67395ºS 152.68285ºE ,B
FK 7071,Oreophryne picticrus,18149,alcoholic,installed June 2017,"Misima Island, stream W of 10° 39.396' S, 152° 38.343' E, 320-350 m.","Oya Tau, E slope, stream W of ""Camp 1"" {Papua New Guinea: Milne Bay Prov.: Misima Island: Oya Tau, E slope, stream W of ""Camp 1""    :    320-350 m    :    10.6548913ºS  152.6382783ºE.}",,Milne Bay Prov.,F Kraus,16 Jan 2003,"-10.6548913, 152.6382783",320-350 m,Papua New Guinea,Milne Bay Prov.,Misima Island,"Oya Tau, E slope, stream W of Camp 1",-10.6548913,152.6382783,10.6548913ºS 152.6382783ºE,B
FK 7072,Oreophryne picticrus,18150,alcoholic,installed June 2017,"Misima Island, stream W of 10° 39.396' S, 152° 38.343' E, 320-350 m.","Oya Tau, E slope, stream W of ""Camp 1"" {Papua New Guinea: Milne Bay Prov.: Misima Island: Oya Tau, E slope, stream W of ""Camp 1""    :    320-350 m    :    10.6548913ºS  152.6382783ºE.}",,Milne Bay Prov.,F Kraus,16 Jan 2003,"-10.6548913, 152.6382783",320-350 m,Papua New Guinea,Milne Bay Prov.,Misima Island,"Oya Tau, E slope, stream W of Camp 1",-10.6548913,152.6382783,10.6548913ºS 152.6382783ºE,B
FK 7073,Oreophryne picticrus,18151,alcoholic,installed June 2017,"Misima Island, stream W of 10° 39.396' S, 152° 38.343' E, 320-350 m.","Oya Tau, E slope, stream W of ""Camp 1"" {Papua New Guinea: Milne Bay Prov.: Misima Island: Oya Tau, E slope, stream W of ""Camp 1""    :    320-350 m    :    10.6548913ºS  152.6382783ºE.}",,Milne Bay Prov.,F Kraus,16 Jan 2003,"-10.6548913, 152.6382783",320-350 m,Papua New Guinea,Milne Bay Prov.,Misima Island,"Oya Tau, E slope, stream W of Camp 1",-10.6548913,152.6382783,10.6548913ºS 152.6382783ºE,B
FK 7074,Oreophryne picticrus,18152,alcoholic,installed June 2017,"Misima Island, stream W of 10° 39.396' S, 152° 38.343' E, 320-350 m.","Oya Tau, E slope, stream W of ""Camp 1"" {Papua New Guinea: Milne Bay Prov.: Misima Island: Oya Tau, E slope, stream W of ""Camp 1""    :    320-350 m    :    10.6548913ºS  152.6382783ºE.}",,Milne Bay Prov.,F Kraus,16 Jan 2003,"-10.6548913, 152.6382783",320-350 m,Papua New Guinea,Milne Bay Prov.,Misima Island,"Oya Tau, E slope, stream W of Camp 1",-10.6548913,152.6382783,10.6548913ºS 152.6382783ºE,B
FK 7075,Oreophryne picticrus,18153,alcoholic,installed June 2017,"Misima Island, 10° 39.666' S, 152° 37.807' E, 800 m.",Oya Tau {Papua New Guinea: Milne Bay Prov.: Misima Island: Oya Tau    :    900 m    :    10.6611ºS [10 39.666S (AGD66)]  152.63012ºE [152 37.807E (AGD66)].},,Milne Bay Prov.,F Kraus,17 Jan 2003,"-10.6611, 152.63012",900 m,Papua New Guinea,Milne Bay Prov.,Misima Island,Oya Tau,-10.6611,152.63012,10.6611ºS 152.63012ºE ,B
FK 7076,Oreophryne picticrus,18154,alcoholic + 4 eggs + 1 froglet embedded in paraffin (unsectioned),installed June 2017,"Misima Island, Camp 2, Oya Tau, 10° 39.355' S 152° 37.659' E, 860 m.","Oya Tau, ""Camp 2"" {Papua New Guinea: Milne Bay Prov.: Misima Island: Oya Tau, ""Camp 2""    :    860 m    :    10.65592ºS [10 39.355S (AGD66)]  152.62765ºE [152 37.659E (AGD66)].}",,Milne Bay Prov.,F Kraus,17 Jan 2003,"-10.65592, 152.62765",860 m,Papua New Guinea,Milne Bay Prov.,Misima Island,"Oya Tau, Camp 2",-10.65592,152.62765,10.65592ºS 152.62765ºE ,B
FK 7077,Oreophryne picticrus,18155,alcoholic + 5 eggs + 1 cleared and stained froglet + 1 froglet embedded in paraffin (unsectioned),froglet in paraffin stored with slide collection; whole animal installed June 2017,"Misima Island, Camp 2, Oya Tau, 10° 39.355' S 152° 37.659' E, 860 m.","Oya Tau, ""Camp 2"" {Papua New Guinea: Milne Bay Prov.: Misima Island: Oya Tau, ""Camp 2""    :    860 m    :    10.65592ºS [10 39.355S (AGD66)]  152.62765ºE [152 37.659E (AGD66)].}",,Milne Bay Prov.,F Kraus,17 Jan 2003,"-10.65592, 152.62765",860 m,Papua New Guinea,Milne Bay Prov.,Misima Island,"Oya Tau, Camp 2",-10.65592,152.62765,10.65592ºS 152.62765ºE ,B
FK 7078,Oreophryne picticrus,18156,alcoholic + 5 eggs & froglets + 1 cleared and stained froglet + 1 froglet embedded in paraffin (unsectioned),"eggs and froglets installed, froglet in paraffin stored with slide collection; whole animal installed june 2017.","Misima Island, Camp 2, Oya Tau, 10° 39.355' S 152° 37.659' E, 860 m.","Oya Tau, ""Camp 2"" {Papua New Guinea: Milne Bay Prov.: Misima Island: Oya Tau, ""Camp 2""    :    860 m    :    10.65592ºS [10 39.355S (AGD66)]  152.62765ºE [152 37.659E (AGD66)].}",,Milne Bay Prov.,F Kraus,17 Jan 2003,"-10.65592, 152.62765",860 m,Papua New Guinea,Milne Bay Prov.,Misima Island,"Oya Tau, Camp 2",-10.65592,152.62765,10.65592ºS 152.62765ºE ,B
FK 7099,Oreophryne picticrus,18157,alcoholic,installed June 2017,"Misima Island, Camp 2, Oya Tau, 10° 39.355' S 152° 37.659' E, 860 m.","Oya Tau, ""Camp 2"" {Papua New Guinea: Milne Bay Prov.: Misima Island: Oya Tau, ""Camp 2""    :    860 m    :    10.65592ºS [10 39.355S (AGD66)]  152.62765ºE [152 37.659E (AGD66)].}",,Milne Bay Prov.,F Kraus,18 Jan 2003,"-10.65592, 152.62765",860 m,Papua New Guinea,Milne Bay Prov.,Misima Island,"Oya Tau, Camp 2",-10.65592,152.62765,10.65592ºS 152.62765ºE ,B
FK 7100,Oreophryne picticrus,18158,alcoholic,installed June 2017,"Misima Island, Camp 2, Oya Tau, 10° 39.355' S 152° 37.659' E, 860 m.","Oya Tau, ""Camp 2"" {Papua New Guinea: Milne Bay Prov.: Misima Island: Oya Tau, ""Camp 2""    :    860 m    :    10.65592ºS [10 39.355S (AGD66)]  152.62765ºE [152 37.659E (AGD66)].}",,Milne Bay Prov.,F Kraus,18 Jan 2003,"-10.65592, 152.62765",860 m,Papua New Guinea,Milne Bay Prov.,Misima Island,"Oya Tau, Camp 2",-10.65592,152.62765,10.65592ºS 152.62765ºE ,B
FK 7101,Oreophryne picticrus,18159,alcoholic,installed June 2017,"Misima Island, Camp 2, Oya Tau, 10° 39.355' S 152° 37.659' E, 860 m.","Oya Tau, ""Camp 2"" {Papua New Guinea: Milne Bay Prov.: Misima Island: Oya Tau, ""Camp 2""    :    860 m    :    10.65592ºS [10 39.355S (AGD66)]  152.62765ºE [152 37.659E (AGD66)].}",,Milne Bay Prov.,F Kraus,18 Jan 2003,"-10.65592, 152.62765",860 m,Papua New Guinea,Milne Bay Prov.,Misima Island,"Oya Tau, Camp 2",-10.65592,152.62765,10.65592ºS 152.62765ºE ,B
FK 7102,Oreophryne picticrus,18160,alcoholic,installed June 2017,"Misima Island, Camp 2, Oya Tau, 10° 39.355' S 152° 37.659' E, 860 m.","Oya Tau, ""Camp 2"" {Papua New Guinea: Milne Bay Prov.: Misima Island: Oya Tau, ""Camp 2""    :    860 m    :    10.65592ºS [10 39.355S (AGD66)]  152.62765ºE [152 37.659E (AGD66)].}",,Milne Bay Prov.,F Kraus,18 Jan 2003,"-10.65592, 152.62765",860 m,Papua New Guinea,Milne Bay Prov.,Misima Island,"Oya Tau, Camp 2",-10.65592,152.62765,10.65592ºS 152.62765ºE ,B
FK 7103,Oreophryne picticrus,18161,alcoholic,installed June 2017,"Misima Island, Camp 2, Oya Tau, 10° 39.355' S 152° 37.659' E, 860 m.","Oya Tau, ""Camp 2"" {Papua New Guinea: Milne Bay Prov.: Misima Island: Oya Tau, ""Camp 2""    :    860 m    :    10.65592ºS [10 39.355S (AGD66)]  152.62765ºE [152 37.659E (AGD66)].}",,Milne Bay Prov.,F Kraus,18 Jan 2003,"-10.65592, 152.62765",860 m,Papua New Guinea,Milne Bay Prov.,Misima Island,"Oya Tau, Camp 2",-10.65592,152.62765,10.65592ºS 152.62765ºE ,B
FK 7104,Oreophryne picticrus,18162,alcoholic,installed June 2017,"Misima Island, Camp 2, Oya Tau, 10° 39.355' S 152° 37.659' E, 860 m.","Oya Tau, ""Camp 2"" {Papua New Guinea: Milne Bay Prov.: Misima Island: Oya Tau, ""Camp 2""    :    860 m    :    10.65592ºS [10 39.355S (AGD66)]  152.62765ºE [152 37.659E (AGD66)].}",,Milne Bay Prov.,F Kraus,18 Jan 2003,"-10.65592, 152.62765",860 m,Papua New Guinea,Milne Bay Prov.,Misima Island,"Oya Tau, Camp 2",-10.65592,152.62765,10.65592ºS 152.62765ºE ,B
FK 7105,Oreophryne picticrus,18163,alcoholic,installed June 2017,"Misima Island, Camp 2, Oya Tau, 10° 39.355' S 152° 37.659' E, 860 m.","Oya Tau, ""Camp 2"" {Papua New Guinea: Milne Bay Prov.: Misima Island: Oya Tau, ""Camp 2""    :    860 m    :    10.65592ºS [10 39.355S (AGD66)]  152.62765ºE [152 37.659E (AGD66)].}",,Milne Bay Prov.,F Kraus,18 Jan 2003,"-10.65592, 152.62765",860 m,Papua New Guinea,Milne Bay Prov.,Misima Island,"Oya Tau, Camp 2",-10.65592,152.62765,10.65592ºS 152.62765ºE ,B
FK 5641,Oreophryne equus,15722,alcoholic,installed July 2017,"Owen Stanleys: Mt. Pekopekowana, Wailahabahaba Creek, trib. of Sagabada R., River Camp, 10 deg 16.957 min S, 150 deg 9.288 min E, 590 - 615 m.","Owen Stanley Mtns., Mt. Pekopekowana, SE slope, along Wailahabahaba Creek (trib. of Sagabada River), River Camp {Papua New Guinea: Milne Bay Prov.: Owen Stanley Mtns., Mt. Pekopekowana, SE slope, along Wailahabahaba Creek (trib. of Sagabada River), River ",,Milne Bay Prov.,"F Kraus, I Bigilale",10 May 2002,"--, Owen Stanley Mtns., Mt. Pekopekowana, SE slope, along Wailahabahaba Creek , River Camp {Papua New Guinea: Milne Bay Prov.: Owen -tanley Mtns., Mt. Pekopekowana,  slope, along ailahabahaba Creek , River ",Milne Bay Prov.,Papua New Guinea,Milne Bay Prov.,"Owen Stanley Mtns., Mt. Pekopekowana, SE slope, along Wailahabahaba Creek (trib. of Sagabada River), River Camp {Papua New Guinea: Milne Bay Prov.: Owen Stanley Mtns., Mt. Pekopekowana, SE slope, along Wailahabahaba Creek (trib. of Sagabada River), River ","Owen Stanley Mtns., Mt. Pekopekowana, SE slope, along Wailahabahaba Creek (trib. of Sagabada River), River Camp",NA,NA,"Owen Stanley Mtns., Mt. Pekopekowana, SE slope, along Wailahabahaba Creek , River Camp {Papua New Guinea: Milne Bay Prov.: Owen Stanley Mtns., Mt. Pekopekowana, SE slope, along Wailahabahaba Creek , River ",B
FK 9847,Oreophryne ezra,20487,alcoholic,"installed, Apr 2010","Sudest Island, track up Mt. Rio, Point 7 area, 11.50659° S, 153.43050° E [Aus66], 726 m. = Kraus field catalog","Mt. Rio, track up mountain, ""Point 7"" area (shoulder lookout) {Papua New Guinea: Milne Bay Prov.: Sudest Island: Mt. Rio, track up mountain, ""Point 7"" area (shoulder lookout)    :    726 m    :    11.50659ºS [11.50659° S (AGD66)]  153.4305ºE [153.43050° E",,Milne Bay Prov.,F Kraus,25 Apr 2004,"-, Mt. Rio, track up mountain, ""Point 7"" area {Papua ew Guinea: Milne Bay Prov.: Sudest Island: Mt. Rio, track up mountain, ""Point 7"" area : 726 m : 11.50659 153.4305 [153.43050 ",726 m,Papua New Guinea,Milne Bay Prov.,Sudest Island,"Mt. Rio, track up mountain, Point 7 area (shoulder lookout)",NA,NA,"Mt. Rio, track up mountain, ""Point 7"" area {Papua New Guinea: Milne Bay Prov.: Sudest Island: Mt. Rio, track up mountain, ""Point 7"" area : 726 m : 11.50659ºS 153.4305ºE [153.43050° E",B
FK 9848,Oreophryne ezra,20488,alcoholic,"installed, Apr 2010","Sudest Island, track up Mt. Rio, Point 7 area, 11.50659° S, 153.43050° E [Aus66], 726 m. = Kraus field catalog","Mt. Rio, track up mountain, ""Point 7"" area (shoulder lookout) {Papua New Guinea: Milne Bay Prov.: Sudest Island: Mt. Rio, track up mountain, ""Point 7"" area (shoulder lookout)    :    726 m    :    11.50659ºS [11.50659° S (AGD66)]  153.4305ºE [153.43050° E",,Milne Bay Prov.,F Kraus,25 Apr 2004,"-, Mt. Rio, track up mountain, ""Point 7"" area {Papua ew Guinea: Milne Bay Prov.: Sudest Island: Mt. Rio, track up mountain, ""Point 7"" area : 726 m : 11.50659 153.4305 [153.43050 ",726 m,Papua New Guinea,Milne Bay Prov.,Sudest Island,"Mt. Rio, track up mountain, Point 7 area (shoulder lookout)",NA,NA,"Mt. Rio, track up mountain, ""Point 7"" area {Papua New Guinea: Milne Bay Prov.: Sudest Island: Mt. Rio, track up mountain, ""Point 7"" area : 726 m : 11.50659ºS 153.4305ºE [153.43050° E",B
FK 9849,Oreophryne ezra,20489,alcoholic,"installed, Apr 2010","Sudest Island, track up Mt. Rio, Point 7 area, 11.50659° S, 153.43050° E [Aus66], 726 m. = Kraus field catalog","Mt. Rio, track up mountain, ""Point 7"" area (shoulder lookout) {Papua New Guinea: Milne Bay Prov.: Sudest Island: Mt. Rio, track up mountain, ""Point 7"" area (shoulder lookout)    :    726 m    :    11.50659ºS [11.50659° S (AGD66)]  153.4305ºE [153.43050° E",,Milne Bay Prov.,F Kraus,25 Apr 2004,"-, Mt. Rio, track up mountain, ""Point 7"" area {Papua ew Guinea: Milne Bay Prov.: Sudest Island: Mt. Rio, track up mountain, ""Point 7"" area : 726 m : 11.50659 153.4305 [153.43050 ",726 m,Papua New Guinea,Milne Bay Prov.,Sudest Island,"Mt. Rio, track up mountain, Point 7 area (shoulder lookout)",NA,NA,"Mt. Rio, track up mountain, ""Point 7"" area {Papua New Guinea: Milne Bay Prov.: Sudest Island: Mt. Rio, track up mountain, ""Point 7"" area : 726 m : 11.50659ºS 153.4305ºE [153.43050° E",B
FK 9850,Oreophryne ezra,20490,alcoholic,"installed, Apr 2010","Sudest Island, track up Mt. Rio, Point 7 area, 11.50659° S, 153.43050° E [Aus66], 726 m. = Kraus field catalog","Mt. Rio, track up mountain, ""Point 7"" area (shoulder lookout) {Papua New Guinea: Milne Bay Prov.: Sudest Island: Mt. Rio, track up mountain, ""Point 7"" area (shoulder lookout)    :    726 m    :    11.50659ºS [11.50659° S (AGD66)]  153.4305ºE [153.43050° E",,Milne Bay Prov.,F Kraus,25 Apr 2004,"-, Mt. Rio, track up mountain, ""Point 7"" area {Papua ew Guinea: Milne Bay Prov.: Sudest Island: Mt. Rio, track up mountain, ""Point 7"" area : 726 m : 11.50659 153.4305 [153.43050 ",726 m,Papua New Guinea,Milne Bay Prov.,Sudest Island,"Mt. Rio, track up mountain, Point 7 area (shoulder lookout)",NA,NA,"Mt. Rio, track up mountain, ""Point 7"" area {Papua New Guinea: Milne Bay Prov.: Sudest Island: Mt. Rio, track up mountain, ""Point 7"" area : 726 m : 11.50659ºS 153.4305ºE [153.43050° E",B
FK 9851,Oreophryne ezra,20491,alcoholic,"installed, Apr 2010","Sudest Island, track up Mt. Rio, Point 7 area, 11.50659° S, 153.43050° E [Aus66], 726 m. = Kraus field catalog","Mt. Rio, track up mountain, ""Point 7"" area (shoulder lookout) {Papua New Guinea: Milne Bay Prov.: Sudest Island: Mt. Rio, track up mountain, ""Point 7"" area (shoulder lookout)    :    726 m    :    11.50659ºS [11.50659° S (AGD66)]  153.4305ºE [153.43050° E",,Milne Bay Prov.,F Kraus,25 Apr 2004,"-, Mt. Rio, track up mountain, ""Point 7"" area {Papua ew Guinea: Milne Bay Prov.: Sudest Island: Mt. Rio, track up mountain, ""Point 7"" area : 726 m : 11.50659 153.4305 [153.43050 ",726 m,Papua New Guinea,Milne Bay Prov.,Sudest Island,"Mt. Rio, track up mountain, Point 7 area (shoulder lookout)",NA,NA,"Mt. Rio, track up mountain, ""Point 7"" area {Papua New Guinea: Milne Bay Prov.: Sudest Island: Mt. Rio, track up mountain, ""Point 7"" area : 726 m : 11.50659ºS 153.4305ºE [153.43050° E",B