COLLNUM,Taxon.Name,CATNUM,PRESTYPE,STATUS,ORIGLOCAL,Locality.Selector,LocalityQualifier,ISGPPROV,COLLECTOR,DATECOLL1,gps,elevation,country,province,locality,site,lat,lon,gps_raw,A or B?
FK 12448,Oreophryne anamiatoi,33763,alcoholic,"installed, Dec 2009","Papua New Guinea: Southern Highlands Prov., Camp 1 (5.66954° S, 142.62334° E), 2177 m) = from F Kraus field catalogue *;* E slope Mt. Itukua = from email by F Kraus dated 24 Aug 2009.","Mt. Itukua, E slope (4.13 km SW Tangi) {Papua New Guinea: Southern Highlands Prov.: Mt. Itukua, E slope (4.13 km SW Tangi), camp 1    :    2177 m    :    5.66954ºS [5.66954° S (WGS 84)]  142.62334ºE [142.62334° E (WGS 84)].}",,Southern Highlands Prov.,F Kraus,17 Mar 2009,"-5.66954, 142.62334",2177 m,Papua New Guinea,Southern Highlands Prov.,"Mt. Itukua, E slope (4.13 km SW Tangi), camp 1    ","Mt. Itukua, E slope (4.13 km SW Tangi)",-5.66954,142.62334,5.66954ºS 142.62334ºE ,A
FK 12676,Oreophryne anamiatoi,33764,alcoholic,"installed, Dec 2009","Papua New Guinea: Southern Highlands Prov., Camp 1 (5.66954° S, 142.62334° E), 2177 m) = from F Kraus field catalogue *;* E slope Mt. Itukua = from email by F Kraus dated 24 Aug 2009.","Mt. Itukua, E slope (4.13 km SW Tangi) {Papua New Guinea: Southern Highlands Prov.: Mt. Itukua, E slope (4.13 km SW Tangi), camp 1    :    2177 m    :    5.66954ºS [5.66954° S (WGS 84)]  142.62334ºE [142.62334° E (WGS 84)].}",,Southern Highlands Prov.,F Kraus,22 Mar 2009,"-5.66954, 142.62334",2177 m,Papua New Guinea,Southern Highlands Prov.,"Mt. Itukua, E slope (4.13 km SW Tangi), camp 1    ","Mt. Itukua, E slope (4.13 km SW Tangi)",-5.66954,142.62334,5.66954ºS 142.62334ºE ,A
FK 12854,Oreophryne anamiatoi,33765,alcoholic,"installed, Dec 2009","Papua New Guinea: Southern Highlands Prov., Camp 1 (5.66954° S, 142.62334° E), 2177 m) = from F Kraus field catalogue *;* E slope Mt. Itukua = from email by F Kraus dated 24 Aug 2009.","Mt. Itukua, E slope (4.13 km SW Tangi) {Papua New Guinea: Southern Highlands Prov.: Mt. Itukua, E slope (4.13 km SW Tangi), camp 1    :    2177 m    :    5.66954ºS [5.66954° S (WGS 84)]  142.62334ºE [142.62334° E (WGS 84)].}",,Southern Highlands Prov.,F Kraus,26 Mar 2009,"-5.66954, 142.62334",2177 m,Papua New Guinea,Southern Highlands Prov.,"Mt. Itukua, E slope (4.13 km SW Tangi), camp 1    ","Mt. Itukua, E slope (4.13 km SW Tangi)",-5.66954,142.62334,5.66954ºS 142.62334ºE ,A
FK 12855,Oreophryne anamiatoi,33766,alcoholic,"installed, Dec 2009","Papua New Guinea: Southern Highlands Prov., Camp 1 (5.66954° S, 142.62334° E), 2177 m) = from F Kraus field catalogue *;* E slope Mt. Itukua = from email by F Kraus dated 24 Aug 2009.","Mt. Itukua, E slope (4.13 km SW Tangi) {Papua New Guinea: Southern Highlands Prov.: Mt. Itukua, E slope (4.13 km SW Tangi), camp 1    :    2177 m    :    5.66954ºS [5.66954° S (WGS 84)]  142.62334ºE [142.62334° E (WGS 84)].}",,Southern Highlands Prov.,F Kraus,26 Mar 2009,"-5.66954, 142.62334",2177 m,Papua New Guinea,Southern Highlands Prov.,"Mt. Itukua, E slope (4.13 km SW Tangi), camp 1    ","Mt. Itukua, E slope (4.13 km SW Tangi)",-5.66954,142.62334,5.66954ºS 142.62334ºE ,A
FK 12881,Oreophryne anamiatoi,33767,alcoholic,"installed, Dec 2009","Papua New Guinea: Southern Highlands Prov., Camp 1 (5.66954° S, 142.62334° E), 2177 m) = from F Kraus field catalogue *;* E slope Mt. Itukua = from email by F Kraus dated 24 Aug 2009.","Mt. Itukua, E slope (4.13 km SW Tangi) {Papua New Guinea: Southern Highlands Prov.: Mt. Itukua, E slope (4.13 km SW Tangi), camp 1    :    2177 m    :    5.66954ºS [5.66954° S (WGS 84)]  142.62334ºE [142.62334° E (WGS 84)].}",,Southern Highlands Prov.,F Kraus,27 Mar 2009,"-5.66954, 142.62334",2177 m,Papua New Guinea,Southern Highlands Prov.,"Mt. Itukua, E slope (4.13 km SW Tangi), camp 1    ","Mt. Itukua, E slope (4.13 km SW Tangi)",-5.66954,142.62334,5.66954ºS 142.62334ºE ,A
FK 12882,Oreophryne anamiatoi,33768,alcoholic,"installed, Dec 2009","Papua New Guinea: Southern Highlands Prov., Camp 1 (5.66954° S, 142.62334° E), 2177 m) = from F Kraus field catalogue *;* E slope Mt. Itukua = from email by F Kraus dated 24 Aug 2009.","Mt. Itukua, E slope (4.13 km SW Tangi) {Papua New Guinea: Southern Highlands Prov.: Mt. Itukua, E slope (4.13 km SW Tangi), camp 1    :    2177 m    :    5.66954ºS [5.66954° S (WGS 84)]  142.62334ºE [142.62334° E (WGS 84)].}",,Southern Highlands Prov.,"F Kraus, J Anamiato",27 Mar 2009,"-5.66954, 142.62334",2177 m,Papua New Guinea,Southern Highlands Prov.,"Mt. Itukua, E slope (4.13 km SW Tangi), camp 1    ","Mt. Itukua, E slope (4.13 km SW Tangi)",-5.66954,142.62334,5.66954ºS 142.62334ºE ,A
FK 12884,Oreophryne anamiatoi,33769,alcoholic,"installed, Dec 2009","Papua New Guinea: Southern Highlands Prov., Camp 1 (5.66954° S, 142.62334° E), 2177 m) = from F Kraus field catalogue *;* E slope Mt. Itukua = from email by F Kraus dated 24 Aug 2009.","Mt. Itukua, E slope (4.13 km SW Tangi) {Papua New Guinea: Southern Highlands Prov.: Mt. Itukua, E slope (4.13 km SW Tangi), camp 1    :    2177 m    :    5.66954ºS [5.66954° S (WGS 84)]  142.62334ºE [142.62334° E (WGS 84)].}",,Southern Highlands Prov.,F Kraus,28 Mar 2009,"-5.66954, 142.62334",2177 m,Papua New Guinea,Southern Highlands Prov.,"Mt. Itukua, E slope (4.13 km SW Tangi), camp 1    ","Mt. Itukua, E slope (4.13 km SW Tangi)",-5.66954,142.62334,5.66954ºS 142.62334ºE ,A
FK 12885,Oreophryne anamiatoi,33770,alcoholic,"installed, Dec 2009","Papua New Guinea: Southern Highlands Prov., Camp 1 (5.66954° S, 142.62334° E), 2177 m) = from F Kraus field catalogue *;* E slope Mt. Itukua = from email by F Kraus dated 24 Aug 2009.","Mt. Itukua, E slope (4.13 km SW Tangi) {Papua New Guinea: Southern Highlands Prov.: Mt. Itukua, E slope (4.13 km SW Tangi), camp 1    :    2177 m    :    5.66954ºS [5.66954° S (WGS 84)]  142.62334ºE [142.62334° E (WGS 84)].}",,Southern Highlands Prov.,F Kraus,28 Mar 2009,"-5.66954, 142.62334",2177 m,Papua New Guinea,Southern Highlands Prov.,"Mt. Itukua, E slope (4.13 km SW Tangi), camp 1    ","Mt. Itukua, E slope (4.13 km SW Tangi)",-5.66954,142.62334,5.66954ºS 142.62334ºE ,A
FK 12886,Oreophryne anamiatoi,33771,alcoholic,"installed, Dec 2009","Papua New Guinea: Southern Highlands Prov., Camp 1 (5.66954° S, 142.62334° E), 2177 m) = from F Kraus field catalogue *;* E slope Mt. Itukua = from email by F Kraus dated 24 Aug 2009.","Mt. Itukua, E slope (4.13 km SW Tangi) {Papua New Guinea: Southern Highlands Prov.: Mt. Itukua, E slope (4.13 km SW Tangi), camp 1    :    2177 m    :    5.66954ºS [5.66954° S (WGS 84)]  142.62334ºE [142.62334° E (WGS 84)].}",,Southern Highlands Prov.,F Kraus,28 Mar 2009,"-5.66954, 142.62334",2177 m,Papua New Guinea,Southern Highlands Prov.,"Mt. Itukua, E slope (4.13 km SW Tangi), camp 1    ","Mt. Itukua, E slope (4.13 km SW Tangi)",-5.66954,142.62334,5.66954ºS 142.62334ºE ,A
FK 13141,Oreophryne anamiatoi,33773,alcoholic,"installed, Dec 2009","Papua New Guinea: Southern Highlands Prov., Point 22 (5.64509° S, 142.63618° E, 1874 m) = from F Kraus field catalogue",Point 22 {Papua New Guinea: Southern Highlands Prov.: Point 22    :    1874 m    :     [5.64509° S (WGS 84)]   [142.63618° E (WGS 84)].},,Southern Highlands Prov.,F Kraus,03 Apr 2009,", ",1874 m,Papua New Guinea,Southern Highlands Prov.,Point 22    ,Point 22,-5.64509,142.63618,,A
FK 13142,Oreophryne anamiatoi,33774,alcoholic,"installed, Dec 2009","Papua New Guinea: Southern Highlands Prov., Point 22 (5.64509° S, 142.63618° E, 1874 m) = from F Kraus field catalogue",Point 22 {Papua New Guinea: Southern Highlands Prov.: Point 22    :    1874 m    :     [5.64509° S (WGS 84)]   [142.63618° E (WGS 84)].},,Southern Highlands Prov.,F Kraus,03 Apr 2009,", ",1874 m,Papua New Guinea,Southern Highlands Prov.,Point 22    ,Point 22,-5.64509,142.63618,,A
FK 13143,Oreophryne anamiatoi,33775,alcoholic,"installed, Dec 2009","Papua New Guinea: Southern Highlands Prov., Point 22 (5.64509° S, 142.63618° E, 1874 m) = from F Kraus field catalogue",Point 22 {Papua New Guinea: Southern Highlands Prov.: Point 22    :    1874 m    :     [5.64509° S (WGS 84)]   [142.63618° E (WGS 84)].},,Southern Highlands Prov.,F Kraus,03 Apr 2009,", ",1874 m,Papua New Guinea,Southern Highlands Prov.,Point 22    ,Point 22,-5.64509,142.63618,,A
FK 13144,Oreophryne anamiatoi,33776,alcoholic,"installed, Dec 2009","Papua New Guinea: Southern Highlands Prov., Point 22 (5.64509° S, 142.63618° E, 1874 m) = from F Kraus field catalogue",Point 22 {Papua New Guinea: Southern Highlands Prov.: Point 22    :    1874 m    :     [5.64509° S (WGS 84)]   [142.63618° E (WGS 84)].},,Southern Highlands Prov.,F Kraus,03 Apr 2009,", ",1874 m,Papua New Guinea,Southern Highlands Prov.,Point 22    ,Point 22,-5.64509,142.63618,,A
FK 13145,Oreophryne anamiatoi,33777,alcoholic,"installed, Dec 2009","Papua New Guinea: Southern Highlands Prov., Point 22 (5.64509° S, 142.63618° E, 1874 m) = from F Kraus field catalogue",Point 22 {Papua New Guinea: Southern Highlands Prov.: Point 22    :    1874 m    :     [5.64509° S (WGS 84)]   [142.63618° E (WGS 84)].},,Southern Highlands Prov.,F Kraus,03 Apr 2009,", ",1874 m,Papua New Guinea,Southern Highlands Prov.,Point 22    ,Point 22,-5.64509,142.63618,,A
FK 13147,Oreophryne anamiatoi,33778,alcoholic,"installed, Dec 2009","Papua New Guinea: Southern Highlands Prov., Point 22 (5.64509° S, 142.63618° E, 1874 m) = from F Kraus field catalogue",Point 22 {Papua New Guinea: Southern Highlands Prov.: Point 22    :    1874 m    :     [5.64509° S (WGS 84)]   [142.63618° E (WGS 84)].},,Southern Highlands Prov.,F Kraus,03 Apr 2009,", ",1874 m,Papua New Guinea,Southern Highlands Prov.,Point 22    ,Point 22,-5.64509,142.63618,,A
FK 13148,Oreophryne anamiatoi,33779,alcoholic,"installed, Dec 2009","Papua New Guinea: Southern Highlands Prov., Point 22 (5.64509° S, 142.63618° E, 1874 m) = from F Kraus field catalogue",Point 22 {Papua New Guinea: Southern Highlands Prov.: Point 22    :    1874 m    :     [5.64509° S (WGS 84)]   [142.63618° E (WGS 84)].},,Southern Highlands Prov.,F Kraus,03 Apr 2009,", ",1874 m,Papua New Guinea,Southern Highlands Prov.,Point 22    ,Point 22,-5.64509,142.63618,,A
FK 9964,Oreophryne aurora,20521,alcoholic,installed July 2017,"Rossel Island, Damunu = F Kraus catalog.  Damunu Rest House = verbal from F Kraus.",Damunu {Papua New Guinea: Milne Bay Prov.: Rossel Island: Damunu    :    0-40 m    :    11.3650362ºS  154.0013736ºE.},,Milne Bay Prov.,G Shea and local collectors,01 May 2004,"-11.3650362, 154.0013736",0-40 m,Papua New Guinea,Milne Bay Prov.,Rossel Island,Damunu,-11.3650362,154.0013736,11.3650362ºS 154.0013736ºE,A
FK 9965,Oreophryne aurora,20522,alcoholic,installed July 2017,"Rossel Island, Damunu = F Kraus catalog.  Damunu Rest House = verbal from F Kraus.",Damunu {Papua New Guinea: Milne Bay Prov.: Rossel Island: Damunu    :    0-40 m    :    11.3650362ºS  154.0013736ºE.},,Milne Bay Prov.,G Shea and local collectors,01 May 2004,"-11.3650362, 154.0013736",0-40 m,Papua New Guinea,Milne Bay Prov.,Rossel Island,Damunu,-11.3650362,154.0013736,11.3650362ºS 154.0013736ºE,A
FK 9982,Oreophryne aurora,20523,alcoholic,installed July 2017,"Rossel Island, Cheme, 11.32312° S, 154.24285° E, 5 m. = Kraus field catalog",Cheme {Papua New Guinea: Milne Bay Prov.: Rossel Island: Cheme    :    5 m    :    11.32312ºS [11.32312° S (AGD66)]  154.24285ºE [154.24285° E (AGD66)].},,Milne Bay Prov.,"F Kraus, G Shea and local collectors",02 May 2004,"-11.32312, 154.24285",5 m,Papua New Guinea,Milne Bay Prov.,Rossel Island,Cheme,-11.32312,154.24285,11.32312ºS 154.24285ºE ,A
FK 10056,Oreophryne aurora,20524,alcoholic,installed July 2017,"Rossel Island, Cheme, 11.32312° S, 154.24285° E, 5 m. = Kraus field catalog",Cheme {Papua New Guinea: Milne Bay Prov.: Rossel Island: Cheme    :    5 m    :    11.32312ºS [11.32312° S (AGD66)]  154.24285ºE [154.24285° E (AGD66)].},,Milne Bay Prov.,"F Kraus, G Shea and local collectors",04 May 2004,"-11.32312, 154.24285",5 m,Papua New Guinea,Milne Bay Prov.,Rossel Island,Cheme,-11.32312,154.24285,11.32312ºS 154.24285ºE ,A
FK 10288,Oreophryne aurora,20525,alcoholic,installed June 2017,"Rossel Island, Jinjo. = Kraus field catalog",Jinjo {Papua New Guinea: Milne Bay Prov.: Rossel Island: Jinjo    :    0-20 m    :    11.3179347ºS  154.2353479ºE.},,Milne Bay Prov.,local collectors,09 May 2004,"-11.3179347, 154.2353479",0-20 m,Papua New Guinea,Milne Bay Prov.,Rossel Island,Jinjo,-11.3179347,154.2353479,11.3179347ºS 154.2353479ºE,A
FK 10289,Oreophryne aurora,20526,alcoholic,installed June 2017,"Rossel Island, Jinjo. = Kraus field catalog",Jinjo {Papua New Guinea: Milne Bay Prov.: Rossel Island: Jinjo    :    0-20 m    :    11.3179347ºS  154.2353479ºE.},,Milne Bay Prov.,local collectors,09 May 2004,"-11.3179347, 154.2353479",0-20 m,Papua New Guinea,Milne Bay Prov.,Rossel Island,Jinjo,-11.3179347,154.2353479,11.3179347ºS 154.2353479ºE,A
FK 10290,Oreophryne aurora,20527,alcoholic,installed June 2017,"Rossel Island, Jinjo. = Kraus field catalog",Jinjo {Papua New Guinea: Milne Bay Prov.: Rossel Island: Jinjo    :    0-20 m    :    11.3179347ºS  154.2353479ºE.},,Milne Bay Prov.,local collectors,09 May 2004,"-11.3179347, 154.2353479",0-20 m,Papua New Guinea,Milne Bay Prov.,Rossel Island,Jinjo,-11.3179347,154.2353479,11.3179347ºS 154.2353479ºE,A
FK 10291,Oreophryne aurora,20528,alcoholic,installed June 2017,"Rossel Island, Jinjo. = Kraus field catalog",Jinjo {Papua New Guinea: Milne Bay Prov.: Rossel Island: Jinjo    :    0-20 m    :    11.3179347ºS  154.2353479ºE.},,Milne Bay Prov.,local collectors,09 May 2004,"-11.3179347, 154.2353479",0-20 m,Papua New Guinea,Milne Bay Prov.,Rossel Island,Jinjo,-11.3179347,154.2353479,11.3179347ºS 154.2353479ºE,A
FK 10418,Oreophryne aurora,20529,alcoholic,installed June 2017,"Rossel Island, Gobubob, 11.33535° S, 154.22226° E [Aus66], 275 m. = Kraus field catalog","Mt. Rossel, Gobubob (Pt. 35) {Papua New Guinea: Milne Bay Prov.: Rossel Island: Mt. Rossel, Gobubob (Pt. 35)    :    275 m    :    11.33535ºS [11.33535° S (AGD66)]  154.22226ºE [154.22226° E (AGD66)].}",,Milne Bay Prov.,"F Kraus, F Malesa and local collectors",14 May 2004,"-11.33535, 154.22226",275 m,Papua New Guinea,Milne Bay Prov.,Rossel Island,"Mt. Rossel, Gobubob (Pt. 35)",-11.33535,154.22226,11.33535ºS 154.22226ºE ,A
FK 10431,Oreophryne aurora,20530,alcoholic,installed June 2017,"Rossel Island, Vieli, 11.33662° S, 154.22362° E [Aus66], 235 m. = Kraus field catalog","Mt. Rossel, Vieli (Pt. 34) {Papua New Guinea: Milne Bay Prov.: Rossel Island: Mt. Rossel, Vieli (Pt. 34)    :    235 m    :    11.33662ºS [11.33662° S (AGD66)]  154.22362ºE [154.22362° E (AGD66)].}",,Milne Bay Prov.,"F Kraus, F Malesa and local collectors",14 May 2004,"-11.33662, 154.22362",235 m,Papua New Guinea,Milne Bay Prov.,Rossel Island,"Mt. Rossel, Vieli (Pt. 34)",-11.33662,154.22362,11.33662ºS 154.22362ºE ,A
AA 11851,Oreophryne biroi,14509,alcoholic,"installed, Jun 2002","Trifas = Allison catalog.   5.9 km N, 7.3 km E Utai, 320m.  3.333S 141.651E = from bird & mammal locals master list for Bewani Exp. compiled by A Engilis, Jr.","Trefas Village, 5.9 km N, 7.3 km E of Utai {Papua New Guinea: West Sepik Prov.: Trefas Village, 5.9 km N, 7.3 km E of Utai    :    320 m    :    3.333ºS [3.333S]  141.651ºE [141.651E].}",,West Sepik Prov.,A Allison,02 Oct 1986,"-3.333, 141.651",320 m,Papua New Guinea,West Sepik Prov.,"Trefas Village, 5.9 km N, 7.3 km E of Utai    ","Trefas Village, 5.9 km N, 7.3 km E of Utai",-3.333,141.651,3.333ºS 141.651ºE ,A
AA 11852,Oreophryne biroi,14510,alcoholic,"installed, Jun 2002","Trifas = Allison catalog.   5.9 km N, 7.3 km E Utai, 320m.  3.333S 141.651E = from bird & mammal locals master list for Bewani Exp. compiled by A Engilis, Jr.","Trefas Village, 5.9 km N, 7.3 km E of Utai {Papua New Guinea: West Sepik Prov.: Trefas Village, 5.9 km N, 7.3 km E of Utai    :    320 m    :    3.333ºS [3.333S]  141.651ºE [141.651E].}",,West Sepik Prov.,A Allison,02 Oct 1986,"-3.333, 141.651",320 m,Papua New Guinea,West Sepik Prov.,"Trefas Village, 5.9 km N, 7.3 km E of Utai    ","Trefas Village, 5.9 km N, 7.3 km E of Utai",-3.333,141.651,3.333ºS 141.651ºE ,A
AA 11853,Oreophryne biroi,14511,alcoholic,"installed, Jun 2002","Trifas = Allison catalog.   5.9 km N, 7.3 km E Utai, 320m.  3.333S 141.651E = from bird & mammal locals master list for Bewani Exp. compiled by A Engilis, Jr.","Trefas Village, 5.9 km N, 7.3 km E of Utai {Papua New Guinea: West Sepik Prov.: Trefas Village, 5.9 km N, 7.3 km E of Utai    :    320 m    :    3.333ºS [3.333S]  141.651ºE [141.651E].}",,West Sepik Prov.,A Allison,02 Oct 1986,"-3.333, 141.651",320 m,Papua New Guinea,West Sepik Prov.,"Trefas Village, 5.9 km N, 7.3 km E of Utai    ","Trefas Village, 5.9 km N, 7.3 km E of Utai",-3.333,141.651,3.333ºS 141.651ºE ,A
FK 11749,Oreophryne biroi,22786,alcoholic,installed June 2017,"West Sepik Prov., Torricelli Mtns., Camp 1, 3.39329° S, 142.52826° E (AGD66), 550 m = F Kraus field catalog","Torricelli Mtns., 3.2 km SSE Mt. Sapau summit, (Camp 1) {Papua New Guinea: West Sepik Prov.: Torricelli Mtns., 3.2 km SSE Mt. Sapau summit, (Camp 1)    :    550 m    :    3.39329ºS  142.52826ºE.}",,West Sepik Prov.,F Kraus,25 May 2005,"-3.39329, 142.52826",550 m,Papua New Guinea,West Sepik Prov.,"Torricelli Mtns., 3.2 km SSE Mt. Sapau summit, (Camp 1)    ","Torricelli Mtns., 3.2 km SSE Mt. Sapau summit, (Camp 1)",-3.39329,142.52826,3.39329ºS 142.52826ºE,A
AA 13676,Oreophryne biroi,23481,alcoholic,"installed, Aug 2006","Camp 4, Hunstein Mts., East Sepik Province, Papua New Guinea = Allison catalog.  Papua New Guinea, East Sepik Prov., Hunstein Range, 1.3 km. S & 2.3 km. E Mt. Hunstein summit, (Camp 4), 1000 m.  =  master list of Hunstein River Exp. collection localities","Hunstein Range, 1.3 km S, 2.3 km E of Mt. Hunstein summit, (Camp 4) {Papua New Guinea: East Sepik Prov.: Hunstein Range, 1.3 km S, 2.3 km E of Mt. Hunstein summit, (Camp 4)    :    1000 m    :    4.5226449ºS  142.6747747ºE.}",,East Sepik Prov.,A Allison,26 Sep 1989,"-4.5226449, 142.6747747",1000 m,Papua New Guinea,East Sepik Prov.,"Hunstein Range, 1.3 km S, 2.3 km E of Mt. Hunstein summit, (Camp 4)    ","Hunstein Range, 1.3 km S, 2.3 km E of Mt. Hunstein summit, (Camp 4)",-4.5226449,142.6747747,4.5226449ºS 142.6747747ºE,A
AA 13692,Oreophryne biroi,23482,alcoholic,"installed, Aug 2006","Camp 4, Hunstein Mts., East Sepik Prov., Papua New Guinea  = Allison catalog.  Papua New Guinea, East Sepik Prov., Hunstein Range, 1.3 km. S & 2.3 km. E Mt. Hunstein summit, (Camp 4), 1000 m.  =  master list of Hunstein River Exp. collection localities (s","Hunstein Range, 1.3 km S, 2.3 km E of Mt. Hunstein summit, (Camp 4) {Papua New Guinea: East Sepik Prov.: Hunstein Range, 1.3 km S, 2.3 km E of Mt. Hunstein summit, (Camp 4)    :    1000 m    :    4.5226449ºS  142.6747747ºE.}",,East Sepik Prov.,A Allison,26 Sep 1989,"-4.5226449, 142.6747747",1000 m,Papua New Guinea,East Sepik Prov.,"Hunstein Range, 1.3 km S, 2.3 km E of Mt. Hunstein summit, (Camp 4)    ","Hunstein Range, 1.3 km S, 2.3 km E of Mt. Hunstein summit, (Camp 4)",-4.5226449,142.6747747,4.5226449ºS 142.6747747ºE,A
AA 13793,Oreophryne biroi,23483,alcoholic,"installed, Aug 2006","Camp 4, Hunstein Range, East Sepik Prov., Papua New Guinea = Allison catalog.  Papua New Guinea, East Sepik Prov., Hunstein Range, 1.3 km. S & 2.3 km. E Mt. Hunstein summit, (Camp 4), 1000 m.  =  master list of Hunstein River Exp. collection localities (s","Hunstein Range, 1.3 km S, 2.3 km E of Mt. Hunstein summit, (Camp 4) {Papua New Guinea: East Sepik Prov.: Hunstein Range, 1.3 km S, 2.3 km E of Mt. Hunstein summit, (Camp 4)    :    1000 m    :    4.5226449ºS  142.6747747ºE.}",,East Sepik Prov.,A Allison,30 Sep 1989,"-4.5226449, 142.6747747",1000 m,Papua New Guinea,East Sepik Prov.,"Hunstein Range, 1.3 km S, 2.3 km E of Mt. Hunstein summit, (Camp 4)    ","Hunstein Range, 1.3 km S, 2.3 km E of Mt. Hunstein summit, (Camp 4)",-4.5226449,142.6747747,4.5226449ºS 142.6747747ºE,A
AA 13841,Oreophryne biroi,23484,alcoholic,"installed, Aug 2006","Camp 4  = Allison catalog.   Papua New Guinea, East Sepik Prov., Hunstein Range, 1.3 km. S & 2.3 km. E Mt. Hunstein summit, (Camp 4), 1000 m.  =  master list of Hunstein River Exp. collection localities (see acc'n file and Vert Zoo map collection).","Hunstein Range, 1.3 km S, 2.3 km E of Mt. Hunstein summit, (Camp 4) {Papua New Guinea: East Sepik Prov.: Hunstein Range, 1.3 km S, 2.3 km E of Mt. Hunstein summit, (Camp 4)    :    1000 m    :    4.5226449ºS  142.6747747ºE.}",,East Sepik Prov.,A Allison,02 Oct 1989,"-4.5226449, 142.6747747",1000 m,Papua New Guinea,East Sepik Prov.,"Hunstein Range, 1.3 km S, 2.3 km E of Mt. Hunstein summit, (Camp 4)    ","Hunstein Range, 1.3 km S, 2.3 km E of Mt. Hunstein summit, (Camp 4)",-4.5226449,142.6747747,4.5226449ºS 142.6747747ºE,A
AA 13842,Oreophryne biroi,23485,alcoholic,"installed, Aug 2006","Camp 4  = Allison catalog.   Papua New Guinea, East Sepik Prov., Hunstein Range, 1.3 km. S & 2.3 km. E Mt. Hunstein summit, (Camp 4), 1000 m.  =  master list of Hunstein River Exp. collection localities (see acc'n file and Vert Zoo map collection).","Hunstein Range, 1.3 km S, 2.3 km E of Mt. Hunstein summit, (Camp 4) {Papua New Guinea: East Sepik Prov.: Hunstein Range, 1.3 km S, 2.3 km E of Mt. Hunstein summit, (Camp 4)    :    1000 m    :    4.5226449ºS  142.6747747ºE.}",,East Sepik Prov.,A Allison,02 Oct 1989,"-4.5226449, 142.6747747",1000 m,Papua New Guinea,East Sepik Prov.,"Hunstein Range, 1.3 km S, 2.3 km E of Mt. Hunstein summit, (Camp 4)    ","Hunstein Range, 1.3 km S, 2.3 km E of Mt. Hunstein summit, (Camp 4)",-4.5226449,142.6747747,4.5226449ºS 142.6747747ºE,A
AA 19066,Oreophryne biroi,31876,alcoholic,"installed, Jul 2009",Cliffside Camp = from AA electronic catalogue,"Kamiali Wildlife Management Area, 1.3 km N and 6.2 km W of Cape Dinga {Papua New Guinea: Morobe Prov.: Kamiali Wildlife Management Area, 1.3 km N and 6.2 km W of Cape Dinga, Cliffside Camp    :    500 m    :    7.295997634ºS  147.092878935ºE.}",Cliffside Camp,Morobe Prov.,A Allison,21 Feb 2008,"-7.295997634, 147.092878935",500 m,Papua New Guinea,Morobe Prov.,"Kamiali Wildlife Management Area, 1.3 km N and 6.2 km W of Cape Dinga, Cliffside Camp    ","Kamiali Wildlife Management Area, 1.3 km N and 6.2 km W of Cape Dinga",-7.295997634,147.0928789,7.295997634ºS 147.092878935ºE,A
FK 13553,Oreophryne biroi,34688,alcoholic + alc gut,installed June 2017,"East Sepik Prov., Mindangua Stream, 3° 36.339' S, 143° 29.527' E, 410 m = from F Kraus field  notes",Mindangua Stream {Papua New Guinea: East Sepik Prov.: Mindangua Stream    :    410 m    :    3.60565ºS [3° 36.339' S (AGD 84)]  143.49212ºE [143° 29.527' E (AGD 84)].},,East Sepik Prov.,F Kraus,21 Sep 2009,"-3.60565, 143.49212",410 m,Papua New Guinea,East Sepik Prov.,Mindangua Stream    ,Mindangua Stream,-3.60565,143.49212,3.60565ºS 143.49212ºE ,A
FK 13801,Oreophryne biroi,34689,alcoholic + alc gut,installed June 2017,"Madang Prov., Keki Lodge, 4° 42.291' S, 145° 24.251' E, 854 m = from F Kraus field notes",Keki Lodge {Papua New Guinea: Madang Prov.: Keki Lodge    :    854 m    :    4.70485ºS [4° 42.591' S (AGD 84)]  145.40418ºE [145° 24.251' E (AGD 84)].},,Madang Prov.,F Kraus,02 Oct 2009,"-4.70485, 145.40418",854 m,Papua New Guinea,Madang Prov.,Keki Lodge    ,Keki Lodge,-4.70485,145.40418,4.70485ºS 145.40418ºE ,A
FK 13802,Oreophryne biroi,34690,alcoholic + alc gut,installed June 2017,"Madang Prov., Keki Lodge, 4° 42.291' S, 145° 24.251' E, 854 m = from F Kraus field notes",Keki Lodge {Papua New Guinea: Madang Prov.: Keki Lodge    :    854 m    :    4.70485ºS [4° 42.591' S (AGD 84)]  145.40418ºE [145° 24.251' E (AGD 84)].},,Madang Prov.,F Kraus,02 Oct 2009,"-4.70485, 145.40418",854 m,Papua New Guinea,Madang Prov.,Keki Lodge    ,Keki Lodge,-4.70485,145.40418,4.70485ºS 145.40418ºE ,A
FK 13803,Oreophryne biroi,34691,alcoholic + alc gut,installed June 2017,"Madang Prov., Keki Lodge, 4° 42.291' S, 145° 24.251' E, 854 m = from F Kraus field notes",Keki Lodge {Papua New Guinea: Madang Prov.: Keki Lodge    :    854 m    :    4.70485ºS [4° 42.591' S (AGD 84)]  145.40418ºE [145° 24.251' E (AGD 84)].},,Madang Prov.,F Kraus,02 Oct 2009,"-4.70485, 145.40418",854 m,Papua New Guinea,Madang Prov.,Keki Lodge    ,Keki Lodge,-4.70485,145.40418,4.70485ºS 145.40418ºE ,A
FK 13989,Oreophryne biroi,34692,alcoholic + alc gut,installed June 2017,"Madang Prov., Keki Lodge, 4° 42.291' S, 145° 24.251' E, 854 m = from F Kraus field notes",Keki Lodge {Papua New Guinea: Madang Prov.: Keki Lodge    :    854 m    :    4.70485ºS [4° 42.591' S (AGD 84)]  145.40418ºE [145° 24.251' E (AGD 84)].},,Madang Prov.,F Kraus,06 Oct 2009,"-4.70485, 145.40418",854 m,Papua New Guinea,Madang Prov.,Keki Lodge    ,Keki Lodge,-4.70485,145.40418,4.70485ºS 145.40418ºE ,A
--,Oreophryne brachypus,1182,alcoholic,installed,"""New Britain, Nakanai Mtns., Talalo, 900 m."" = from Herpetology book catalog",,,,J L Gressitt,27 Jul 1956,", ",,,,,,NA,NA,,A
--,Oreophryne brachypus,1183,alcoholic,installed,"""New Britain, Nakanai Mtns., Talalo, 900 m."" = from Herpetology book catalog",,,,J L Gressitt,27 Jul 1956,", ",,,,,,NA,NA,,A
FK 10748,Oreophryne brachypus,22509,alcoholic + alc gut,"installed, Oct 2006","New Britain, Camp 1, 5.44730° S, 151.46307° E (AGD66), 865 m = F Kraus field catalog","Marmar, 9 km NNW, (Camp 1) {Papua New Guinea: East New Britain Prov.: New Britain Island: Marmar, 9 km NNW, (Camp 1)    :    865-920 m    :    5.4473ºS  151.46307ºE.}",,East New Britain Prov.,F Kraus,23 Feb 2005,"-5.4473, 151.46307",865-920 m,Papua New Guinea,East New Britain Prov.,New Britain Island,"Marmar, 9 km NNW, (Camp 1)",-5.4473,151.46307,5.4473ºS 151.46307ºE,A
FK 10749,Oreophryne brachypus,22510,alcoholic + alc gut,"installed, Oct 2006","New Britain, Camp 1, 5.44730° S, 151.46307° E (AGD66), 865 m = F Kraus field catalog","Marmar, 9 km NNW, (Camp 1) {Papua New Guinea: East New Britain Prov.: New Britain Island: Marmar, 9 km NNW, (Camp 1)    :    865-920 m    :    5.4473ºS  151.46307ºE.}",,East New Britain Prov.,F Kraus,23 Feb 2005,"-5.4473, 151.46307",865-920 m,Papua New Guinea,East New Britain Prov.,New Britain Island,"Marmar, 9 km NNW, (Camp 1)",-5.4473,151.46307,5.4473ºS 151.46307ºE,A
FK 10758,Oreophryne brachypus,22511,alcoholic + alc gut,"installed, Oct 2006","New Britain, Camp 1, 5.44730° S, 151.46307° E (AGD66), 865 m = F Kraus field catalog","Marmar, 9 km NNW, (Camp 1) {Papua New Guinea: East New Britain Prov.: New Britain Island: Marmar, 9 km NNW, (Camp 1)    :    865-920 m    :    5.4473ºS  151.46307ºE.}",,East New Britain Prov.,F Kraus,23 Feb 2005,"-5.4473, 151.46307",865-920 m,Papua New Guinea,East New Britain Prov.,New Britain Island,"Marmar, 9 km NNW, (Camp 1)",-5.4473,151.46307,5.4473ºS 151.46307ºE,A
FK 10759,Oreophryne brachypus,22512,alcoholic,"installed, Oct 2006","New Britain, Camp 1, 5.44730° S, 151.46307° E (AGD66), 865 m = F Kraus field catalog","Marmar, 9 km NNW, (Camp 1) {Papua New Guinea: East New Britain Prov.: New Britain Island: Marmar, 9 km NNW, (Camp 1)    :    865-920 m    :    5.4473ºS  151.46307ºE.}",,East New Britain Prov.,F Kraus,23 Feb 2005,"-5.4473, 151.46307",865-920 m,Papua New Guinea,East New Britain Prov.,New Britain Island,"Marmar, 9 km NNW, (Camp 1)",-5.4473,151.46307,5.4473ºS 151.46307ºE,A
FK 10781,Oreophryne brachypus,22513,alcoholic + alc gut,"installed, Oct 2006","New Britain, Camp 1 +/- 200 m = F Kraus catalog ; from F Kraus field catalog Camp 1 = 5.44730° S, 151.46307° E (AGD66), 865 m.","Marmar, 9 km NNW, (Camp 1 +/- 200 m) {Papua New Guinea: East New Britain Prov.: New Britain Island: Marmar, 9 km NNW, (Camp 1 +/- 200 m)    :    865-920 m    :    5.4473ºS  151.46307ºE.}",,East New Britain Prov.,F Kraus,24 Feb 2005,"-5.4473, 151.46307",865-920 m,Papua New Guinea,East New Britain Prov.,New Britain Island,"Marmar, 9 km NNW, (Camp 1 +/- 200 m)",-5.4473,151.46307,5.4473ºS 151.46307ºE,A
FK 10782,Oreophryne brachypus,22514,alcoholic + alc gut,"installed, Oct 2006","New Britain, Camp 1 +/- 200 m = F Kraus catalog ; from F Kraus field catalog Camp 1 = 5.44730° S, 151.46307° E (AGD66), 865 m.","Marmar, 9 km NNW, (Camp 1 +/- 200 m) {Papua New Guinea: East New Britain Prov.: New Britain Island: Marmar, 9 km NNW, (Camp 1 +/- 200 m)    :    865-920 m    :    5.4473ºS  151.46307ºE.}",,East New Britain Prov.,F Kraus,24 Feb 2005,"-5.4473, 151.46307",865-920 m,Papua New Guinea,East New Britain Prov.,New Britain Island,"Marmar, 9 km NNW, (Camp 1 +/- 200 m)",-5.4473,151.46307,5.4473ºS 151.46307ºE,A
FK 10814,Oreophryne brachypus,22515,alcoholic + alc gut,"installed, Oct 2006","New Britain, Cave nr. Camp 1, 5.44439° S, 151.46546° E (AGD66), 800 m = F Kraus field catalog","Marmar, 9.2 km NNW, (cave near Camp 1) {Papua New Guinea: East New Britain Prov.: New Britain Island: Marmar, 9.2 km NNW, (cave near Camp 1)    :    800-920 m    :    5.44439ºS  151.46546ºE.}",,East New Britain Prov.,F Kraus,25 Feb 2005,"-5.44439, 151.46546",800-920 m,Papua New Guinea,East New Britain Prov.,New Britain Island,"Marmar, 9.2 km NNW, (cave near Camp 1)",-5.44439,151.46546,5.44439ºS 151.46546ºE,A
FK 10815,Oreophryne brachypus,22516,alcoholic + alc gut,"installed, Oct 2006","New Britain, Cave nr. Camp 1, 5.44439° S, 151.46546° E (AGD66), 800 m = F Kraus field catalog","Marmar, 9.2 km NNW, (cave near Camp 1) {Papua New Guinea: East New Britain Prov.: New Britain Island: Marmar, 9.2 km NNW, (cave near Camp 1)    :    800-920 m    :    5.44439ºS  151.46546ºE.}",,East New Britain Prov.,F Kraus,25 Feb 2005,"-5.44439, 151.46546",800-920 m,Papua New Guinea,East New Britain Prov.,New Britain Island,"Marmar, 9.2 km NNW, (cave near Camp 1)",-5.44439,151.46546,5.44439ºS 151.46546ºE,A
FK 10816,Oreophryne brachypus,22517,alcoholic + alc gut,"installed, Oct 2006","New Britain, Cave nr. Camp 1, 5.44439° S, 151.46546° E (AGD66), 800 m = F Kraus field catalog","Marmar, 9.2 km NNW, (cave near Camp 1) {Papua New Guinea: East New Britain Prov.: New Britain Island: Marmar, 9.2 km NNW, (cave near Camp 1)    :    800-920 m    :    5.44439ºS  151.46546ºE.}",,East New Britain Prov.,F Kraus,25 Feb 2005,"-5.44439, 151.46546",800-920 m,Papua New Guinea,East New Britain Prov.,New Britain Island,"Marmar, 9.2 km NNW, (cave near Camp 1)",-5.44439,151.46546,5.44439ºS 151.46546ºE,A
FK 10834,Oreophryne brachypus,22518,alcoholic + alc gut,"installed, Oct 2006","New Britain, Bulisa's trail","Marmar, 8.8 km NNW, (Bulisa's trail) {Papua New Guinea: East New Britain Prov.: New Britain Island: Marmar, 8.8 km NNW, (Bulisa's trail)    :    940 m    :    5.4483695ºS  151.4671171ºE.}",,East New Britain Prov.,F Kraus,25 Feb 2005,"-5.4483695, 151.4671171",940 m,Papua New Guinea,East New Britain Prov.,New Britain Island,"Marmar, 8.8 km NNW, (Bulisa's trail)",-5.4483695,151.4671171,5.4483695ºS 151.4671171ºE,A
FK 10835,Oreophryne brachypus,22519,alcoholic + alc gut,"installed, Oct 2006","New Britain, Bulisa's trail","Marmar, 8.8 km NNW, (Bulisa's trail) {Papua New Guinea: East New Britain Prov.: New Britain Island: Marmar, 8.8 km NNW, (Bulisa's trail)    :    940 m    :    5.4483695ºS  151.4671171ºE.}",,East New Britain Prov.,F Kraus,25 Feb 2005,"-5.4483695, 151.4671171",940 m,Papua New Guinea,East New Britain Prov.,New Britain Island,"Marmar, 8.8 km NNW, (Bulisa's trail)",-5.4483695,151.4671171,5.4483695ºS 151.4671171ºE,A
FK 10836,Oreophryne brachypus,22520,alcoholic + alc gut,"installed, Oct 2006","New Britain, Bulisa's trail","Marmar, 8.8 km NNW, (Bulisa's trail) {Papua New Guinea: East New Britain Prov.: New Britain Island: Marmar, 8.8 km NNW, (Bulisa's trail)    :    940 m    :    5.4483695ºS  151.4671171ºE.}",,East New Britain Prov.,F Kraus,25 Feb 2005,"-5.4483695, 151.4671171",940 m,Papua New Guinea,East New Britain Prov.,New Britain Island,"Marmar, 8.8 km NNW, (Bulisa's trail)",-5.4483695,151.4671171,5.4483695ºS 151.4671171ºE,A
FK 10837,Oreophryne brachypus,22521,alcoholic + alc gut,"installed, Oct 2006","New Britain, Bulisa's trail","Marmar, 8.8 km NNW, (Bulisa's trail) {Papua New Guinea: East New Britain Prov.: New Britain Island: Marmar, 8.8 km NNW, (Bulisa's trail)    :    940 m    :    5.4483695ºS  151.4671171ºE.}",,East New Britain Prov.,F Kraus,25 Feb 2005,"-5.4483695, 151.4671171",940 m,Papua New Guinea,East New Britain Prov.,New Britain Island,"Marmar, 8.8 km NNW, (Bulisa's trail)",-5.4483695,151.4671171,5.4483695ºS 151.4671171ºE,A
FK 10868,Oreophryne brachypus,22522,alcoholic + alc gut,"installed, Oct 2006","New Britain, Camp 1, 5.44730° S, 151.46307° E (AGD66), 865 m = F Kraus field catalog","Marmar, 9 km NNW, (Camp 1) {Papua New Guinea: East New Britain Prov.: New Britain Island: Marmar, 9 km NNW, (Camp 1)    :    865-920 m    :    5.4473ºS  151.46307ºE.}",,East New Britain Prov.,F Kraus,27 Feb 2005,"-5.4473, 151.46307",865-920 m,Papua New Guinea,East New Britain Prov.,New Britain Island,"Marmar, 9 km NNW, (Camp 1)",-5.4473,151.46307,5.4473ºS 151.46307ºE,A
FK 10873,Oreophryne brachypus,22523,alcoholic + alc gut,"installed, Oct 2006","New Britain, Cave nr. Camp 1, 5.44439° S, 151.46546° E (AGD66), 800 m = F Kraus field catalog","Marmar, 9.2 km NNW, (cave near Camp 1) {Papua New Guinea: East New Britain Prov.: New Britain Island: Marmar, 9.2 km NNW, (cave near Camp 1)    :    800-920 m    :    5.44439ºS  151.46546ºE.}",,East New Britain Prov.,F Kraus,27 Feb 2005,"-5.44439, 151.46546",800-920 m,Papua New Guinea,East New Britain Prov.,New Britain Island,"Marmar, 9.2 km NNW, (cave near Camp 1)",-5.44439,151.46546,5.44439ºS 151.46546ºE,A
FK 10898,Oreophryne brachypus,22524,alcoholic,"installed, Oct 2006","New Britain, Point 15, 5.42868° S, 151.45654° E (AGD66), 850 m = F Kraus field catalog","Marmar, 11.3 km NNW, (Point 15) {Papua New Guinea: East New Britain Prov.: New Britain Island: Marmar, 11.3 km NNW, (Point 15)    :    850-920 m    :    5.42868ºS  151.45654ºE.}",,East New Britain Prov.,F Kraus,28 Feb 2005,"-5.42868, 151.45654",850-920 m,Papua New Guinea,East New Britain Prov.,New Britain Island,"Marmar, 11.3 km NNW, (Point 15)",-5.42868,151.45654,5.42868ºS 151.45654ºE,A
FK 10915,Oreophryne brachypus,22525,alcoholic + alc gut,"installed, Oct 2006","New Britain, Point 14, 5.42550° S, 151.45337° E (AGD66), 800 m = F Kraus field catalog","Marmar, 11.8 km NNW, (Point 14) {Papua New Guinea: East New Britain Prov.: New Britain Island: Marmar, 11.8 km NNW, (Point 14)    :    800-962 m    :    5.4255ºS  151.45337ºE.}",,East New Britain Prov.,F Kraus,01 Mar 2005,"-5.4255, 151.45337",800-962 m,Papua New Guinea,East New Britain Prov.,New Britain Island,"Marmar, 11.8 km NNW, (Point 14)",-5.4255,151.45337,5.4255ºS 151.45337ºE,A
FK 10916,Oreophryne brachypus,22526,alcoholic + alc gut,"installed, Oct 2006","New Britain, Point 14, 5.42550° S, 151.45337° E (AGD66), 800 m = F Kraus field catalog","Marmar, 11.8 km NNW, (Point 14) {Papua New Guinea: East New Britain Prov.: New Britain Island: Marmar, 11.8 km NNW, (Point 14)    :    800-962 m    :    5.4255ºS  151.45337ºE.}",,East New Britain Prov.,F Kraus,01 Mar 2005,"-5.4255, 151.45337",800-962 m,Papua New Guinea,East New Britain Prov.,New Britain Island,"Marmar, 11.8 km NNW, (Point 14)",-5.4255,151.45337,5.4255ºS 151.45337ºE,A
FK 10917,Oreophryne brachypus,22527,alcoholic,"installed, Oct 2006","New Britain, Point 14, 5.42550° S, 151.45337° E (AGD66), 800 m = F Kraus field catalog","Marmar, 11.8 km NNW, (Point 14) {Papua New Guinea: East New Britain Prov.: New Britain Island: Marmar, 11.8 km NNW, (Point 14)    :    800-962 m    :    5.4255ºS  151.45337ºE.}",,East New Britain Prov.,F Kraus,01 Mar 2005,"-5.4255, 151.45337",800-962 m,Papua New Guinea,East New Britain Prov.,New Britain Island,"Marmar, 11.8 km NNW, (Point 14)",-5.4255,151.45337,5.4255ºS 151.45337ºE,A
FK 10928,Oreophryne brachypus,22528,alcoholic + alc gut,"installed, Oct 2006","New Britain, Camp 1, 5.44730° S, 151.46307° E (AGD66), 865 m = F Kraus field catalog","Marmar, 9 km NNW, (Camp 1) {Papua New Guinea: East New Britain Prov.: New Britain Island: Marmar, 9 km NNW, (Camp 1)    :    865-920 m    :    5.4473ºS  151.46307ºE.}",,East New Britain Prov.,F Kraus,01 Mar 2005,"-5.4473, 151.46307",865-920 m,Papua New Guinea,East New Britain Prov.,New Britain Island,"Marmar, 9 km NNW, (Camp 1)",-5.4473,151.46307,5.4473ºS 151.46307ºE,A
FK 10929,Oreophryne brachypus,22529,alcoholic + alc gut,"installed, Oct 2006","New Britain, Point 15, 5.42868° S, 151.45654° E (AGD66), 850 m = F Kraus field catalog","Marmar, 11.3 km NNW, (Point 15) {Papua New Guinea: East New Britain Prov.: New Britain Island: Marmar, 11.3 km NNW, (Point 15)    :    850-920 m    :    5.42868ºS  151.45654ºE.}",,East New Britain Prov.,F Kraus,01 Mar 2005,"-5.42868, 151.45654",850-920 m,Papua New Guinea,East New Britain Prov.,New Britain Island,"Marmar, 11.3 km NNW, (Point 15)",-5.42868,151.45654,5.42868ºS 151.45654ºE,A
FK 10930,Oreophryne brachypus,22530,alcoholic + alc gut,"installed, Oct 2006","New Britain, Point 15, 5.42868° S, 151.45654° E (AGD66), 850 m = F Kraus field catalog","Marmar, 11.3 km NNW, (Point 15) {Papua New Guinea: East New Britain Prov.: New Britain Island: Marmar, 11.3 km NNW, (Point 15)    :    850-920 m    :    5.42868ºS  151.45654ºE.}",,East New Britain Prov.,F Kraus,01 Mar 2005,"-5.42868, 151.45654",850-920 m,Papua New Guinea,East New Britain Prov.,New Britain Island,"Marmar, 11.3 km NNW, (Point 15)",-5.42868,151.45654,5.42868ºS 151.45654ºE,A
FK 10951,Oreophryne brachypus,22531,alcoholic + alc gut,"installed, Oct 2006","New Britain, Point 15, 5.42868° S, 151.45654° E (AGD66), 850 m = F Kraus field catalog","Marmar, 11.3 km NNW, (Point 15) {Papua New Guinea: East New Britain Prov.: New Britain Island: Marmar, 11.3 km NNW, (Point 15)    :    850-920 m    :    5.42868ºS  151.45654ºE.}",,East New Britain Prov.,F Kraus,02 Mar 2005,"-5.42868, 151.45654",850-920 m,Papua New Guinea,East New Britain Prov.,New Britain Island,"Marmar, 11.3 km NNW, (Point 15)",-5.42868,151.45654,5.42868ºS 151.45654ºE,A
FK 10962,Oreophryne brachypus,22532,alcoholic + alc gut,"installed, Oct 2006","New Britain, Camp 2, 5.49895° S, 151.48930° E (AGD66), 517 m = F Kraus field catalog","Marmar, 2.6 km NNW, (Camp 2) {Papua New Guinea: East New Britain Prov.: New Britain Island: Marmar, 2.6 km NNW, (Camp 2)    :    517 m    :    5.49895ºS  151.4893ºE.}",,East New Britain Prov.,F Kraus,04 Mar 2005,"-5.49895, 151.4893",517 m,Papua New Guinea,East New Britain Prov.,New Britain Island,"Marmar, 2.6 km NNW, (Camp 2)",-5.49895,151.4893,5.49895ºS 151.4893ºE,A
FK 11013,Oreophryne brachypus,22533,alcoholic + alc gut,"installed, Oct 2006","New Britain, Camp 2, 5.49895° S, 151.48930° E (AGD66), 517 m = F Kraus field catalog","Marmar, 2.6 km NNW, (Camp 2) {Papua New Guinea: East New Britain Prov.: New Britain Island: Marmar, 2.6 km NNW, (Camp 2)    :    517 m    :    5.49895ºS  151.4893ºE.}",,East New Britain Prov.,F Kraus,05 Mar 2005,"-5.49895, 151.4893",517 m,Papua New Guinea,East New Britain Prov.,New Britain Island,"Marmar, 2.6 km NNW, (Camp 2)",-5.49895,151.4893,5.49895ºS 151.4893ºE,A
FK 11181,Oreophryne brachypus,22534,alcoholic + alc gut,"installed, Oct 2006","New Britain, 100 m S Camp 2 = F Kraus catalog ;  from F Kraus field catalog Camp 2 = 5.49895° S, 151.48930° E (AGD66), 517 m","Marmar, 2.6 km NNW, (Camp 2) {Papua New Guinea: East New Britain Prov.: New Britain Island: Marmar, 2.6 km NNW, (Camp 2)    :    517 m    :    5.49895ºS  151.4893ºE.}",,East New Britain Prov.,F Kraus,08 Mar 2005,"-5.49895, 151.4893",517 m,Papua New Guinea,East New Britain Prov.,New Britain Island,"Marmar, 2.6 km NNW, (Camp 2)",-5.49895,151.4893,5.49895ºS 151.4893ºE,A
FK 11182,Oreophryne brachypus,22535,alcoholic + alc gut,"installed, Oct 2006","New Britain, 100 m S Camp 2 = F Kraus catalog ;  from F Kraus field catalog Camp 2 = 5.49895° S, 151.48930° E (AGD66), 517 m","Marmar, 2.6 km NNW, (Camp 2) {Papua New Guinea: East New Britain Prov.: New Britain Island: Marmar, 2.6 km NNW, (Camp 2)    :    517 m    :    5.49895ºS  151.4893ºE.}",,East New Britain Prov.,F Kraus,08 Mar 2005,"-5.49895, 151.4893",517 m,Papua New Guinea,East New Britain Prov.,New Britain Island,"Marmar, 2.6 km NNW, (Camp 2)",-5.49895,151.4893,5.49895ºS 151.4893ºE,A
FK 11183,Oreophryne brachypus,22536,alcoholic + alc gut,"installed, Oct 2006","New Britain, 100 m S Camp 2 = F Kraus catalog ;  from F Kraus field catalog Camp 2 = 5.49895° S, 151.48930° E (AGD66), 517 m","Marmar, 2.6 km NNW, (Camp 2) {Papua New Guinea: East New Britain Prov.: New Britain Island: Marmar, 2.6 km NNW, (Camp 2)    :    517 m    :    5.49895ºS  151.4893ºE.}",,East New Britain Prov.,F Kraus,08 Mar 2005,"-5.49895, 151.4893",517 m,Papua New Guinea,East New Britain Prov.,New Britain Island,"Marmar, 2.6 km NNW, (Camp 2)",-5.49895,151.4893,5.49895ºS 151.4893ºE,A
AA 20646,Oreophryne brachypus,37862,alcoholic,"installed, Mar 2016",Kilis River Camp = from A Allison field catalog,,,,A Allison,12 May 2011,", ",,,,,,NA,NA,,A
AA 20647,Oreophryne brachypus,37863,alcoholic,installed 20 Jul 2021,Kilis River Camp = from A Allison field catalog,,,,A Allison,12 May 2011,", ",,,,,,NA,NA,,A
AA 20660,Oreophryne brachypus,37864,alcoholic,installed 20 Jul 2021,Kilis River Camp = from A Allison field catalog,,,,A Allison,13 May 2011,", ",,,,,,NA,NA,,A
AA 20661,Oreophryne brachypus,37865,alcoholic,installed,Kilis River Camp = from A Allison field catalog,,,,A Allison,13 May 2011,", ",,,,,,NA,NA,,A
AA 20951,Oreophryne brachypus,37866,alcoholic,installed,"Tozen Camp, 950 m = from A Allison field catalog",,,,A Allison,06 Aug 2011,", ",,,,,,NA,NA,,A
AA 20952,Oreophryne brachypus,37867,alcoholic,installed,"Tozen Camp, 950 m = from A Allison field catalog",,,,A Allison,06 Aug 2011,", ",,,,,,NA,NA,,A
AA 20953,Oreophryne brachypus,37868,alcoholic,installed,"Tozen Camp, 950 m = from A Allison field catalog",,,,A Allison,06 Aug 2011,", ",,,,,,NA,NA,,A
AA 20956,Oreophryne brachypus,37869,alcoholic,installed,"Tozen Camp, 950 m = from A Allison field catalog",,,,A Allison,06 Aug 2011,", ",,,,,,NA,NA,,A
AA 20973,Oreophryne brachypus,37870,alcoholic,"installed, Mar 2016","Tozen Camp, 950 m = from A Allison field catalog",,,,A Allison,06 Aug 2011,", ",,,,,,NA,NA,,A
AA 20977,Oreophryne brachypus,37871,alcoholic,"installed, Mar 2016","Tozen Camp, 950 m = from A Allison field catalog",,,,A Allison,07 Aug 2011,", ",,,,,,NA,NA,,A
AA 21004,Oreophryne brachypus,37872,alcoholic,"installed, Mar 2016","Tozen Camp, 950 m = from A Allison field catalog",,,,A Allison,08 Aug 2011,", ",,,,,,NA,NA,,A
AA 21005,Oreophryne brachypus,37873,alcoholic,"installed, Mar 2016","Tozen Camp, 950 m = from A Allison field catalog",,,,A Allison,08 Aug 2011,", ",,,,,,NA,NA,,A
AA 21006,Oreophryne brachypus,37874,alcoholic,"installed, Mar 2016","Tozen Camp, 950 m = from A Allison field catalog",,,,A Allison,08 Aug 2011,", ",,,,,,NA,NA,,A
AA 24021,Oreophryne brachypus,46187,alcoholic,"Installed, Aug 2018",Water Source = from A Allison field catalogue,,,,A Allison,12 Oct 2016,", ",,,,,,NA,NA,,A
AA 24036,Oreophryne brachypus,46202,alcoholic,"Installed, Aug 2018",Water Source = from A Allison field catalogue,,,,A Allison,14 Oct 2016,", ",,,,,,NA,NA,,A
AA 24037,Oreophryne brachypus,46203,alcoholic,"Installed, Aug 2018",Water Source = from A Allison field catalogue,,,,A Allison,14 Oct 2016,", ",,,,,,NA,NA,,A
AA 24038,Oreophryne brachypus,46204,alcoholic,installed 20 Jul 2021,Water Source = from A Allison field catalogue,,,,A Allison,14 Oct 2016,", ",,,,,,NA,NA,,A
AA 24047,Oreophryne brachypus,46213,alcoholic,"Installed, Aug 2018",Flat Land S 04.63834° E 152.04663° 1048 m = from A Allison field catalogue,Flat Land {Papua New Guinea: East New Britain Prov.: New Britain Island: Flat Land    :    1048 m    :    4.63834ºS [S 04.63834°]  152.04663ºE [E 152.04663°].},,East New Britain Prov.,A Allison,14 Oct 2016,"-4.63834, 152.04663",1048 m,Papua New Guinea,East New Britain Prov.,New Britain Island,Flat Land,-4.63834,152.04663,4.63834ºS 152.04663ºE ,A
AA 24066,Oreophryne brachypus,46232,alcoholic,installed 20 Jul 2021,Arabam Track S 04.62998 E 152.04849 974 m = from A Allison field catalogue,Arabam Track {Papua New Guinea: East New Britain Prov.: New Britain Island: Arabam Track    :    974 m    :    4.62998ºS [S 04.62998]  152.04849ºE [E 152.04849].},,East New Britain Prov.,A Allison,15 Oct 2016,"-4.62998, 152.04849",974 m,Papua New Guinea,East New Britain Prov.,New Britain Island,Arabam Track,-4.62998,152.04849,4.62998ºS 152.04849ºE ,A
AA 24106,Oreophryne brachypus,46272,alcoholic,"Installed, Aug 2018",Arabam track = from A Allison field catalogue,Arabam Track {Papua New Guinea: East New Britain Prov.: New Britain Island: Arabam Track    :    974 m    :    4.62998ºS [S 04.62998]  152.04849ºE [E 152.04849].},,East New Britain Prov.,A Allison,18 Oct 2016,"-4.62998, 152.04849",974 m,Papua New Guinea,East New Britain Prov.,New Britain Island,Arabam Track,-4.62998,152.04849,4.62998ºS 152.04849ºE ,A
AA 24107,Oreophryne brachypus,46273,alcoholic,"Installed, Aug 2018",Arabam track = from A Allison field catalogue,Arabam Track {Papua New Guinea: East New Britain Prov.: New Britain Island: Arabam Track    :    974 m    :    4.62998ºS [S 04.62998]  152.04849ºE [E 152.04849].},,East New Britain Prov.,A Allison,18 Oct 2016,"-4.62998, 152.04849",974 m,Papua New Guinea,East New Britain Prov.,New Britain Island,Arabam Track,-4.62998,152.04849,4.62998ºS 152.04849ºE ,A
AA 24109,Oreophryne brachypus,46275,alcoholic,"Installed, Aug 2018",Arabam track = from A Allison field catalogue,Arabam Track {Papua New Guinea: East New Britain Prov.: New Britain Island: Arabam Track    :    974 m    :    4.62998ºS [S 04.62998]  152.04849ºE [E 152.04849].},,East New Britain Prov.,A Allison,18 Oct 2016,"-4.62998, 152.04849",974 m,Papua New Guinea,East New Britain Prov.,New Britain Island,Arabam Track,-4.62998,152.04849,4.62998ºS 152.04849ºE ,A
AA 24143,Oreophryne brachypus,46309,alcoholic,"Installed, Aug 2018",Rieit Track (Middle) = from A Allison field catalogue,,,,A Allison,22 Oct 2016,", ",,,,,,NA,NA,,A
AA 24296,Oreophryne brachypus,46462,alcoholic,installed 20 Jul 2021,Arabam track = from A Allison field catalogue,,,,A Allison,11 Nov 2016,", ",,,,,,NA,NA,,A
FK 11656,Oreophryne cameroni,22689,alcoholic,"installed, May 2015","West Sepik Prov., Torricelli Mtns., Camp 1 to 700 m = F Kraus field catalog  ;  from F Kraus field catalog Camp 1 = 3.39329° S, 142.52826° E (AGD66), 550 m.","Torricelli Mtns., 2.9 to 3.2 km SSE Mt. Sapau summit, (Camp 1 to 700 m) {Papua New Guinea: West Sepik Prov.: Torricelli Mtns., 2.9 to 3.2 km SSE Mt. Sapau summit, (Camp 1 to 700 m)    :    550-700 m    :    3.3908514ºS  142.5297297ºE.}",,West Sepik Prov.,F Kraus,23 May 2005,"-3.3908514, 142.5297297",550-700 m,Papua New Guinea,West Sepik Prov.,"Torricelli Mtns., 2.9 to 3.2 km SSE Mt. Sapau summit, (Camp 1 to 700 m)    ","Torricelli Mtns., 2.9 to 3.2 km SSE Mt. Sapau summit, (Camp 1 to 700 m)",-3.3908514,142.5297297,3.3908514ºS 142.5297297ºE,A
FK 13704,Oreophryne cameroni,34677,alcoholic,"installed in types cabinet, May 2015","Madang Prov., Keki Lodge, 4° 42.291' S, 145° 24.251' E, 854 m = from F Kraus field notes",Keki Lodge {Papua New Guinea: Madang Prov.: Keki Lodge    :    854 m    :    4.70485ºS [4° 42.591' S (AGD 84)]  145.40418ºE [145° 24.251' E (AGD 84)].},,Madang Prov.,F Kraus,01 Oct 2009,"-4.70485, 145.40418",854 m,Papua New Guinea,Madang Prov.,Keki Lodge    ,Keki Lodge,-4.70485,145.40418,4.70485ºS 145.40418ºE ,A
FK 13920,Oreophryne cameroni,34678,alcoholic,"installed, May 2015","Madang Prov., Keki Lodge, 4° 42.291' S, 145° 24.251' E, 854 m = from F Kraus field notes",Keki Lodge {Papua New Guinea: Madang Prov.: Keki Lodge    :    854 m    :    4.70485ºS [4° 42.591' S (AGD 84)]  145.40418ºE [145° 24.251' E (AGD 84)].},,Madang Prov.,F Kraus,04 Oct 2009,"-4.70485, 145.40418",854 m,Papua New Guinea,Madang Prov.,Keki Lodge    ,Keki Lodge,-4.70485,145.40418,4.70485ºS 145.40418ºE ,A
--,Oreophryne geislerorum,1178,alcoholic,installed,"""Terr. New Guinea, Huon Pen., Pindiu, 1320 m."" = from Herpetology book catalog",Pindiu {Papua New Guinea: Morobe Prov.: Pindiu    :    1320 m.},,Morobe Prov.,J Sedlacek,18 Apr 1963,"1320, m",Pindiu,Papua New Guinea,Morobe Prov.,Pindiu    ,Pindiu,NA,NA,1320 m,A
--,Oreophryne geislerorum,5285,alcoholic,installed,"Terr. New Guinea, Morobe Distr., Mindik, 1200-1600 m. = from Old Herpetology Catalog",Mindik {Papua New Guinea: Morobe Prov.: Mindik    :    1200-1600 m    :    6.45652803ºS  147.43149002ºE.},,Morobe Prov.,N L H Krauss,07 Jul 1967,"-6.45652803, 147.43149002",1200-1600 m,Papua New Guinea,Morobe Prov.,Mindik    ,Mindik,-6.45652803,147.43149,6.45652803ºS 147.43149002ºE,A
--,Oreophryne geislerorum,5286,alcoholic,installed,"Terr. New Guinea, Morobe Distr., Mindik, 1200-1600 m. = from Old Herpetology Catalog",Mindik {Papua New Guinea: Morobe Prov.: Mindik    :    1200-1600 m    :    6.45652803ºS  147.43149002ºE.},,Morobe Prov.,N L H Krauss,07 Jul 1967,"-6.45652803, 147.43149002",1200-1600 m,Papua New Guinea,Morobe Prov.,Mindik    ,Mindik,-6.45652803,147.43149,6.45652803ºS 147.43149002ºE,A
FK 8456,Oreophryne geislerorum,18510,alcoholic,installed,"Camp 1, Mt Shungol, 750 m, 6° 48.975' S, 146° 41.492' E (GPS datum AUS 66) = from F Kraus field catalog","Mt. Shungol, 5.6 km (by air) NW of summit, Camp 1 {Papua New Guinea: Morobe Prov.: Mt. Shungol, 5.6 km (by air) NW of summit, Camp 1    :    750 m    :    6.81625ºS  146.6915333ºE.}",,Morobe Prov.,F Kraus,20 Oct 2003,"-6.81625, 146.6915333",750 m,Papua New Guinea,Morobe Prov.,"Mt. Shungol, 5.6 km (by air) NW of summit, Camp 1    ","Mt. Shungol, 5.6 km (by air) NW of summit, Camp 1",-6.81625,146.6915333,6.81625ºS 146.6915333ºE,A
FK 8686,Oreophryne geislerorum,18511,alcoholic,installed,"Fence 1 area, Mt Shungol, 830 m, 6.81901° S, 146.69623° E  (GPS datum WGS84) = from F Kraus field catalog","Mt. Shungol, 5.1 km (by air) NW of summit, Fence 1 area {Papua New Guinea: Morobe Prov.: Mt. Shungol, 5.1 km (by air) NW of summit, Fence 1 area    :    830 m    :    6.82043ºS  146.69521ºE.}",,Morobe Prov.,F Kraus,25 Oct 2003,"-6.82043, 146.69521",830 m,Papua New Guinea,Morobe Prov.,"Mt. Shungol, 5.1 km (by air) NW of summit, Fence 1 area    ","Mt. Shungol, 5.1 km (by air) NW of summit, Fence 1 area",-6.82043,146.69521,6.82043ºS 146.69521ºE,A
FK 8687,Oreophryne geislerorum,18512,alcoholic,installed,"Camp 1, Mt Shungol, 750 m, 6° 48.975' S, 146° 41.492' E (GPS datum AUS 66) = from F Kraus field catalog","Mt. Shungol, 5.6 km (by air) NW of summit, Camp 1 {Papua New Guinea: Morobe Prov.: Mt. Shungol, 5.6 km (by air) NW of summit, Camp 1    :    750 m    :    6.81625ºS  146.6915333ºE.}",,Morobe Prov.,F Kraus,25 Oct 2003,"-6.81625, 146.6915333",750 m,Papua New Guinea,Morobe Prov.,"Mt. Shungol, 5.6 km (by air) NW of summit, Camp 1    ","Mt. Shungol, 5.6 km (by air) NW of summit, Camp 1",-6.81625,146.6915333,6.81625ºS 146.6915333ºE,A
AA 18985,Oreophryne geislerorum,31473,alcoholic,"installed, Nov 2009","Cliffside Camp, 500m +/- = from A Allison field catalog","Kamiali Wildlife Management Area, 1.3 km N and 6.2 km W of Cape Dinga {Papua New Guinea: Morobe Prov.: Kamiali Wildlife Management Area, 1.3 km N and 6.2 km W of Cape Dinga, Cliffside Camp    :    500 m    :    7.295997634ºS  147.092878935ºE.}",Cliffside Camp,Morobe Prov.,A Allison et al.,01 Sep 2007,"-7.295997634, 147.092878935",500 m,Papua New Guinea,Morobe Prov.,"Kamiali Wildlife Management Area, 1.3 km N and 6.2 km W of Cape Dinga, Cliffside Camp    ","Kamiali Wildlife Management Area, 1.3 km N and 6.2 km W of Cape Dinga",-7.295997634,147.0928789,7.295997634ºS 147.092878935ºE,A
AA 19112,Oreophryne geislerorum,31877,alcoholic,"installed, Jul 2009",Cliffside Stream = from AA electronic catalogue,"Kamiali Wildlife Management Area, 1.3 km N and 6.2 km W of Cape Dinga {Papua New Guinea: Morobe Prov.: Kamiali Wildlife Management Area, 1.3 km N and 6.2 km W of Cape Dinga, Cliffside Camp    :    500 m    :    7.295997634ºS  147.092878935ºE.}",stream along Cliffside Camp,Morobe Prov.,A Allison,24 Jun 2008,"-7.295997634, 147.092878935",500 m,Papua New Guinea,Morobe Prov.,"Kamiali Wildlife Management Area, 1.3 km N and 6.2 km W of Cape Dinga, Cliffside Camp    ","Kamiali Wildlife Management Area, 1.3 km N and 6.2 km W of Cape Dinga",-7.295997634,147.0928789,7.295997634ºS 147.092878935ºE,A
AA 17113,Oreophryne geislerorum,31935,alcoholic,"installed, Jul 2009",Cliffside = A Allison field catalog.,"Kamiali Wildlife Management Area, 1.3 km N and 6.2 km W of Cape Dinga {Papua New Guinea: Morobe Prov.: Kamiali Wildlife Management Area, 1.3 km N and 6.2 km W of Cape Dinga, Cliffside Camp    :    520-530 m    :    7.295997634ºS  147.092878935ºE.}",Cliffside Camp,Morobe Prov.,A Allison,10 Sep 2004,"-7.295997634, 147.092878935",520-530 m,Papua New Guinea,Morobe Prov.,"Kamiali Wildlife Management Area, 1.3 km N and 6.2 km W of Cape Dinga, Cliffside Camp    ","Kamiali Wildlife Management Area, 1.3 km N and 6.2 km W of Cape Dinga",-7.295997634,147.0928789,7.295997634ºS 147.092878935ºE,A
AA 17121,Oreophryne geislerorum,31936,alcoholic,"installed, Jul 2009",Cliffside = A Allison field catalog.,"Kamiali Wildlife Management Area, 1.3 km N and 6.2 km W of Cape Dinga {Papua New Guinea: Morobe Prov.: Kamiali Wildlife Management Area, 1.3 km N and 6.2 km W of Cape Dinga, Cliffside Camp    :    520-530 m    :    7.295997634ºS  147.092878935ºE.}",Cliffside Camp,Morobe Prov.,A Allison,10 Sep 2004,"-7.295997634, 147.092878935",520-530 m,Papua New Guinea,Morobe Prov.,"Kamiali Wildlife Management Area, 1.3 km N and 6.2 km W of Cape Dinga, Cliffside Camp    ","Kamiali Wildlife Management Area, 1.3 km N and 6.2 km W of Cape Dinga",-7.295997634,147.0928789,7.295997634ºS 147.092878935ºE,A
AA 17530,Oreophryne geislerorum,31937,alcoholic,"installed, Jul 2009",Shelter - Pine Tree track = A Allison field catalog.,"Kamiali Wildlife Management Area, 3 km N and 10.2 km W of Cape Dinga {Papua New Guinea: Morobe Prov.: Kamiali Wildlife Management Area, 3 km N and 10.2 km W of Cape Dinga, shelter to Pinetree track    :    900-1185 m    :    7.2780797ºS  147.0570652ºE.}",shelter to Pine Tree Camp,Morobe Prov.,A Allison,02 Apr 2005,"-7.2780797, 147.0570652",900-1185 m,Papua New Guinea,Morobe Prov.,"Kamiali Wildlife Management Area, 3 km N and 10.2 km W of Cape Dinga, shelter to Pinetree track    ","Kamiali Wildlife Management Area, 3 km N and 10.2 km W of Cape Dinga",-7.2780797,147.0570652,7.2780797ºS 147.0570652ºE,A
AA 17572,Oreophryne geislerorum,31938,alcoholic,"installed, Jul 2009","Pine Tree Camp, 900m = A Allison field catalog.","Kamiali Wildlife Management Area, 2.6 km N and 9.3 km W of Cape Dinga {Papua New Guinea: Morobe Prov.: Kamiali Wildlife Management Area, 2.6 km N and 9.3 km W of Cape Dinga, Pine Tree Camp    :    900 m    :    7.28188171ºS  147.065022341ºE.}",Pine Tree Camp,Morobe Prov.,A Allison,05 Apr 2005,"-7.28188171, 147.065022341",900 m,Papua New Guinea,Morobe Prov.,"Kamiali Wildlife Management Area, 2.6 km N and 9.3 km W of Cape Dinga, Pine Tree Camp    ","Kamiali Wildlife Management Area, 2.6 km N and 9.3 km W of Cape Dinga",-7.28188171,147.0650223,7.28188171ºS 147.065022341ºE,A
AA 17578,Oreophryne geislerorum,31939,alcoholic,"installed, Jul 2009","Pine Tree Camp, 900m = A Allison field catalog.","Kamiali Wildlife Management Area, 2.6 km N and 9.3 km W of Cape Dinga {Papua New Guinea: Morobe Prov.: Kamiali Wildlife Management Area, 2.6 km N and 9.3 km W of Cape Dinga, Pine Tree Camp    :    900 m    :    7.28188171ºS  147.065022341ºE.}",Pine Tree Camp,Morobe Prov.,A Allison,05 Apr 2005,"-7.28188171, 147.065022341",900 m,Papua New Guinea,Morobe Prov.,"Kamiali Wildlife Management Area, 2.6 km N and 9.3 km W of Cape Dinga, Pine Tree Camp    ","Kamiali Wildlife Management Area, 2.6 km N and 9.3 km W of Cape Dinga",-7.28188171,147.0650223,7.28188171ºS 147.065022341ºE,A
AA 17592,Oreophryne geislerorum,31940,alcoholic,"installed, Jul 2009",Cliffside = A Allison field catalog.,"Kamiali Wildlife Management Area, 1.3 km N and 6.2 km W of Cape Dinga {Papua New Guinea: Morobe Prov.: Kamiali Wildlife Management Area, 1.3 km N and 6.2 km W of Cape Dinga, Cliffside Camp    :    520-530 m    :    7.295997634ºS  147.092878935ºE.}",Cliffside Camp,Morobe Prov.,A Allison,05 Apr 2005,"-7.295997634, 147.092878935",520-530 m,Papua New Guinea,Morobe Prov.,"Kamiali Wildlife Management Area, 1.3 km N and 6.2 km W of Cape Dinga, Cliffside Camp    ","Kamiali Wildlife Management Area, 1.3 km N and 6.2 km W of Cape Dinga",-7.295997634,147.0928789,7.295997634ºS 147.092878935ºE,A
FK 14143,Oreophryne geislerorum,37291,alcoholic + alc gut,"installed, Mar 2016","Camp 1 (= Papua New Guinea, Oro [=Northern] Prov., vic. Mt. Victory, 9.22479° S, 149.10623° E, 530 m) = from F Kraus field catalogue",,,,F Kraus,20 Sep 2010,", ",,,,,,-9.22479,149.10623,,A
FK 14177,Oreophryne geislerorum,37292,alcoholic + alc gut,"installed, Mar 2016","Camp 1 (= Papua New Guinea, Oro [=Northern] Prov., vic. Mt. Victory, 9.22479° S, 149.10623° E, 530 m) = from F Kraus field catalogue",,,,F Kraus,21 Sep 2010,", ",,,,,,-9.22479,149.10623,,A
FK 14232,Oreophryne geislerorum,37293,alcoholic + alc gut,"installed, Mar 2016","Camp 1 (= Papua New Guinea, Oro [=Northern] Prov., vic. Mt. Victory, 9.22479° S, 149.10623° E, 530 m) = from F Kraus field catalogue",,,,F Kraus,22 Sep 2010,", ",,,,,,-9.22479,149.10623,,A
FK 14233,Oreophryne geislerorum,37294,alcoholic + alc gut,"installed, Mar 2016","Camp 1 (= Papua New Guinea, Oro [=Northern] Prov., vic. Mt. Victory, 9.22479° S, 149.10623° E, 530 m) = from F Kraus field catalogue",,,,F Kraus,22 Sep 2010,", ",,,,,,-9.22479,149.10623,,A
FK 14234,Oreophryne geislerorum,37295,alcoholic + alc gut,"installed, Mar 2016","Camp 1 (= Papua New Guinea, Oro [=Northern] Prov., vic. Mt. Victory, 9.22479° S, 149.10623° E, 530 m) = from F Kraus field catalogue",,,,F Kraus,22 Sep 2010,", ",,,,,,-9.22479,149.10623,,A
FK 14235,Oreophryne geislerorum,37296,alcoholic + alc gut,"installed, Mar 2016","Camp 1 (= Papua New Guinea, Oro [=Northern] Prov., vic. Mt. Victory, 9.22479° S, 149.10623° E, 530 m) = from F Kraus field catalogue",,,,F Kraus,22 Sep 2010,", ",,,,,,-9.22479,149.10623,,A
FK 14264,Oreophryne geislerorum,37297,alcoholic + alc gut,"installed, Mar 2016","Camp 1 (= Papua New Guinea, Oro [=Northern] Prov., vic. Mt. Victory, 9.22479° S, 149.10623° E, 530 m) = from F Kraus field catalogue",,,,F Kraus,22 Sep 2010,", ",,,,,,-9.22479,149.10623,,A
FK 14341,Oreophryne geislerorum,37298,alcoholic + alc gut,"installed, Mar 2016","Camp 1 (= Papua New Guinea, Oro [=Northern] Prov., vic. Mt. Victory, 9.22479° S, 149.10623° E, 530 m) = from F Kraus field catalogue",,,,F Kraus,24 Sep 2010,", ",,,,,,-9.22479,149.10623,,A
FK 14342,Oreophryne geislerorum,37299,alcoholic + alc gut,"installed, Mar 2016","Camp 1 (= Papua New Guinea, Oro [=Northern] Prov., vic. Mt. Victory, 9.22479° S, 149.10623° E, 530 m) = from F Kraus field catalogue",,,,F Kraus,24 Sep 2010,", ",,,,,,-9.22479,149.10623,,A
FK 14343,Oreophryne geislerorum,37300,alcoholic + alc gut,"installed, Mar 2016","Camp 1 (= Papua New Guinea, Oro [=Northern] Prov., vic. Mt. Victory, 9.22479° S, 149.10623° E, 530 m) = from F Kraus field catalogue",,,,F Kraus,24 Sep 2010,", ",,,,,,-9.22479,149.10623,,A
FK 14344,Oreophryne geislerorum,37301,alcoholic + alc gut,"installed, Mar 2016","Camp 1 (= Papua New Guinea, Oro [=Northern] Prov., vic. Mt. Victory, 9.22479° S, 149.10623° E, 530 m) = from F Kraus field catalogue",,,,F Kraus,24 Sep 2010,", ",,,,,,-9.22479,149.10623,,A
FK 14345,Oreophryne geislerorum,37302,alcoholic + alc gut,"installed, Mar 2016","Camp 1 (= Papua New Guinea, Oro [=Northern] Prov., vic. Mt. Victory, 9.22479° S, 149.10623° E, 530 m) = from F Kraus field catalogue",,,,F Kraus,24 Sep 2010,", ",,,,,,-9.22479,149.10623,,A
FK 14368,Oreophryne geislerorum,37303,alcoholic + alc gut,"installed, Mar 2016","Camp 1 (= Papua New Guinea, Oro [=Northern] Prov., vic. Mt. Victory, 9.22479° S, 149.10623° E, 530 m) = from F Kraus field catalogue",,,,F Kraus,24 Sep 2010,", ",,,,,,-9.22479,149.10623,,A
FK 14584,Oreophryne geislerorum,37304,alcoholic + alc gut,"installed, Mar 2016","Camp 2 (= Papua New Guinea, Oro [=Northern] Prov., vic. Mt. Victory, 9.23884° S, 149.13559° E, 400 m) = from F Kraus field catalogue",,,,F Kraus,30 Sep 2010,", ",,,,,,-9.22479,149.10623,,A
FK 14585,Oreophryne geislerorum,37305,alcoholic + alc gut,"installed, Mar 2016","Camp 2 (= Papua New Guinea, Oro [=Northern] Prov., vic. Mt. Victory, 9.23884° S, 149.13559° E, 400 m) = from F Kraus field catalogue",,,,F Kraus,30 Sep 2010,", ",,,,,,-9.22479,149.10623,,A
FK 14586,Oreophryne geislerorum,37306,alcoholic + alc gut,"installed, Mar 2016","Camp 2 (= Papua New Guinea, Oro [=Northern] Prov., vic. Mt. Victory, 9.23884° S, 149.13559° E, 400 m) = from F Kraus field catalogue",,,,F Kraus,30 Sep 2010,", ",,,,,,-9.22479,149.10623,,A
FK 14587,Oreophryne geislerorum,37307,alcoholic + alc gut,"installed, Mar 2016","Camp 2 (= Papua New Guinea, Oro [=Northern] Prov., vic. Mt. Victory, 9.23884° S, 149.13559° E, 400 m) = from F Kraus field catalogue",,,,F Kraus,30 Sep 2010,", ",,,,,,-9.22479,149.10623,,A
FK 14588,Oreophryne geislerorum,37308,alcoholic + alc gut,"installed, Mar 2016","Camp 2 (= Papua New Guinea, Oro [=Northern] Prov., vic. Mt. Victory, 9.23884° S, 149.13559° E, 400 m) = from F Kraus field catalogue",,,,F Kraus,30 Sep 2010,", ",,,,,,-9.22479,149.10623,,A
FK 14686,Oreophryne geislerorum,37309,alcoholic + alc gut,"installed, Mar 2016","Top Garden (= Papua New Guinea, Oro [=Northern] Prov., vic. Mt. Victory,  9.24245° S, 149.13500° E, 320 m) = from F Kraus field catalogue","Mt. Victory, vic. {Papua New Guinea: Northern [= Oro] Prov.: Mt. Victory, vic., Top Garden    :    320 m    :    9.24245ºS [9.24245° S (AGD 84)]  149.135ºE [149.13500° E (AGD 84)].}",,Northern [= Oro] Prov.,F Kraus,03 Oct 2010,"-9.24245, 149.135",320 m,Papua New Guinea,Northern [= Oro] Prov.,"Mt. Victory, vic., Top Garden    ","Mt. Victory, vic.",-9.24245,149.135,9.24245ºS 149.135ºE ,A
FK 14687,Oreophryne geislerorum,37310,alcoholic + alc gut,"installed, Mar 2016","Top Garden (= Papua New Guinea, Oro [=Northern] Prov., vic. Mt. Victory,  9.24245° S, 149.13500° E, 320 m) = from F Kraus field catalogue","Mt. Victory, vic. {Papua New Guinea: Northern [= Oro] Prov.: Mt. Victory, vic., Top Garden    :    320 m    :    9.24245ºS [9.24245° S (AGD 84)]  149.135ºE [149.13500° E (AGD 84)].}",,Northern [= Oro] Prov.,F Kraus,03 Oct 2010,"-9.24245, 149.135",320 m,Papua New Guinea,Northern [= Oro] Prov.,"Mt. Victory, vic., Top Garden    ","Mt. Victory, vic.",-9.24245,149.135,9.24245ºS 149.135ºE ,A
FK 14688,Oreophryne geislerorum,37311,alcoholic + alc gut,"installed, Mar 2016","Top Garden (= Papua New Guinea, Oro [=Northern] Prov., vic. Mt. Victory,  9.24245° S, 149.13500° E, 320 m) = from F Kraus field catalogue","Mt. Victory, vic. {Papua New Guinea: Northern [= Oro] Prov.: Mt. Victory, vic., Top Garden    :    320 m    :    9.24245ºS [9.24245° S (AGD 84)]  149.135ºE [149.13500° E (AGD 84)].}",,Northern [= Oro] Prov.,F Kraus,03 Oct 2010,"-9.24245, 149.135",320 m,Papua New Guinea,Northern [= Oro] Prov.,"Mt. Victory, vic., Top Garden    ","Mt. Victory, vic.",-9.24245,149.135,9.24245ºS 149.135ºE ,A
FK 14689,Oreophryne geislerorum,37312,alcoholic + alc gut,"installed, Mar 2016","Top Garden (= Papua New Guinea, Oro [=Northern] Prov., vic. Mt. Victory,  9.24245° S, 149.13500° E, 320 m) = from F Kraus field catalogue","Mt. Victory, vic. {Papua New Guinea: Northern [= Oro] Prov.: Mt. Victory, vic., Top Garden    :    320 m    :    9.24245ºS [9.24245° S (AGD 84)]  149.135ºE [149.13500° E (AGD 84)].}",,Northern [= Oro] Prov.,F Kraus,03 Oct 2010,"-9.24245, 149.135",320 m,Papua New Guinea,Northern [= Oro] Prov.,"Mt. Victory, vic., Top Garden    ","Mt. Victory, vic.",-9.24245,149.135,9.24245ºS 149.135ºE ,A
FK 14690,Oreophryne geislerorum,37313,alcoholic + alc gut,"installed, Mar 2016","Top Garden (= Papua New Guinea, Oro [=Northern] Prov., vic. Mt. Victory,  9.24245° S, 149.13500° E, 320 m) = from F Kraus field catalogue","Mt. Victory, vic. {Papua New Guinea: Northern [= Oro] Prov.: Mt. Victory, vic., Top Garden    :    320 m    :    9.24245ºS [9.24245° S (AGD 84)]  149.135ºE [149.13500° E (AGD 84)].}",,Northern [= Oro] Prov.,F Kraus,03 Oct 2010,"-9.24245, 149.135",320 m,Papua New Guinea,Northern [= Oro] Prov.,"Mt. Victory, vic., Top Garden    ","Mt. Victory, vic.",-9.24245,149.135,9.24245ºS 149.135ºE ,A
FK 14691,Oreophryne geislerorum,37314,alcoholic + alc gut,"installed, Mar 2016","Top Garden (= Papua New Guinea, Oro [=Northern] Prov., vic. Mt. Victory,  9.24245° S, 149.13500° E, 320 m) = from F Kraus field catalogue","Mt. Victory, vic. {Papua New Guinea: Northern [= Oro] Prov.: Mt. Victory, vic., Top Garden    :    320 m    :    9.24245ºS [9.24245° S (AGD 84)]  149.135ºE [149.13500° E (AGD 84)].}",,Northern [= Oro] Prov.,F Kraus,03 Oct 2010,"-9.24245, 149.135",320 m,Papua New Guinea,Northern [= Oro] Prov.,"Mt. Victory, vic., Top Garden    ","Mt. Victory, vic.",-9.24245,149.135,9.24245ºS 149.135ºE ,A
FK 14714,Oreophryne geislerorum,37315,alcoholic + alc gut,"installed, Mar 2016","Camp 2 (= Papua New Guinea, Oro [=Northern] Prov., vic. Mt. Victory, 9.23884° S, 149.13559° E, 400 m) = from F Kraus field catalogue",,,,F Kraus,04 Oct 2010,", ",,,,,,-9.23884,149.13559,,A
FK 14715,Oreophryne geislerorum,37316,alcoholic + alc gut,"installed, Mar 2016","Camp 2 (= Papua New Guinea, Oro [=Northern] Prov., vic. Mt. Victory, 9.23884° S, 149.13559° E, 400 m) = from F Kraus field catalogue",,,,F Kraus,04 Oct 2010,", ",,,,,,-9.23884,149.13559,,A
FK 14716,Oreophryne geislerorum,37317,alcoholic + alc gut,"installed, Mar 2016","Camp 2 (= Papua New Guinea, Oro [=Northern] Prov., vic. Mt. Victory, 9.23884° S, 149.13559° E, 400 m) = from F Kraus field catalogue",,,,F Kraus,04 Oct 2010,", ",,,,,,-9.23884,149.13559,,A
FK 14717,Oreophryne geislerorum,37318,alcoholic + alc gut,"installed, Mar 2016","Camp 2 (= Papua New Guinea, Oro [=Northern] Prov., vic. Mt. Victory, 9.23884° S, 149.13559° E, 400 m) = from F Kraus field catalogue",,,,F Kraus,04 Oct 2010,", ",,,,,,-9.23884,149.13559,,A
FK 14718,Oreophryne geislerorum,37319,alcoholic + alc gut,"installed, Mar 2016","Camp 2 (= Papua New Guinea, Oro [=Northern] Prov., vic. Mt. Victory, 9.23884° S, 149.13559° E, 400 m) = from F Kraus field catalogue",,,,F Kraus,04 Oct 2010,", ",,,,,,-9.23884,149.13559,,A
FK 14719,Oreophryne geislerorum,37320,alcoholic + alc gut,"installed, Mar 2016","Camp 2 (= Papua New Guinea, Oro [=Northern] Prov., vic. Mt. Victory, 9.23884° S, 149.13559° E, 400 m) = from F Kraus field catalogue",,,,F Kraus,04 Oct 2010,", ",,,,,,-9.23884,149.13559,,A
AA 19620,Oreophryne geislerorum,38714,alcoholic,"installed, Mar 2016","Papua New Guinea: Northern Province, Itokama, 780 m = from A Allison field catalogue *;* -09.19988°, 148.26456° = from note in accn file per A Allison, Mar 2010.",,,,A Allison,18 Sep 2009,", ",,,,,,-9.23884,149.13559,,A
AA 19621,Oreophryne geislerorum,38715,alcoholic,"installed, Mar 2016","Papua New Guinea: Northern Province, Itokama, 780 m = from A Allison field catalogue *;* -09.19988°, 148.26456° = from note in accn file per A Allison, Mar 2010.",,,,A Allison,18 Sep 2009,", ",,,,,,-9.19988,148.26456,,A
AA 19622,Oreophryne geislerorum,38716,alcoholic,"installed, Mar 2016","Papua New Guinea: Northern Province, Itokama, 780 m = from A Allison field catalogue *;* -09.19988°, 148.26456° = from note in accn file per A Allison, Mar 2010.",,,,A Allison,18 Sep 2009,", ",,,,,,-9.19988,148.26456,,A
AA 19623,Oreophryne geislerorum,38717,alcoholic,"installed, Mar 2016","Papua New Guinea: Northern Province, Itokama, 780 m = from A Allison field catalogue *;* -09.19988°, 148.26456° = from note in accn file per A Allison, Mar 2010.",,,,A Allison,18 Sep 2009,", ",,,,,,-9.19988,148.26456,,A
AA 19624,Oreophryne geislerorum,38718,alcoholic,"installed, Mar 2016","Papua New Guinea: Northern Province, Itokama, 780 m = from A Allison field catalogue *;* -09.19988°, 148.26456° = from note in accn file per A Allison, Mar 2010.",,,,A Allison,18 Sep 2009,", ",,,,,,-9.19988,148.26456,,A
AA 19625,Oreophryne geislerorum,38719,alcoholic,"installed, Mar 2016","Papua New Guinea: Northern Province, Itokama, 780 m = from A Allison field catalogue *;* -09.19988°, 148.26456° = from note in accn file per A Allison, Mar 2010.",,,,A Allison,18 Sep 2009,", ",,,,,,-9.19988,148.26456,,A
AA 19626,Oreophryne geislerorum,38720,alcoholic,"installed, Mar 2016","Papua New Guinea: Northern Province, Itokama, 780 m = from A Allison field catalogue *;* -09.19988°, 148.26456° = from note in accn file per A Allison, Mar 2010.",,,,A Allison,18 Sep 2009,", ",,,,,,-9.19988,148.26456,,A
AA 19627,Oreophryne geislerorum,38721,alcoholic,"installed, Mar 2016","Papua New Guinea: Northern Province, Itokama, 780 m = from A Allison field catalogue *;* -09.19988°, 148.26456° = from note in accn file per A Allison, Mar 2010.",,,,A Allison,18 Sep 2009,", ",,,,,,-9.19988,148.26456,,A
AA 19628,Oreophryne geislerorum,38722,alcoholic,"installed, Mar 2016","Papua New Guinea: Northern Province, Itokama, 780 m = from A Allison field catalogue *;* -09.19988°, 148.26456° = from note in accn file per A Allison, Mar 2010.",,,,A Allison,18 Sep 2009,", ",,,,,,-9.19988,148.26456,,A
AA 19629,Oreophryne geislerorum,38723,alcoholic,"installed, Mar 2016","Papua New Guinea: Northern Province, Itokama, 780 m = from A Allison field catalogue *;* -09.19988°, 148.26456° = from note in accn file per A Allison, Mar 2010.",,,,A Allison,18 Sep 2009,", ",,,,,,-9.19988,148.26456,,A
AA 19630,Oreophryne geislerorum,38724,alcoholic,"installed, Mar 2016","Papua New Guinea: Northern Province, Itokama, 780 m = from A Allison field catalogue *;* -09.19988°, 148.26456° = from note in accn file per A Allison, Mar 2010.",,,,A Allison,18 Sep 2009,", ",,,,,,-9.19988,148.26456,,A
AA 19631,Oreophryne geislerorum,38725,alcoholic,"installed, Mar 2016","Papua New Guinea: Northern Province, Itokama, 780 m = from A Allison field catalogue *;* -09.19988°, 148.26456° = from note in accn file per A Allison, Mar 2010.",,,,A Allison,18 Sep 2009,", ",,,,,,-9.19988,148.26456,,A
AA 19632,Oreophryne geislerorum,38726,alcoholic,"tag tied, ready to install, Dec 2011","Papua New Guinea: Northern Province, Itokama, 780 m = from A Allison field catalogue *;* -09.19988°, 148.26456° = from note in accn file per A Allison, Mar 2010.",,,,A Allison,18 Sep 2009,", ",,,,,,-9.19988,148.26456,,A
AA 19816,Oreophryne geislerorum,38727,alcoholic,"tag tied, ready to install, Dec 2011","Papua New Guinea: Northern Province, Itokama, 780 m = from A Allison field catalogue *;* -09.19988°, 148.26456° = from note in accn file per A Allison, Mar 2010.",,,,A Allison,21 Sep 2009,", ",,,,,,-9.19988,148.26456,,A
AA 19760,Oreophryne geislerorum,38728,alcoholic,"tag tied, ready to install, Dec 2011","Papua New Guinea: Northern Province, Jarefa Camp, near Itokama, 820 m = from A Allison field catalogue *;* -09.2052°, 148.23746° = from note in accn file per A Allison, Mar 2010.","Itokama [Itogama], near {Papua New Guinea: Northern [= Oro] Prov.: Itokama [Itogama], near, Jarefa Camp    :    820 m    :    9.2052ºS [-9.2052°]  148.23746ºE [148.23746°].}",,Northern [= Oro] Prov.,A Allison,19 Sep 2009,"-9.2052, 148.23746",820 m,Papua New Guinea,Northern [= Oro] Prov.,"Itokama [Itogama], near, Jarefa Camp    ","Itokama [Itogama], near",-9.2052,148.23746,9.2052ºS 148.23746ºE ,A
AA 19810,Oreophryne geislerorum,38729,alcoholic,"tag tied, ready to install, Dec 2011","Papua New Guinea: Northern Province, Itokama, 780 m = from A Allison field catalogue *;* -09.19988°, 148.26456° = from note in accn file per A Allison, Mar 2010.",,,,A Allison,21 Sep 2009,", ",,,,,,-9.19988,148.26456,,A
AA 19811,Oreophryne geislerorum,38730,alcoholic,"tag tied, ready to install, Dec 2011","Papua New Guinea: Northern Province, Itokama, 780 m = from A Allison field catalogue *;* -09.19988°, 148.26456° = from note in accn file per A Allison, Mar 2010.",,,,A Allison,21 Sep 2009,", ",,,,,,-9.19988,148.26456,,A
AA 19812,Oreophryne geislerorum,38731,alcoholic,"tag tied, ready to install, Dec 2011","Papua New Guinea: Northern Province, Itokama, 780 m = from A Allison field catalogue *;* -09.19988°, 148.26456° = from note in accn file per A Allison, Mar 2010.",,,,A Allison,21 Sep 2009,", ",,,,,,-9.19988,148.26456,,A
WV 67-209,Oreophryne geislerorum,38883,alcoholic,"installed, April 2016","Papua New Guinea: Morobe Province, Waria Valley = per A Allison, who rec'd spec. from collector/K. Imada, Apr 2010 *;* TEMPORARILY PLOTTED FROM GOOGLE EARTH: ca. -7° 48' 29.91' S, 147° 23' 52.63"" (see map in accn file; A Allison to confirm collection site",,,,J. Dawson,25 Feb 2009,", ",,,,,,-7.482991,147.235263,,A
FK 15952,Oreophryne geislerorum,40148,alcoholic,"installed, Mar 2016","Mt. Trafalgar, Camp 1, 9.22380°S, 149.15610°E, 187 m = from F Kraus field catalog",,,,F Kraus,01 Nov 2011,", ",,,,,,-9.2238,149.1561,,A
FK 16313,Oreophryne geislerorum,40149,alcoholic,"installed, Mar 2016","Mt. Trafalgar, Camp 1, 9.22380°S, 149.15610°E, 187 m = from F Kraus field catalog",,,,F Kraus,14 Nov 2011,", ",,,,,,-9.2238,149.1561,,A
AA 22972,Oreophryne geislerorum,44710,alcoholic,"installed, April 2016","[Papua New Guinea: Central Province,] Isurava: -8.968114°, 147.732927°, 1358 m = from A Allison field catalogue",,,,A Allison,23 Mar 2014,", ",,,,,,-8.968114,147.732927,,A
AA 23001,Oreophryne geislerorum,44711,alcoholic,"installed, April 2016","[Papua New Guinea: Central Province,] Isurava: -8.968114°, 147.732927°, 1358 m = from A Allison field catalogue",,,,A Allison,24 Mar 2014,", ",,,,,,-8.968114,147.732927,,A
AA 23002,Oreophryne geislerorum,44712,alcoholic,"installed, April 2016","[Papua New Guinea: Central Province,] Isurava: -8.968114°, 147.732927°, 1358 m = from A Allison field catalogue",,,,A Allison,24 Mar 2014,", ",,,,,,-8.968114,147.732927,,A
AA 23003,Oreophryne geislerorum,44713,alcoholic,"installed, April 2016","[Papua New Guinea: Central Province,] Isurava: -8.968114°, 147.732927°, 1358 m = from A Allison field catalogue",,,,A Allison,24 Mar 2014,", ",,,,,,-8.968114,147.732927,,A
AA 23004,Oreophryne geislerorum,44714,alcoholic,"installed, April 2016","[Papua New Guinea: Central Province,] Isurava: -8.968114°, 147.732927°, 1358 m = from A Allison field catalogue",,,,A Allison,24 Mar 2014,", ",,,,,,-8.968114,147.732927,,A
AA 23006,Oreophryne geislerorum,44715,alcoholic,"installed, April 2016","[Papua New Guinea: Central Province,] Isurava: -8.968114°, 147.732927°, 1358 m = from A Allison field catalogue",,,,A Allison,24 Mar 2014,", ",,,,,,-8.968114,147.732927,,A
AA 23005,Oreophryne geislerorum,44716,alcoholic,"installed, April 2016","[Papua New Guinea: Central Province,] Isurava: -8.968114°, 147.732927°, 1358 m = from A Allison field catalogue",,,,A Allison,24 Mar 2014,", ",,,,,,-8.968114,147.732927,,A
FK 5980,Oreophryne inornata,16217,alcoholic + alc gut,"installed, Dec 2003","Fergusson Is., Mt. Kilkerran (Oyatabu), Bamboo Grove - 9° 27.627' S, 150° 47.076' E, 1330 m. = F Kraus field catalogue; see master list of localities in the Accession file","Mt. Kilkerran (=Oya Tabu), E slope, ""Bamboo Grove"" {Papua New Guinea: Milne Bay Prov.: Fergusson Island: Mt. Kilkerran (=Oya Tabu), E slope, ""Bamboo Grove""    :    1330 m    :    9.46045ºS  150.7846ºE.}",,Milne Bay Prov.,"F Kraus, F Malesa and D Salepuna",22 Aug 2002,"-9.46045, 150.7846",1330 m,Papua New Guinea,Milne Bay Prov.,Fergusson Island,"Mt. Kilkerran (=Oya Tabu), E slope, Bamboo Grove",-9.46045,150.7846,9.46045ºS 150.7846ºE,A
FK 5981,Oreophryne inornata,16218,alcoholic + alc gut,"installed, Dec 2003","Fergusson Is., Mt. Kilkerran (Oyatabu), Bamboo Grove - 9° 27.627' S, 150° 47.076' E, 1330 m. = F Kraus field catalogue; see master list of localities in the Accession file","Mt. Kilkerran (=Oya Tabu), E slope, ""Bamboo Grove"" {Papua New Guinea: Milne Bay Prov.: Fergusson Island: Mt. Kilkerran (=Oya Tabu), E slope, ""Bamboo Grove""    :    1330 m    :    9.46045ºS  150.7846ºE.}",,Milne Bay Prov.,"F Kraus, F Malesa and D Salepuna",22 Aug 2002,"-9.46045, 150.7846",1330 m,Papua New Guinea,Milne Bay Prov.,Fergusson Island,"Mt. Kilkerran (=Oya Tabu), E slope, Bamboo Grove",-9.46045,150.7846,9.46045ºS 150.7846ºE,A
FK 5999,Oreophryne inornata,16219,alcoholic + 24 eggs + alc gut,installed,"Fergusson Is., Mt. Kilkerran (Oyatabu), Bamboo Grove - 9° 27.627' S, 150° 47.076' E, 1330 m. = F Kraus field catalogue; see master list of localities in the Accession file","Mt. Kilkerran (=Oya Tabu), E slope, ""Bamboo Grove"" {Papua New Guinea: Milne Bay Prov.: Fergusson Island: Mt. Kilkerran (=Oya Tabu), E slope, ""Bamboo Grove""    :    1330 m    :    9.46045ºS  150.7846ºE.}",,Milne Bay Prov.,"F Kraus, F Malesa and D Salepuna",23 Aug 2002,"-9.46045, 150.7846",1330 m,Papua New Guinea,Milne Bay Prov.,Fergusson Island,"Mt. Kilkerran (=Oya Tabu), E slope, Bamboo Grove",-9.46045,150.7846,9.46045ºS 150.7846ºE,A
FK 6000,Oreophryne inornata,16220,alcoholic + 6 eggs + 1 egg embedded in paraffin + alc gut + 20 slides of sectioned egg,"installed, egg in paraffin stored with slide collection","Fergusson Is., Mt. Kilkerran (Oyatabu), Bamboo Grove - 9° 27.627' S, 150° 47.076' E, 1330 m. = F Kraus field catalogue; see master list of localities in the Accession file","Mt. Kilkerran (=Oya Tabu), E slope, ""Bamboo Grove"" {Papua New Guinea: Milne Bay Prov.: Fergusson Island: Mt. Kilkerran (=Oya Tabu), E slope, ""Bamboo Grove""    :    1330 m    :    9.46045ºS  150.7846ºE.}",,Milne Bay Prov.,"F Kraus, F Malesa and D Salepuna",23 Aug 2002,"-9.46045, 150.7846",1330 m,Papua New Guinea,Milne Bay Prov.,Fergusson Island,"Mt. Kilkerran (=Oya Tabu), E slope, Bamboo Grove",-9.46045,150.7846,9.46045ºS 150.7846ºE,A
FK 6001,Oreophryne inornata,16221,alcoholic + 10 eggs* + 1 egg cleared and stained + 1 egg embedded in paraffin + 24 slides of sectioned egg + alc gut,"installed, egg in paraffin stored with slide collection","Fergusson Is., Mt. Kilkerran (Oyatabu), Bamboo Grove - 9° 27.627' S, 150° 47.076' E, 1330 m. = F Kraus field catalogue; see master list of localities in the Accession file","Mt. Kilkerran (=Oya Tabu), E slope, ""Bamboo Grove"" {Papua New Guinea: Milne Bay Prov.: Fergusson Island: Mt. Kilkerran (=Oya Tabu), E slope, ""Bamboo Grove""    :    1330 m    :    9.46045ºS  150.7846ºE.}",,Milne Bay Prov.,"F Kraus, F Malesa and D Salepuna",23 Aug 2002,"-9.46045, 150.7846",1330 m,Papua New Guinea,Milne Bay Prov.,Fergusson Island,"Mt. Kilkerran (=Oya Tabu), E slope, Bamboo Grove",-9.46045,150.7846,9.46045ºS 150.7846ºE,A
FK 6002,Oreophryne inornata,16222,alcoholic + alc gut,"installed, Dec 2003","Fergusson Is., Mt. Kilkerran (Oyatabu), Bamboo Grove - 9° 27.627' S, 150° 47.076' E, 1330 m. = F Kraus field catalogue; see master list of localities in the Accession file","Mt. Kilkerran (=Oya Tabu), E slope, ""Bamboo Grove"" {Papua New Guinea: Milne Bay Prov.: Fergusson Island: Mt. Kilkerran (=Oya Tabu), E slope, ""Bamboo Grove""    :    1330 m    :    9.46045ºS  150.7846ºE.}",,Milne Bay Prov.,"F Kraus, F Malesa and D Salepuna",23 Aug 2002,"-9.46045, 150.7846",1330 m,Papua New Guinea,Milne Bay Prov.,Fergusson Island,"Mt. Kilkerran (=Oya Tabu), E slope, Bamboo Grove",-9.46045,150.7846,9.46045ºS 150.7846ºE,A
FK 6003,Oreophryne inornata,16223,alcoholic + alc gut,"installed, Dec 2003","Fergusson Is., Mt. Kilkerran (Oyatabu), Bamboo Grove - 9° 27.627' S, 150° 47.076' E, 1330 m. = F Kraus field catalogue; see master list of localities in the Accession file","Mt. Kilkerran (=Oya Tabu), E slope, ""Bamboo Grove"" {Papua New Guinea: Milne Bay Prov.: Fergusson Island: Mt. Kilkerran (=Oya Tabu), E slope, ""Bamboo Grove""    :    1330 m    :    9.46045ºS  150.7846ºE.}",,Milne Bay Prov.,"F Kraus, F Malesa and D Salepuna",23 Aug 2002,"-9.46045, 150.7846",1330 m,Papua New Guinea,Milne Bay Prov.,Fergusson Island,"Mt. Kilkerran (=Oya Tabu), E slope, Bamboo Grove",-9.46045,150.7846,9.46045ºS 150.7846ºE,A
FK 6004,Oreophryne inornata,16224,alcoholic + alc gut,"installed, Dec 2003","Fergusson Is., Mt. Kilkerran (Oyatabu), Bamboo Grove - 9° 27.627' S, 150° 47.076' E, 1330 m. = F Kraus field catalogue; see master list of localities in the Accession file","Mt. Kilkerran (=Oya Tabu), E slope, ""Bamboo Grove"" {Papua New Guinea: Milne Bay Prov.: Fergusson Island: Mt. Kilkerran (=Oya Tabu), E slope, ""Bamboo Grove""    :    1330 m    :    9.46045ºS  150.7846ºE.}",,Milne Bay Prov.,"F Kraus, F Malesa and D Salepuna",23 Aug 2002,"-9.46045, 150.7846",1330 m,Papua New Guinea,Milne Bay Prov.,Fergusson Island,"Mt. Kilkerran (=Oya Tabu), E slope, Bamboo Grove",-9.46045,150.7846,9.46045ºS 150.7846ºE,A
FK 6005,Oreophryne inornata,16225,alcoholic + alc gut,"installed, Dec 2003","Fergusson Is., Mt. Kilkerran (Oyatabu), Bamboo Grove - 9° 27.627' S, 150° 47.076' E, 1330 m. = F Kraus field catalogue; see master list of localities in the Accession file","Mt. Kilkerran (=Oya Tabu), E slope, ""Bamboo Grove"" {Papua New Guinea: Milne Bay Prov.: Fergusson Island: Mt. Kilkerran (=Oya Tabu), E slope, ""Bamboo Grove""    :    1330 m    :    9.46045ºS  150.7846ºE.}",,Milne Bay Prov.,"F Kraus, F Malesa and D Salepuna",23 Aug 2002,"-9.46045, 150.7846",1330 m,Papua New Guinea,Milne Bay Prov.,Fergusson Island,"Mt. Kilkerran (=Oya Tabu), E slope, Bamboo Grove",-9.46045,150.7846,9.46045ºS 150.7846ºE,A
FK 6006,Oreophryne inornata,16226,alcoholic + alc gut,"installed, Dec 2003","Fergusson Is., Mt. Kilkerran (Oyatabu), Bamboo Grove - 9° 27.627' S, 150° 47.076' E, 1330 m. = F Kraus field catalogue; see master list of localities in the Accession file","Mt. Kilkerran (=Oya Tabu), E slope, ""Bamboo Grove"" {Papua New Guinea: Milne Bay Prov.: Fergusson Island: Mt. Kilkerran (=Oya Tabu), E slope, ""Bamboo Grove""    :    1330 m    :    9.46045ºS  150.7846ºE.}",,Milne Bay Prov.,"F Kraus, F Malesa and D Salepuna",23 Aug 2002,"-9.46045, 150.7846",1330 m,Papua New Guinea,Milne Bay Prov.,Fergusson Island,"Mt. Kilkerran (=Oya Tabu), E slope, Bamboo Grove",-9.46045,150.7846,9.46045ºS 150.7846ºE,A
FK 6007,Oreophryne inornata,16227,alcoholic + alc gut,"installed, Dec 2003","Fergusson Is., Mt. Kilkerran (Oyatabu), Bamboo Grove - 9° 27.627' S, 150° 47.076' E, 1330 m. = F Kraus field catalogue; see master list of localities in the Accession file","Mt. Kilkerran (=Oya Tabu), E slope, ""Bamboo Grove"" {Papua New Guinea: Milne Bay Prov.: Fergusson Island: Mt. Kilkerran (=Oya Tabu), E slope, ""Bamboo Grove""    :    1330 m    :    9.46045ºS  150.7846ºE.}",,Milne Bay Prov.,"F Kraus, F Malesa and D Salepuna",23 Aug 2002,"-9.46045, 150.7846",1330 m,Papua New Guinea,Milne Bay Prov.,Fergusson Island,"Mt. Kilkerran (=Oya Tabu), E slope, Bamboo Grove",-9.46045,150.7846,9.46045ºS 150.7846ºE,A
FK 6008,Oreophryne inornata,16228,alcoholic + alc gut,"installed, Dec 2003","Fergusson Is., Mt. Kilkerran (Oyatabu), Bamboo Grove - 9° 27.627' S, 150° 47.076' E, 1330 m. = F Kraus field catalogue; see master list of localities in the Accession file","Mt. Kilkerran (=Oya Tabu), E slope, ""Bamboo Grove"" {Papua New Guinea: Milne Bay Prov.: Fergusson Island: Mt. Kilkerran (=Oya Tabu), E slope, ""Bamboo Grove""    :    1330 m    :    9.46045ºS  150.7846ºE.}",,Milne Bay Prov.,"F Kraus, F Malesa and D Salepuna",23 Aug 2002,"-9.46045, 150.7846",1330 m,Papua New Guinea,Milne Bay Prov.,Fergusson Island,"Mt. Kilkerran (=Oya Tabu), E slope, Bamboo Grove",-9.46045,150.7846,9.46045ºS 150.7846ºE,A
FK 6009,Oreophryne inornata,16229,alcoholic + alc gut,"installed, Dec 2003","Fergusson Is., Mt. Kilkerran (Oyatabu), Bamboo Grove - 9° 27.627' S, 150° 47.076' E, 1330 m. = F Kraus field catalogue; see master list of localities in the Accession file","Mt. Kilkerran (=Oya Tabu), E slope, ""Bamboo Grove"" {Papua New Guinea: Milne Bay Prov.: Fergusson Island: Mt. Kilkerran (=Oya Tabu), E slope, ""Bamboo Grove""    :    1330 m    :    9.46045ºS  150.7846ºE.}",,Milne Bay Prov.,"F Kraus, F Malesa and D Salepuna",23 Aug 2002,"-9.46045, 150.7846",1330 m,Papua New Guinea,Milne Bay Prov.,Fergusson Island,"Mt. Kilkerran (=Oya Tabu), E slope, Bamboo Grove",-9.46045,150.7846,9.46045ºS 150.7846ºE,A
FK 6010,Oreophryne inornata,16230,alcoholic + alc gut,"installed, Dec 2003","Fergusson Is., Mt. Kilkerran (Oyatabu), Bamboo Grove - 9° 27.627' S, 150° 47.076' E, 1330 m. = F Kraus field catalogue; see master list of localities in the Accession file","Mt. Kilkerran (=Oya Tabu), E slope, ""Bamboo Grove"" {Papua New Guinea: Milne Bay Prov.: Fergusson Island: Mt. Kilkerran (=Oya Tabu), E slope, ""Bamboo Grove""    :    1330 m    :    9.46045ºS  150.7846ºE.}",,Milne Bay Prov.,"F Kraus, F Malesa and D Salepuna",23 Aug 2002,"-9.46045, 150.7846",1330 m,Papua New Guinea,Milne Bay Prov.,Fergusson Island,"Mt. Kilkerran (=Oya Tabu), E slope, Bamboo Grove",-9.46045,150.7846,9.46045ºS 150.7846ºE,A
FK 6011,Oreophryne inornata,16231,alcoholic,"installed, Dec 2003","Fergusson Is., Mt. Kilkerran (Oyatabu), Bamboo Grove - 9° 27.627' S, 150° 47.076' E, 1330 m. = F Kraus field catalogue; see master list of localities in the Accession file","Mt. Kilkerran (=Oya Tabu), E slope, ""Bamboo Grove"" {Papua New Guinea: Milne Bay Prov.: Fergusson Island: Mt. Kilkerran (=Oya Tabu), E slope, ""Bamboo Grove""    :    1330 m    :    9.46045ºS  150.7846ºE.}",,Milne Bay Prov.,"F Kraus, F Malesa and D Salepuna",23 Aug 2002,"-9.46045, 150.7846",1330 m,Papua New Guinea,Milne Bay Prov.,Fergusson Island,"Mt. Kilkerran (=Oya Tabu), E slope, Bamboo Grove",-9.46045,150.7846,9.46045ºS 150.7846ºE,A
FK 6082,Oreophryne inornata,16232,alcoholic + alc gut,"installed, Dec 2003","Fergusson Is., Mt. Kilkerran (Oyatabu), Bamboo Grove - 9° 27.627' S, 150° 47.076' E, 1330 m. = F Kraus field catalogue; see master list of localities in the Accession file","Mt. Kilkerran (=Oya Tabu), E slope, ""Bamboo Grove"" {Papua New Guinea: Milne Bay Prov.: Fergusson Island: Mt. Kilkerran (=Oya Tabu), E slope, ""Bamboo Grove""    :    1330 m    :    9.46045ºS  150.7846ºE.}",,Milne Bay Prov.,"F Kraus, F Malesa and D Salepuna",24 Aug 2002,"-9.46045, 150.7846",1330 m,Papua New Guinea,Milne Bay Prov.,Fergusson Island,"Mt. Kilkerran (=Oya Tabu), E slope, Bamboo Grove",-9.46045,150.7846,9.46045ºS 150.7846ºE,A
FK 6083,Oreophryne inornata,16233,alcoholic + alc gut,"installed, Dec 2003","Fergusson Is., Mt. Kilkerran (Oyatabu), Bamboo Grove - 9° 27.627' S, 150° 47.076' E, 1330 m. = F Kraus field catalogue; see master list of localities in the Accession file","Mt. Kilkerran (=Oya Tabu), E slope, ""Bamboo Grove"" {Papua New Guinea: Milne Bay Prov.: Fergusson Island: Mt. Kilkerran (=Oya Tabu), E slope, ""Bamboo Grove""    :    1330 m    :    9.46045ºS  150.7846ºE.}",,Milne Bay Prov.,"F Kraus, F Malesa and D Salepuna",24 Aug 2002,"-9.46045, 150.7846",1330 m,Papua New Guinea,Milne Bay Prov.,Fergusson Island,"Mt. Kilkerran (=Oya Tabu), E slope, Bamboo Grove",-9.46045,150.7846,9.46045ºS 150.7846ºE,A
FK 6084,Oreophryne inornata,16234,alcoholic + alc gut,"installed, Dec 2003","Fergusson Is., Mt. Kilkerran (Oyatabu), Bamboo Grove - 9° 27.627' S, 150° 47.076' E, 1330 m. = F Kraus field catalogue; see master list of localities in the Accession file","Mt. Kilkerran (=Oya Tabu), E slope, ""Bamboo Grove"" {Papua New Guinea: Milne Bay Prov.: Fergusson Island: Mt. Kilkerran (=Oya Tabu), E slope, ""Bamboo Grove""    :    1330 m    :    9.46045ºS  150.7846ºE.}",,Milne Bay Prov.,"F Kraus, F Malesa and D Salepuna",24 Aug 2002,"-9.46045, 150.7846",1330 m,Papua New Guinea,Milne Bay Prov.,Fergusson Island,"Mt. Kilkerran (=Oya Tabu), E slope, Bamboo Grove",-9.46045,150.7846,9.46045ºS 150.7846ºE,A
FK 6085,Oreophryne inornata,16235,alcoholic + alc gut,"installed, Dec 2003","Fergusson Is., Mt. Kilkerran (Oyatabu), Bamboo Grove - 9° 27.627' S, 150° 47.076' E, 1330 m. = F Kraus field catalogue; see master list of localities in the Accession file","Mt. Kilkerran (=Oya Tabu), E slope, ""Bamboo Grove"" {Papua New Guinea: Milne Bay Prov.: Fergusson Island: Mt. Kilkerran (=Oya Tabu), E slope, ""Bamboo Grove""    :    1330 m    :    9.46045ºS  150.7846ºE.}",,Milne Bay Prov.,"F Kraus, F Malesa and D Salepuna",24 Aug 2002,"-9.46045, 150.7846",1330 m,Papua New Guinea,Milne Bay Prov.,Fergusson Island,"Mt. Kilkerran (=Oya Tabu), E slope, Bamboo Grove",-9.46045,150.7846,9.46045ºS 150.7846ºE,A
FK 6086,Oreophryne inornata,16236,alcoholic + alc gut,"installed, Dec 2003","Fergusson Is., Mt. Kilkerran (Oyatabu), Bamboo Grove - 9° 27.627' S, 150° 47.076' E, 1330 m. = F Kraus field catalogue; see master list of localities in the Accession file","Mt. Kilkerran (=Oya Tabu), E slope, ""Bamboo Grove"" {Papua New Guinea: Milne Bay Prov.: Fergusson Island: Mt. Kilkerran (=Oya Tabu), E slope, ""Bamboo Grove""    :    1330 m    :    9.46045ºS  150.7846ºE.}",,Milne Bay Prov.,"F Kraus, F Malesa and D Salepuna",24 Aug 2002,"-9.46045, 150.7846",1330 m,Papua New Guinea,Milne Bay Prov.,Fergusson Island,"Mt. Kilkerran (=Oya Tabu), E slope, Bamboo Grove",-9.46045,150.7846,9.46045ºS 150.7846ºE,A
FK 6126,Oreophryne inornata,16237,alcoholic + alc gut,"installed, Dec 2003","Fergusson Is., Mt. Kilkerran (Oyatabu), Bamboo Grove, 1380 m = F Kraus field catalogue; see master list of localities in the Accession file","Mt. Kilkerran (=Oya Tabu), E slope, ""Bamboo Grove"" {Papua New Guinea: Milne Bay Prov.: Fergusson Island: Mt. Kilkerran (=Oya Tabu), E slope, ""Bamboo Grove""    :    1330 m    :    9.46045ºS  150.7846ºE.}",,Milne Bay Prov.,"F Kraus, F Malesa and D Salepuna",26 Aug 2002,"-9.46045, 150.7846",1330 m,Papua New Guinea,Milne Bay Prov.,Fergusson Island,"Mt. Kilkerran (=Oya Tabu), E slope, Bamboo Grove",-9.46045,150.7846,9.46045ºS 150.7846ºE,A
FK 6127,Oreophryne inornata,16238,alcoholic + alc gut,"installed, Dec 2003","Fergusson Is., Mt. Kilkerran (Oyatabu), Bamboo Grove, 1380 m = F Kraus field catalogue; see master list of localities in the Accession file","Mt. Kilkerran (=Oya Tabu), E slope, ""Bamboo Grove"" {Papua New Guinea: Milne Bay Prov.: Fergusson Island: Mt. Kilkerran (=Oya Tabu), E slope, ""Bamboo Grove""    :    1330 m    :    9.46045ºS  150.7846ºE.}",,Milne Bay Prov.,"F Kraus, F Malesa and D Salepuna",26 Aug 2002,"-9.46045, 150.7846",1330 m,Papua New Guinea,Milne Bay Prov.,Fergusson Island,"Mt. Kilkerran (=Oya Tabu), E slope, Bamboo Grove",-9.46045,150.7846,9.46045ºS 150.7846ºE,A
FK 6128,Oreophryne inornata,16239,alcoholic + alc gut,"installed, Dec 2003","Fergusson Is., Mt. Kilkerran (Oyatabu), Bamboo Grove, 1380 m = F Kraus field catalogue; see master list of localities in the Accession file","Mt. Kilkerran (=Oya Tabu), E slope, ""Bamboo Grove"" {Papua New Guinea: Milne Bay Prov.: Fergusson Island: Mt. Kilkerran (=Oya Tabu), E slope, ""Bamboo Grove""    :    1330 m    :    9.46045ºS  150.7846ºE.}",,Milne Bay Prov.,"F Kraus, F Malesa and D Salepuna",26 Aug 2002,"-9.46045, 150.7846",1330 m,Papua New Guinea,Milne Bay Prov.,Fergusson Island,"Mt. Kilkerran (=Oya Tabu), E slope, Bamboo Grove",-9.46045,150.7846,9.46045ºS 150.7846ºE,A
FK 6129,Oreophryne inornata,16240,alcoholic + alc gut,"installed, Dec 2003","Fergusson Is., Mt. Kilkerran (Oyatabu), 9° 27.445' S 150° 46.586' E, 1480 m = F Kraus field catalogue; see master list of localities in the Accession file","Mt. Kilkerran (=Oya Tabu), E slope {Papua New Guinea: Milne Bay Prov.: Fergusson Island: Mt. Kilkerran (=Oya Tabu), E slope    :    1480 m    :    9.4574166ºS  150.7764333ºE.}",,Milne Bay Prov.,"F Kraus, F Malesa and D Salepuna",26 Aug 2002,"-9.4574166, 150.7764333",1480 m,Papua New Guinea,Milne Bay Prov.,Fergusson Island,"Mt. Kilkerran (=Oya Tabu), E slope",-9.4574166,150.7764333,9.4574166ºS 150.7764333ºE,A
FK 6130,Oreophryne inornata,16241,alcoholic + alc gut,"installed, Dec 2003","Fergusson Is., Mt. Kilkerran (Oyatabu), 9° 27.445' S 150° 46.586' E, 1480 m = F Kraus field catalogue; see master list of localities in the Accession file","Mt. Kilkerran (=Oya Tabu), E slope {Papua New Guinea: Milne Bay Prov.: Fergusson Island: Mt. Kilkerran (=Oya Tabu), E slope    :    1480 m    :    9.4574166ºS  150.7764333ºE.}",,Milne Bay Prov.,"F Kraus, F Malesa and D Salepuna",26 Aug 2002,"-9.4574166, 150.7764333",1480 m,Papua New Guinea,Milne Bay Prov.,Fergusson Island,"Mt. Kilkerran (=Oya Tabu), E slope",-9.4574166,150.7764333,9.4574166ºS 150.7764333ºE,A
FK 6142,Oreophryne inornata,16242,alcoholic + 16 eggs + 1 egg embedded in paraffin (unsectioned) + alc gut,"installed, egg in paraffin stored with slide collection","Fergusson Is., Mt. Kilkerran (Oyatabu), Stream 1, 1400-1500 m = F Kraus field catalogue; see master list of localities in the Accession file","Mt. Kilkerran (=Oya Tabu), E slope, ""Stream 1"" {Papua New Guinea: Milne Bay Prov.: Fergusson Island: Mt. Kilkerran (=Oya Tabu), E slope, ""Stream 1""    :    1400-1500 m    :    9.4605978ºS  150.776867ºE.}",,Milne Bay Prov.,F Kraus,27 Aug 2002,"-9.4605978, 150.776867",1400-1500 m,Papua New Guinea,Milne Bay Prov.,Fergusson Island,"Mt. Kilkerran (=Oya Tabu), E slope, Stream 1",-9.4605978,150.776867,9.4605978ºS 150.776867ºE,A
FK 6160,Oreophryne inornata,16243,alcoholic + alc gut,"installed, Dec 2003","Fergusson Is., Mt. Kilkerran (Oyatabu) summit - 9° 27.511' S, 150° 46.147' E, 1830 m. = F Kraus field catalogue; see master list of localities in the Accession file","Mt. Kilkerran (=Oya Tabu), summit {Papua New Guinea: Milne Bay Prov.: Fergusson Island: Mt. Kilkerran (=Oya Tabu), summit    :    1830 m    :    9.4624094ºS  150.7668488ºE.}",,Milne Bay Prov.,"F Kraus, F Malesa and D Salepuna",28 Aug 2002,"-9.4624094, 150.7668488",1830 m,Papua New Guinea,Milne Bay Prov.,Fergusson Island,"Mt. Kilkerran (=Oya Tabu), summit",-9.4624094,150.7668488,9.4624094ºS 150.7668488ºE,A
FK 6161,Oreophryne inornata,16244,alcoholic + alc gut,"installed, Dec 2003","Fergusson Is., Mt. Kilkerran (Oyatabu), above Camp 2, 1550 m = F Kraus field catalogue; see master list of localities in the Accession file","Mt. Kilkerran (=Oya Tabu), E slope, above ""Camp 2"" {Papua New Guinea: Milne Bay Prov.: Fergusson Island: Mt. Kilkerran (=Oya Tabu), E slope, above ""Camp 2""    :    1550 m    :    9.4592391ºS  150.776867ºE.}",,Milne Bay Prov.,F Kraus,28 Aug 2002,"-9.4592391, 150.776867",1550 m,Papua New Guinea,Milne Bay Prov.,Fergusson Island,"Mt. Kilkerran (=Oya Tabu), E slope, above Camp 2",-9.4592391,150.776867,9.4592391ºS 150.776867ºE,A
FK 6167,Oreophryne inornata,16245,alcoholic + alc gut,"installed, Dec 2003","Fergusson Is., 1770 m on Oyatabu = F Kraus field catalogue; see master list of localities in the Accession file","Mt. Kilkerran (=Oya Tabu), E slope {Papua New Guinea: Milne Bay Prov.: Fergusson Island: Mt. Kilkerran (=Oya Tabu), E slope    :    1770 m    :    9.4601449ºS  150.7714025ºE.}",,Milne Bay Prov.,F Kraus and D Salepuna,29 Aug 2002,"-9.4601449, 150.7714025",1770 m,Papua New Guinea,Milne Bay Prov.,Fergusson Island,"Mt. Kilkerran (=Oya Tabu), E slope",-9.4601449,150.7714025,9.4601449ºS 150.7714025ºE,A
FK 6174,Oreophryne inornata,16246,alcoholic + alc gut,"installed, Dec 2003","Fergusson Is., 1550-1700m on Oyatabu = F Kraus field catalogue; see master list of localities in the Accession file","Mt. Kilkerran (=Oya Tabu), E slope {Papua New Guinea: Milne Bay Prov.: Fergusson Island: Mt. Kilkerran (=Oya Tabu), E slope    :    1550-1700 m    :    9.4592391ºS  150.7750455ºE.}",,Milne Bay Prov.,F Kraus,28 Aug 2002,"-9.4592391, 150.7750455",1550-1700 m,Papua New Guinea,Milne Bay Prov.,Fergusson Island,"Mt. Kilkerran (=Oya Tabu), E slope",-9.4592391,150.7750455,9.4592391ºS 150.7750455ºE,A
FK 6175,Oreophryne inornata,16247,alcoholic + alc gut,"installed, Dec 2003","Fergusson Is., 1550-1700m on Oyatabu = F Kraus field catalogue; see master list of localities in the Accession file","Mt. Kilkerran (=Oya Tabu), E slope {Papua New Guinea: Milne Bay Prov.: Fergusson Island: Mt. Kilkerran (=Oya Tabu), E slope    :    1550-1700 m    :    9.4592391ºS  150.7750455ºE.}",,Milne Bay Prov.,F Kraus,28 Aug 2002,"-9.4592391, 150.7750455",1550-1700 m,Papua New Guinea,Milne Bay Prov.,Fergusson Island,"Mt. Kilkerran (=Oya Tabu), E slope",-9.4592391,150.7750455,9.4592391ºS 150.7750455ºE,A
FK 6176,Oreophryne inornata,16248,alcoholic + alc gut,"installed, Dec 2003","Fergusson Is., 1550-1700m on Oyatabu = F Kraus field catalogue; see master list of localities in the Accession file","Mt. Kilkerran (=Oya Tabu), E slope {Papua New Guinea: Milne Bay Prov.: Fergusson Island: Mt. Kilkerran (=Oya Tabu), E slope    :    1550-1700 m    :    9.4592391ºS  150.7750455ºE.}",,Milne Bay Prov.,F Kraus,28 Aug 2002,"-9.4592391, 150.7750455",1550-1700 m,Papua New Guinea,Milne Bay Prov.,Fergusson Island,"Mt. Kilkerran (=Oya Tabu), E slope",-9.4592391,150.7750455,9.4592391ºS 150.7750455ºE,A
FK 6369,Oreophryne inornata,16249,alcoholic + alc gut,"installed, Dec 2003","Fergusson Is., Camp 1, Oya Waka - 9° 27.370' S, 150° 33.575' E, 984 m. = F Kraus field catalogue; see master list of localities in the Accession file","Oya Waka, S slopes, ""Camp 1"" {Papua New Guinea: Milne Bay Prov.: Fergusson Island: Oya Waka, S slopes, ""Camp 1""    :    984 m    :    9.4561666ºS  150.5595833ºE.}",,Milne Bay Prov.,F Kraus and F Malesa,09 Sep 2002,"-9.4561666, 150.5595833",984 m,Papua New Guinea,Milne Bay Prov.,Fergusson Island,"Oya Waka, S slopes, Camp 1",-9.4561666,150.5595833,9.4561666ºS 150.5595833ºE,A
FK 6370,Oreophryne inornata,16250,alcoholic + alc gut,"installed, Dec 2003","Fergusson Is., Camp 1, Oya Waka - 9° 27.370' S, 150° 33.575' E, 984 m. = F Kraus field catalogue; see master list of localities in the Accession file","Oya Waka, S slopes, ""Camp 1"" {Papua New Guinea: Milne Bay Prov.: Fergusson Island: Oya Waka, S slopes, ""Camp 1""    :    984 m    :    9.4561666ºS  150.5595833ºE.}",,Milne Bay Prov.,F Kraus and F Malesa,09 Sep 2002,"-9.4561666, 150.5595833",984 m,Papua New Guinea,Milne Bay Prov.,Fergusson Island,"Oya Waka, S slopes, Camp 1",-9.4561666,150.5595833,9.4561666ºS 150.5595833ºE,A
FK 6434,Oreophryne inornata,16251,alcoholic + alc gut,"installed, Dec 2003","Fergusson Is., Camp 1, Oya Waka - 9° 27.370' S, 150° 33.575' E, 984 m. = F Kraus field catalogue; see master list of localities in the Accession file","Oya Waka, S slopes, ""Camp 1"" {Papua New Guinea: Milne Bay Prov.: Fergusson Island: Oya Waka, S slopes, ""Camp 1""    :    984 m    :    9.4561666ºS  150.5595833ºE.}",,Milne Bay Prov.,F Kraus and F Malesa,13 Sep 2002,"-9.4561666, 150.5595833",984 m,Papua New Guinea,Milne Bay Prov.,Fergusson Island,"Oya Waka, S slopes, Camp 1",-9.4561666,150.5595833,9.4561666ºS 150.5595833ºE,A
FK 6435,Oreophryne inornata,16252,alcoholic + alc gut,"installed, Dec 2003","Fergusson Is., Camp 1, Oya Waka - 9° 27.370' S, 150° 33.575' E, 984 m. = F Kraus field catalogue; see master list of localities in the Accession file","Oya Waka, S slopes, ""Camp 1"" {Papua New Guinea: Milne Bay Prov.: Fergusson Island: Oya Waka, S slopes, ""Camp 1""    :    984 m    :    9.4561666ºS  150.5595833ºE.}",,Milne Bay Prov.,F Kraus and F Malesa,13 Sep 2002,"-9.4561666, 150.5595833",984 m,Papua New Guinea,Milne Bay Prov.,Fergusson Island,"Oya Waka, S slopes, Camp 1",-9.4561666,150.5595833,9.4561666ºS 150.5595833ºE,A
FK 6436,Oreophryne inornata,16253,alcoholic + alc gut,"installed, Dec 2003","Fergusson Is., Camp 1, Oya Waka - 9° 27.370' S, 150° 33.575' E, 984 m. = F Kraus field catalogue; see master list of localities in the Accession file","Oya Waka, S slopes, ""Camp 1"" {Papua New Guinea: Milne Bay Prov.: Fergusson Island: Oya Waka, S slopes, ""Camp 1""    :    984 m    :    9.4561666ºS  150.5595833ºE.}",,Milne Bay Prov.,F Kraus and F Malesa,13 Sep 2002,"-9.4561666, 150.5595833",984 m,Papua New Guinea,Milne Bay Prov.,Fergusson Island,"Oya Waka, S slopes, Camp 1",-9.4561666,150.5595833,9.4561666ºS 150.5595833ºE,A
FK 6445,Oreophryne inornata,16254,alcoholic + alc gut,"installed, Dec 2003","Fergusson Is., Camp 1, Oya Waka - 9° 27.370' S, 150° 33.575' E, 984 m. = F Kraus field catalogue; see master list of localities in the Accession file","Oya Waka, S slopes, ""Camp 1"" {Papua New Guinea: Milne Bay Prov.: Fergusson Island: Oya Waka, S slopes, ""Camp 1""    :    984 m    :    9.4561666ºS  150.5595833ºE.}",,Milne Bay Prov.,F Kraus and F Malesa,13 Sep 2002,"-9.4561666, 150.5595833",984 m,Papua New Guinea,Milne Bay Prov.,Fergusson Island,"Oya Waka, S slopes, Camp 1",-9.4561666,150.5595833,9.4561666ºS 150.5595833ºE,A
FK 6446,Oreophryne inornata,16255,alcoholic + alc gut,"installed, Dec 2003","Fergusson Is., Camp 1, Oya Waka - 9° 27.370' S, 150° 33.575' E, 984 m. = F Kraus field catalogue; see master list of localities in the Accession file","Oya Waka, S slopes, ""Camp 1"" {Papua New Guinea: Milne Bay Prov.: Fergusson Island: Oya Waka, S slopes, ""Camp 1""    :    984 m    :    9.4561666ºS  150.5595833ºE.}",,Milne Bay Prov.,F Kraus and F Malesa,13 Sep 2002,"-9.4561666, 150.5595833",984 m,Papua New Guinea,Milne Bay Prov.,Fergusson Island,"Oya Waka, S slopes, Camp 1",-9.4561666,150.5595833,9.4561666ºS 150.5595833ºE,A
FK 6447,Oreophryne inornata,16256,alcoholic + alc gut,"installed, Dec 2003","Fergusson Is., Camp 1, Oya Waka - 9° 27.370' S, 150° 33.575' E, 984 m. = F Kraus field catalogue; see master list of localities in the Accession file","Oya Waka, S slopes, ""Camp 1"" {Papua New Guinea: Milne Bay Prov.: Fergusson Island: Oya Waka, S slopes, ""Camp 1""    :    984 m    :    9.4561666ºS  150.5595833ºE.}",,Milne Bay Prov.,F Kraus and F Malesa,13 Sep 2002,"-9.4561666, 150.5595833",984 m,Papua New Guinea,Milne Bay Prov.,Fergusson Island,"Oya Waka, S slopes, Camp 1",-9.4561666,150.5595833,9.4561666ºS 150.5595833ºE,A
no FK #,Oreophryne inornata,17691,13 eggs + 2 eggs embedded in paraffin (unsectioned),"installed, eggs in paraffin stored with slide collection","Mt. Kilkerran, 1400 m = loose label with specimen; see master list of localities in the Accession file","Mt. Kilkerran (=Oya Tabu), E slope {Papua New Guinea: Milne Bay Prov.: Fergusson Island: Mt. Kilkerran (=Oya Tabu), E slope    :    1400 m    :    9.4591333ºS  150.7808666ºE.}",,Milne Bay Prov.,F Kraus,27 Aug 2002,"-9.4591333, 150.7808666",1400 m,Papua New Guinea,Milne Bay Prov.,Fergusson Island,"Mt. Kilkerran (=Oya Tabu), E slope",-9.4591333,150.7808666,9.4591333ºS 150.7808666ºE,A
FK 7966,Oreophryne lemur,18507,alcoholic,installed July 2017,"nr. Woitape, 1620 m, 8.45538° S, 147.26301° E  (GPS datum WGS84) = from F Kraus field catalog","Woitape, 1.2 km E {Papua New Guinea: Central Prov.: Woitape, 1.2 km E    :    1620 m    :    8.45682ºS [8.45538° S (WGS 84)]  147.26199ºE [147.26301° E (WGS 84)].}",,Central Prov.,F Kraus,02 Oct 2003,"-8.45682, 147.26199",1620 m,Papua New Guinea,Central Prov.,"Woitape, 1.2 km E    ","Woitape, 1.2 km E",-8.45682,147.26199,8.45682ºS 147.26199ºE ,A
FK 7967,Oreophryne lemur,18508,alcoholic,installed July 2017,"nr. Woitape, 1620 m, 8.45538° S, 147.26301° E  (GPS datum WGS84) = from F Kraus field catalog","Woitape, 1.2 km E {Papua New Guinea: Central Prov.: Woitape, 1.2 km E    :    1620 m    :    8.45682ºS [8.45538° S (WGS 84)]  147.26199ºE [147.26301° E (WGS 84)].}",,Central Prov.,F Kraus,02 Oct 2003,"-8.45682, 147.26199",1620 m,Papua New Guinea,Central Prov.,"Woitape, 1.2 km E    ","Woitape, 1.2 km E",-8.45682,147.26199,8.45682ºS 147.26199ºE ,A
FK 7968,Oreophryne lemur,18509,alcoholic,installed June 2017,"nr. Woitape, 1620 m, 8.45538° S, 147.26301° E  (GPS datum WGS84) = from F Kraus field catalog","Woitape, 1.2 km E {Papua New Guinea: Central Prov.: Woitape, 1.2 km E    :    1620 m    :    8.45682ºS [8.45538° S (WGS 84)]  147.26199ºE [147.26301° E (WGS 84)].}",,Central Prov.,F Kraus,02 Oct 2003,"-8.45682, 147.26199",1620 m,Papua New Guinea,Central Prov.,"Woitape, 1.2 km E    ","Woitape, 1.2 km E",-8.45682,147.26199,8.45682ºS 147.26199ºE ,A
AA 14530,Oreophryne loriae,13154,alcoholic,"installed, Aug 2001","Lakekamu ""Ivimka""  /  lower camp =  Allison catalog.  ""Along East branch of Avi Avi River, 120m elev."" =   Allison memo in acc'n file.","Avi Avi River, E branch, 5.5km S & 5.6km W of Tekadu Airstrip, Ivimka Field Station, (along river) {Papua New Guinea: Gulf Prov.: Avi Avi River, E branch, 5.5km S & 5.6km W of Tekadu Airstrip, Ivimka Field Station, (along river)    :    120 m    :    7.73",,Gulf Prov.,A Allison,18 Oct 1996,"--, Avi Avi River, E branch, 5.5km S & 5.6km W of Tekadu Airstrip, Ivimka Field tation, {Papua New Guinea: Gulf Prov.: Avi Avi River,  branch, 5.5km - & 5.6km  of Tekadu Airstrip, Ivimka Field Station, : 120 m : 7.73",120 m,Papua New Guinea,Gulf Prov.,"Avi Avi River, E branch, 5.5km S & 5.6km W of Tekadu Airstrip, Ivimka Field Station, (along river)    ","Avi Avi River, E branch, 5.5km S & 5.6km W of Tekadu Airstrip, Ivimka Field Station, (along river)",NA,NA,"Avi Avi River, E branch, 5.5km S & 5.6km W of Tekadu Airstrip, Ivimka Field Station, {Papua New Guinea: Gulf Prov.: Avi Avi River, E branch, 5.5km S & 5.6km W of Tekadu Airstrip, Ivimka Field Station, : 120 m : 7.73",A
FK 11338,Oreophryne loriae,22537,alcoholic,installed June 2017,"Central Prov., near Point 28 = F Kraus catalog.  ;  from F Kraus catalog Point 28 = 9.44953° S, 147.62562° E (AGD66), 373 m.","Moroka, 3.2 km ESE, (near Point 28) {Papua New Guinea: Central Prov.: Moroka, 3.2 km ESE, (near Point 28)    :    360-400 m    :    9.44953ºS  147.62562ºE.}",,Central Prov.,F Kraus,19 Mar 2005,"-9.44953, 147.62562",360-400 m,Papua New Guinea,Central Prov.,"Moroka, 3.2 km ESE, (near Point 28)    ","Moroka, 3.2 km ESE, (near Point 28)",-9.44953,147.62562,9.44953ºS 147.62562ºE,A
FK 11339,Oreophryne loriae,22538,alcoholic,installed June 2017,"Central Prov., near Point 28 = F Kraus catalog.  ;  from F Kraus catalog Point 28 = 9.44953° S, 147.62562° E (AGD66), 373 m.","Moroka, 3.2 km ESE, (near Point 28) {Papua New Guinea: Central Prov.: Moroka, 3.2 km ESE, (near Point 28)    :    360-400 m    :    9.44953ºS  147.62562ºE.}",,Central Prov.,F Kraus,19 Mar 2005,"-9.44953, 147.62562",360-400 m,Papua New Guinea,Central Prov.,"Moroka, 3.2 km ESE, (near Point 28)    ","Moroka, 3.2 km ESE, (near Point 28)",-9.44953,147.62562,9.44953ºS 147.62562ºE,A
FK 11340,Oreophryne loriae,22539,alcoholic,installed June 2017,"Central Prov., near Point 28 = F Kraus catalog.  ;  from F Kraus catalog Point 28 = 9.44953° S, 147.62562° E (AGD66), 373 m.","Moroka, 3.2 km ESE, (near Point 28) {Papua New Guinea: Central Prov.: Moroka, 3.2 km ESE, (near Point 28)    :    360-400 m    :    9.44953ºS  147.62562ºE.}",,Central Prov.,F Kraus,19 Mar 2005,"-9.44953, 147.62562",360-400 m,Papua New Guinea,Central Prov.,"Moroka, 3.2 km ESE, (near Point 28)    ","Moroka, 3.2 km ESE, (near Point 28)",-9.44953,147.62562,9.44953ºS 147.62562ºE,A
AA 18402,Oreophryne loriae,27487,alcoholic,returned 16 Aug 2016 and awaiting reinstallation,"Heuberovo Camp, Central Province, PNG = verbal from A Allison/k imada 20 Dec 2007.","Heuberovo Camp, 2.2 km S and 3.1 km W of Wori Wori (= Vori Vori) Bluff {Papua New Guinea: Central Prov.: Heuberovo Camp, 2.2 km S and 3.1 km W of Wori Wori (= Vori Vori) Bluff    :    600 m    :    9.39575ºS  147.5699ºE.}",,Central Prov.,A Allison,10 Aug 2005,"-9.39575, 147.5699",600 m,Papua New Guinea,Central Prov.,"Heuberovo Camp, 2.2 km S and 3.1 km W of Wori Wori (= Vori Vori) Bluff    ","Heuberovo Camp, 2.2 km S and 3.1 km W of Wori Wori (= Vori Vori) Bluff",-9.39575,147.5699,9.39575ºS 147.5699ºE,A
AA 18403,Oreophryne loriae,27488,alcoholic,installed July 2017,"Heuberovo Camp, Central Province, PNG = verbal from A Allison/k imada 20 Dec 2007.","Heuberovo Camp, 2.2 km S and 3.1 km W of Wori Wori (= Vori Vori) Bluff {Papua New Guinea: Central Prov.: Heuberovo Camp, 2.2 km S and 3.1 km W of Wori Wori (= Vori Vori) Bluff    :    600 m    :    9.39575ºS  147.5699ºE.}",,Central Prov.,A Allison,10 Aug 2005,"-9.39575, 147.5699",600 m,Papua New Guinea,Central Prov.,"Heuberovo Camp, 2.2 km S and 3.1 km W of Wori Wori (= Vori Vori) Bluff    ","Heuberovo Camp, 2.2 km S and 3.1 km W of Wori Wori (= Vori Vori) Bluff",-9.39575,147.5699,9.39575ºS 147.5699ºE,A
AA 18404,Oreophryne loriae,27489,alcoholic,returned 16 Aug 2016 and awaiting reinstallation,"Heuberovo Camp, Central Province, PNG = verbal from A Allison/k imada 20 Dec 2007.","Heuberovo Camp, 2.2 km S and 3.1 km W of Wori Wori (= Vori Vori) Bluff {Papua New Guinea: Central Prov.: Heuberovo Camp, 2.2 km S and 3.1 km W of Wori Wori (= Vori Vori) Bluff    :    600 m    :    9.39575ºS  147.5699ºE.}",,Central Prov.,A Allison,10 Aug 2005,"-9.39575, 147.5699",600 m,Papua New Guinea,Central Prov.,"Heuberovo Camp, 2.2 km S and 3.1 km W of Wori Wori (= Vori Vori) Bluff    ","Heuberovo Camp, 2.2 km S and 3.1 km W of Wori Wori (= Vori Vori) Bluff",-9.39575,147.5699,9.39575ºS 147.5699ºE,A
FK 15020,Oreophryne loriae,38987,alcoholic,"installed, Mar 2016","Trail fork [ = Papua New Guinea: Milne Bay Prov., 10.02463°S, 150.97862°E, 55m] = from F Kraus field catalogue",,,,F Kraus,03 Mar 2011,", ",,,,,,NA,NA,,A
AA 24686,Oreophryne loriae,47656,alcoholic,"Installed, Aug 2020","Collection 2, 2nd camp; 9.44613 147.36696 748mm = collector field catalog; Around second camp, 2m in pandanus tree [coordinates same as catalog] = AA CATALOGUE spreadsheet.","Varirata National Park {Papua New Guinea: Central Prov.: Varirata National Park, 2nd Camp    :    748 m    :    9.44613ºS [9.44613]  147.36696ºE [147.36696].}",,Central Prov.,A Allison,16 Nov 2017,"-9.44613, 147.36696",748 m,Papua New Guinea,Central Prov.,"Varirata National Park, 2nd Camp    ",Varirata National Park,-9.44613,147.36696,9.44613ºS 147.36696ºE ,A
AA 24727,Oreophryne loriae,47688,alcoholic,"Installed, Aug 2020","Net 5 area, Scarp track = collector field catalog; 9.44619 147.35568, 855m = AA CATALOGUE spreadsheet.","Varirata National Park {Papua New Guinea: Central Prov.: Varirata National Park, Scarp track, net 5 area    :    855 m    :    9.44619ºS [9.44619]  147.35568ºE [147.35568].}",,Central Prov.,A Allison,25 Nov 2017,"-9.44619, 147.35568",855 m,Papua New Guinea,Central Prov.,"Varirata National Park, Scarp track, net 5 area    ",Varirata National Park,-9.44619,147.35568,9.44619ºS 147.35568ºE ,A
FK 12444,Oreophryne notata,33672,alcoholic + alc gut,"installed, Oct 2009","Papua New Guinea: Southern Highlands Prov., Camp 1 (5.66954° S, 142.62334° E), 2177 m) = from F Kraus field catalogue *;* E slope Mt. Itukua = from email by F Kraus dated 24 Aug 2009.","Mt. Itukua, E slope (4.13 km SW Tangi) {Papua New Guinea: Southern Highlands Prov.: Mt. Itukua, E slope (4.13 km SW Tangi), camp 1    :    2177 m    :    5.66954ºS [5.66954° S (WGS 84)]  142.62334ºE [142.62334° E (WGS 84)].}",,Southern Highlands Prov.,F Kraus,17 Mar 2009,"-5.66954, 142.62334",2177 m,Papua New Guinea,Southern Highlands Prov.,"Mt. Itukua, E slope (4.13 km SW Tangi), camp 1    ","Mt. Itukua, E slope (4.13 km SW Tangi)",-5.66954,142.62334,5.66954ºS 142.62334ºE ,A
FK 12445,Oreophryne notata,33673,alcoholic + alc gut,"installed, Oct 2009","Papua New Guinea: Southern Highlands Prov., Camp 1 (5.66954° S, 142.62334° E), 2177 m) = from F Kraus field catalogue *;* E slope Mt. Itukua = from email by F Kraus dated 24 Aug 2009.","Mt. Itukua, E slope (4.13 km SW Tangi) {Papua New Guinea: Southern Highlands Prov.: Mt. Itukua, E slope (4.13 km SW Tangi), camp 1    :    2177 m    :    5.66954ºS [5.66954° S (WGS 84)]  142.62334ºE [142.62334° E (WGS 84)].}",,Southern Highlands Prov.,F Kraus,17 Mar 2009,"-5.66954, 142.62334",2177 m,Papua New Guinea,Southern Highlands Prov.,"Mt. Itukua, E slope (4.13 km SW Tangi), camp 1    ","Mt. Itukua, E slope (4.13 km SW Tangi)",-5.66954,142.62334,5.66954ºS 142.62334ºE ,A
FK 12446,Oreophryne notata,33674,alcoholic + alc gut,"installed, Oct 2009","Papua New Guinea: Southern Highlands Prov., Camp 1 (5.66954° S, 142.62334° E), 2177 m) = from F Kraus field catalogue *;* E slope Mt. Itukua = from email by F Kraus dated 24 Aug 2009.","Mt. Itukua, E slope (4.13 km SW Tangi) {Papua New Guinea: Southern Highlands Prov.: Mt. Itukua, E slope (4.13 km SW Tangi), camp 1    :    2177 m    :    5.66954ºS [5.66954° S (WGS 84)]  142.62334ºE [142.62334° E (WGS 84)].}",,Southern Highlands Prov.,F Kraus,17 Mar 2009,"-5.66954, 142.62334",2177 m,Papua New Guinea,Southern Highlands Prov.,"Mt. Itukua, E slope (4.13 km SW Tangi), camp 1    ","Mt. Itukua, E slope (4.13 km SW Tangi)",-5.66954,142.62334,5.66954ºS 142.62334ºE ,A
FK 12447,Oreophryne notata,33675,alcoholic + alc gut,"installed, Oct 2009","Papua New Guinea: Southern Highlands Prov., Camp 1 (5.66954° S, 142.62334° E), 2177 m) = from F Kraus field catalogue *;* E slope Mt. Itukua = from email by F Kraus dated 24 Aug 2009.","Mt. Itukua, E slope (4.13 km SW Tangi) {Papua New Guinea: Southern Highlands Prov.: Mt. Itukua, E slope (4.13 km SW Tangi), camp 1    :    2177 m    :    5.66954ºS [5.66954° S (WGS 84)]  142.62334ºE [142.62334° E (WGS 84)].}",,Southern Highlands Prov.,F Kraus,17 Mar 2009,"-5.66954, 142.62334",2177 m,Papua New Guinea,Southern Highlands Prov.,"Mt. Itukua, E slope (4.13 km SW Tangi), camp 1    ","Mt. Itukua, E slope (4.13 km SW Tangi)",-5.66954,142.62334,5.66954ºS 142.62334ºE ,A
FK 12528,Oreophryne notata,33676,alcoholic + alc gut,"installed, Oct 2009","Papua New Guinea: Southern Highlands Prov., Camp 1 (5.66954° S, 142.62334° E), 2177 m) = from F Kraus field catalogue *;* E slope Mt. Itukua = from email by F Kraus dated 24 Aug 2009.","Mt. Itukua, E slope (4.13 km SW Tangi) {Papua New Guinea: Southern Highlands Prov.: Mt. Itukua, E slope (4.13 km SW Tangi), camp 1    :    2177 m    :    5.66954ºS [5.66954° S (WGS 84)]  142.62334ºE [142.62334° E (WGS 84)].}",,Southern Highlands Prov.,F Kraus,18 Mar 2009,"-5.66954, 142.62334",2177 m,Papua New Guinea,Southern Highlands Prov.,"Mt. Itukua, E slope (4.13 km SW Tangi), camp 1    ","Mt. Itukua, E slope (4.13 km SW Tangi)",-5.66954,142.62334,5.66954ºS 142.62334ºE ,A
FK 12529,Oreophryne notata,33677,alcoholic + alc gut,"installed, Oct 2009","Papua New Guinea: Southern Highlands Prov., Camp 1 (5.66954° S, 142.62334° E), 2177 m) = from F Kraus field catalogue *;* E slope Mt. Itukua = from email by F Kraus dated 24 Aug 2009.","Mt. Itukua, E slope (4.13 km SW Tangi) {Papua New Guinea: Southern Highlands Prov.: Mt. Itukua, E slope (4.13 km SW Tangi), camp 1    :    2177 m    :    5.66954ºS [5.66954° S (WGS 84)]  142.62334ºE [142.62334° E (WGS 84)].}",,Southern Highlands Prov.,F Kraus,19 Mar 2009,"-5.66954, 142.62334",2177 m,Papua New Guinea,Southern Highlands Prov.,"Mt. Itukua, E slope (4.13 km SW Tangi), camp 1    ","Mt. Itukua, E slope (4.13 km SW Tangi)",-5.66954,142.62334,5.66954ºS 142.62334ºE ,A
FK 12530,Oreophryne notata,33678,alcoholic + alc gut,"installed, Oct 2009","Papua New Guinea: Southern Highlands Prov., Camp 1 (5.66954° S, 142.62334° E), 2177 m) = from F Kraus field catalogue *;* E slope Mt. Itukua = from email by F Kraus dated 24 Aug 2009.","Mt. Itukua, E slope (4.13 km SW Tangi) {Papua New Guinea: Southern Highlands Prov.: Mt. Itukua, E slope (4.13 km SW Tangi), camp 1    :    2177 m    :    5.66954ºS [5.66954° S (WGS 84)]  142.62334ºE [142.62334° E (WGS 84)].}",,Southern Highlands Prov.,F Kraus,19 Mar 2009,"-5.66954, 142.62334",2177 m,Papua New Guinea,Southern Highlands Prov.,"Mt. Itukua, E slope (4.13 km SW Tangi), camp 1    ","Mt. Itukua, E slope (4.13 km SW Tangi)",-5.66954,142.62334,5.66954ºS 142.62334ºE ,A
FK 12568,Oreophryne notata,33679,alcoholic + alc gut,"installed, Oct 2009","Papua New Guinea: Southern Highlands Prov., Camp 1 (5.66954° S, 142.62334° E), 2177 m) = from F Kraus field catalogue *;* E slope Mt. Itukua = from email by F Kraus dated 24 Aug 2009.","Mt. Itukua, E slope (4.13 km SW Tangi) {Papua New Guinea: Southern Highlands Prov.: Mt. Itukua, E slope (4.13 km SW Tangi), camp 1    :    2177 m    :    5.66954ºS [5.66954° S (WGS 84)]  142.62334ºE [142.62334° E (WGS 84)].}",,Southern Highlands Prov.,F Kraus,20 Mar 2009,"-5.66954, 142.62334",2177 m,Papua New Guinea,Southern Highlands Prov.,"Mt. Itukua, E slope (4.13 km SW Tangi), camp 1    ","Mt. Itukua, E slope (4.13 km SW Tangi)",-5.66954,142.62334,5.66954ºS 142.62334ºE ,A
FK 12569,Oreophryne notata,33680,alcoholic + alc gut,"installed, Oct 2009","Papua New Guinea: Southern Highlands Prov., Camp 1 (5.66954° S, 142.62334° E), 2177 m) = from F Kraus field catalogue *;* E slope Mt. Itukua = from email by F Kraus dated 24 Aug 2009.","Mt. Itukua, E slope (4.13 km SW Tangi) {Papua New Guinea: Southern Highlands Prov.: Mt. Itukua, E slope (4.13 km SW Tangi), camp 1    :    2177 m    :    5.66954ºS [5.66954° S (WGS 84)]  142.62334ºE [142.62334° E (WGS 84)].}",,Southern Highlands Prov.,F Kraus,20 Mar 2009,"-5.66954, 142.62334",2177 m,Papua New Guinea,Southern Highlands Prov.,"Mt. Itukua, E slope (4.13 km SW Tangi), camp 1    ","Mt. Itukua, E slope (4.13 km SW Tangi)",-5.66954,142.62334,5.66954ºS 142.62334ºE ,A
FK 12570,Oreophryne notata,33681,alcoholic + alc gut,"installed, Oct 2009","Papua New Guinea: Southern Highlands Prov., Camp 1 (5.66954° S, 142.62334° E), 2177 m) = from F Kraus field catalogue *;* E slope Mt. Itukua = from email by F Kraus dated 24 Aug 2009.","Mt. Itukua, E slope (4.13 km SW Tangi) {Papua New Guinea: Southern Highlands Prov.: Mt. Itukua, E slope (4.13 km SW Tangi), camp 1    :    2177 m    :    5.66954ºS [5.66954° S (WGS 84)]  142.62334ºE [142.62334° E (WGS 84)].}",,Southern Highlands Prov.,F Kraus,20 Mar 2009,"-5.66954, 142.62334",2177 m,Papua New Guinea,Southern Highlands Prov.,"Mt. Itukua, E slope (4.13 km SW Tangi), camp 1    ","Mt. Itukua, E slope (4.13 km SW Tangi)",-5.66954,142.62334,5.66954ºS 142.62334ºE ,A
FK 12571,Oreophryne notata,33682,alcoholic + alc gut,"installed, Oct 2009","Papua New Guinea: Southern Highlands Prov., Camp 1 (5.66954° S, 142.62334° E), 2177 m) = from F Kraus field catalogue *;* E slope Mt. Itukua = from email by F Kraus dated 24 Aug 2009.","Mt. Itukua, E slope (4.13 km SW Tangi) {Papua New Guinea: Southern Highlands Prov.: Mt. Itukua, E slope (4.13 km SW Tangi), camp 1    :    2177 m    :    5.66954ºS [5.66954° S (WGS 84)]  142.62334ºE [142.62334° E (WGS 84)].}",,Southern Highlands Prov.,F Kraus,20 Mar 2009,"-5.66954, 142.62334",2177 m,Papua New Guinea,Southern Highlands Prov.,"Mt. Itukua, E slope (4.13 km SW Tangi), camp 1    ","Mt. Itukua, E slope (4.13 km SW Tangi)",-5.66954,142.62334,5.66954ºS 142.62334ºE ,A
FK 12581,Oreophryne notata,33683,alcoholic + alc gut,"installed, Oct 2009","Papua New Guinea: Southern Highlands Prov., Camp 1 (5.66954° S, 142.62334° E), 2177 m) = from F Kraus field catalogue *;* E slope Mt. Itukua = from email by F Kraus dated 24 Aug 2009.","Mt. Itukua, E slope (4.13 km SW Tangi) {Papua New Guinea: Southern Highlands Prov.: Mt. Itukua, E slope (4.13 km SW Tangi), camp 1    :    2177 m    :    5.66954ºS [5.66954° S (WGS 84)]  142.62334ºE [142.62334° E (WGS 84)].}",,Southern Highlands Prov.,F Kraus,21 Mar 2009,"-5.66954, 142.62334",2177 m,Papua New Guinea,Southern Highlands Prov.,"Mt. Itukua, E slope (4.13 km SW Tangi), camp 1    ","Mt. Itukua, E slope (4.13 km SW Tangi)",-5.66954,142.62334,5.66954ºS 142.62334ºE ,A
FK 12582,Oreophryne notata,33684,alcoholic + alc gut,"installed, Oct 2009","Papua New Guinea: Southern Highlands Prov., Camp 1 (5.66954° S, 142.62334° E), 2177 m) = from F Kraus field catalogue *;* E slope Mt. Itukua = from email by F Kraus dated 24 Aug 2009.","Mt. Itukua, E slope (4.13 km SW Tangi) {Papua New Guinea: Southern Highlands Prov.: Mt. Itukua, E slope (4.13 km SW Tangi), camp 1    :    2177 m    :    5.66954ºS [5.66954° S (WGS 84)]  142.62334ºE [142.62334° E (WGS 84)].}",,Southern Highlands Prov.,F Kraus,21 Mar 2009,"-5.66954, 142.62334",2177 m,Papua New Guinea,Southern Highlands Prov.,"Mt. Itukua, E slope (4.13 km SW Tangi), camp 1    ","Mt. Itukua, E slope (4.13 km SW Tangi)",-5.66954,142.62334,5.66954ºS 142.62334ºE ,A
FK 12583,Oreophryne notata,33685,alcoholic + alc gut,"installed, Oct 2009","Papua New Guinea: Southern Highlands Prov., Camp 1 (5.66954° S, 142.62334° E), 2177 m) = from F Kraus field catalogue *;* E slope Mt. Itukua = from email by F Kraus dated 24 Aug 2009.","Mt. Itukua, E slope (4.13 km SW Tangi) {Papua New Guinea: Southern Highlands Prov.: Mt. Itukua, E slope (4.13 km SW Tangi), camp 1    :    2177 m    :    5.66954ºS [5.66954° S (WGS 84)]  142.62334ºE [142.62334° E (WGS 84)].}",,Southern Highlands Prov.,F Kraus,21 Mar 2009,"-5.66954, 142.62334",2177 m,Papua New Guinea,Southern Highlands Prov.,"Mt. Itukua, E slope (4.13 km SW Tangi), camp 1    ","Mt. Itukua, E slope (4.13 km SW Tangi)",-5.66954,142.62334,5.66954ºS 142.62334ºE ,A
FK 12584,Oreophryne notata,33686,alcoholic + alc gut,"installed, Oct 2009","Papua New Guinea: Southern Highlands Prov., Camp 1 (5.66954° S, 142.62334° E), 2177 m) = from F Kraus field catalogue *;* E slope Mt. Itukua = from email by F Kraus dated 24 Aug 2009.","Mt. Itukua, E slope (4.13 km SW Tangi) {Papua New Guinea: Southern Highlands Prov.: Mt. Itukua, E slope (4.13 km SW Tangi), camp 1    :    2177 m    :    5.66954ºS [5.66954° S (WGS 84)]  142.62334ºE [142.62334° E (WGS 84)].}",,Southern Highlands Prov.,F Kraus,21 Mar 2009,"-5.66954, 142.62334",2177 m,Papua New Guinea,Southern Highlands Prov.,"Mt. Itukua, E slope (4.13 km SW Tangi), camp 1    ","Mt. Itukua, E slope (4.13 km SW Tangi)",-5.66954,142.62334,5.66954ºS 142.62334ºE ,A
FK 12585,Oreophryne notata,33687,alcoholic + alc gut,"installed, Oct 2009","Papua New Guinea: Southern Highlands Prov., Camp 1 (5.66954° S, 142.62334° E), 2177 m) = from F Kraus field catalogue *;* E slope Mt. Itukua = from email by F Kraus dated 24 Aug 2009.","Mt. Itukua, E slope (4.13 km SW Tangi) {Papua New Guinea: Southern Highlands Prov.: Mt. Itukua, E slope (4.13 km SW Tangi), camp 1    :    2177 m    :    5.66954ºS [5.66954° S (WGS 84)]  142.62334ºE [142.62334° E (WGS 84)].}",,Southern Highlands Prov.,F Kraus,21 Mar 2009,"-5.66954, 142.62334",2177 m,Papua New Guinea,Southern Highlands Prov.,"Mt. Itukua, E slope (4.13 km SW Tangi), camp 1    ","Mt. Itukua, E slope (4.13 km SW Tangi)",-5.66954,142.62334,5.66954ºS 142.62334ºE ,A
FK 12586,Oreophryne notata,33688,alcoholic + alc gut,"installed, Oct 2009","Papua New Guinea: Southern Highlands Prov., Camp 1 (5.66954° S, 142.62334° E), 2177 m) = from F Kraus field catalogue *;* E slope Mt. Itukua = from email by F Kraus dated 24 Aug 2009.","Mt. Itukua, E slope (4.13 km SW Tangi) {Papua New Guinea: Southern Highlands Prov.: Mt. Itukua, E slope (4.13 km SW Tangi), camp 1    :    2177 m    :    5.66954ºS [5.66954° S (WGS 84)]  142.62334ºE [142.62334° E (WGS 84)].}",,Southern Highlands Prov.,F Kraus,21 Mar 2009,"-5.66954, 142.62334",2177 m,Papua New Guinea,Southern Highlands Prov.,"Mt. Itukua, E slope (4.13 km SW Tangi), camp 1    ","Mt. Itukua, E slope (4.13 km SW Tangi)",-5.66954,142.62334,5.66954ºS 142.62334ºE ,A
FK 12587,Oreophryne notata,33689,alcoholic + alc gut,"installed, Oct 2009","Papua New Guinea: Southern Highlands Prov., Camp 1 (5.66954° S, 142.62334° E), 2177 m) = from F Kraus field catalogue *;* E slope Mt. Itukua = from email by F Kraus dated 24 Aug 2009.","Mt. Itukua, E slope (4.13 km SW Tangi) {Papua New Guinea: Southern Highlands Prov.: Mt. Itukua, E slope (4.13 km SW Tangi), camp 1    :    2177 m    :    5.66954ºS [5.66954° S (WGS 84)]  142.62334ºE [142.62334° E (WGS 84)].}",,Southern Highlands Prov.,F Kraus,21 Mar 2009,"-5.66954, 142.62334",2177 m,Papua New Guinea,Southern Highlands Prov.,"Mt. Itukua, E slope (4.13 km SW Tangi), camp 1    ","Mt. Itukua, E slope (4.13 km SW Tangi)",-5.66954,142.62334,5.66954ºS 142.62334ºE ,A
FK 12588,Oreophryne notata,33690,alcoholic + alc gut,"installed, Oct 2009","Papua New Guinea: Southern Highlands Prov., Camp 1 (5.66954° S, 142.62334° E), 2177 m) = from F Kraus field catalogue *;* E slope Mt. Itukua = from email by F Kraus dated 24 Aug 2009.","Mt. Itukua, E slope (4.13 km SW Tangi) {Papua New Guinea: Southern Highlands Prov.: Mt. Itukua, E slope (4.13 km SW Tangi), camp 1    :    2177 m    :    5.66954ºS [5.66954° S (WGS 84)]  142.62334ºE [142.62334° E (WGS 84)].}",,Southern Highlands Prov.,F Kraus,21 Mar 2009,"-5.66954, 142.62334",2177 m,Papua New Guinea,Southern Highlands Prov.,"Mt. Itukua, E slope (4.13 km SW Tangi), camp 1    ","Mt. Itukua, E slope (4.13 km SW Tangi)",-5.66954,142.62334,5.66954ºS 142.62334ºE ,A
FK 12589,Oreophryne notata,33691,alcoholic + alc gut,"installed, Oct 2009","Papua New Guinea: Southern Highlands Prov., Camp 1 (5.66954° S, 142.62334° E), 2177 m) = from F Kraus field catalogue *;* E slope Mt. Itukua = from email by F Kraus dated 24 Aug 2009.","Mt. Itukua, E slope (4.13 km SW Tangi) {Papua New Guinea: Southern Highlands Prov.: Mt. Itukua, E slope (4.13 km SW Tangi), camp 1    :    2177 m    :    5.66954ºS [5.66954° S (WGS 84)]  142.62334ºE [142.62334° E (WGS 84)].}",,Southern Highlands Prov.,F Kraus,21 Mar 2009,"-5.66954, 142.62334",2177 m,Papua New Guinea,Southern Highlands Prov.,"Mt. Itukua, E slope (4.13 km SW Tangi), camp 1    ","Mt. Itukua, E slope (4.13 km SW Tangi)",-5.66954,142.62334,5.66954ºS 142.62334ºE ,A
FK 12700,Oreophryne notata,33692,alcoholic + alc gut,"installed, Oct 2009","Papua New Guinea: Southern Highlands Prov., Camp 1 (5.66954° S, 142.62334° E), 2177 m) = from F Kraus field catalogue *;* E slope Mt. Itukua = from email by F Kraus dated 24 Aug 2009.","Mt. Itukua, E slope (4.13 km SW Tangi) {Papua New Guinea: Southern Highlands Prov.: Mt. Itukua, E slope (4.13 km SW Tangi), camp 1    :    2177 m    :    5.66954ºS [5.66954° S (WGS 84)]  142.62334ºE [142.62334° E (WGS 84)].}",,Southern Highlands Prov.,F Kraus,22 Mar 2009,"-5.66954, 142.62334",2177 m,Papua New Guinea,Southern Highlands Prov.,"Mt. Itukua, E slope (4.13 km SW Tangi), camp 1    ","Mt. Itukua, E slope (4.13 km SW Tangi)",-5.66954,142.62334,5.66954ºS 142.62334ºE ,A
FK 12806,Oreophryne notata,33693,alcoholic + alc gut,"installed, Oct 2009","Papua New Guinea: Southern Highlands Prov., Camp 1 (5.66954° S, 142.62334° E), 2177 m) = from F Kraus field catalogue *;* E slope Mt. Itukua = from email by F Kraus dated 24 Aug 2009.","Mt. Itukua, E slope (4.13 km SW Tangi) {Papua New Guinea: Southern Highlands Prov.: Mt. Itukua, E slope (4.13 km SW Tangi), camp 1    :    2177 m    :    5.66954ºS [5.66954° S (WGS 84)]  142.62334ºE [142.62334° E (WGS 84)].}",,Southern Highlands Prov.,F Kraus,25 Mar 2009,"-5.66954, 142.62334",2177 m,Papua New Guinea,Southern Highlands Prov.,"Mt. Itukua, E slope (4.13 km SW Tangi), camp 1    ","Mt. Itukua, E slope (4.13 km SW Tangi)",-5.66954,142.62334,5.66954ºS 142.62334ºE ,A
FK 12807,Oreophryne notata,33694,alcoholic + alc gut,"installed, Oct 2009","Papua New Guinea: Southern Highlands Prov., Camp 1 (5.66954° S, 142.62334° E), 2177 m) = from F Kraus field catalogue *;* E slope Mt. Itukua = from email by F Kraus dated 24 Aug 2009.","Mt. Itukua, E slope (4.13 km SW Tangi) {Papua New Guinea: Southern Highlands Prov.: Mt. Itukua, E slope (4.13 km SW Tangi), camp 1    :    2177 m    :    5.66954ºS [5.66954° S (WGS 84)]  142.62334ºE [142.62334° E (WGS 84)].}",,Southern Highlands Prov.,F Kraus,25 Mar 2009,"-5.66954, 142.62334",2177 m,Papua New Guinea,Southern Highlands Prov.,"Mt. Itukua, E slope (4.13 km SW Tangi), camp 1    ","Mt. Itukua, E slope (4.13 km SW Tangi)",-5.66954,142.62334,5.66954ºS 142.62334ºE ,A
FK 12808,Oreophryne notata,33695,alcoholic + alc gut,"installed, Oct 2009","Papua New Guinea: Southern Highlands Prov., Camp 1 (5.66954° S, 142.62334° E), 2177 m) = from F Kraus field catalogue *;* E slope Mt. Itukua = from email by F Kraus dated 24 Aug 2009.","Mt. Itukua, E slope (4.13 km SW Tangi) {Papua New Guinea: Southern Highlands Prov.: Mt. Itukua, E slope (4.13 km SW Tangi), camp 1    :    2177 m    :    5.66954ºS [5.66954° S (WGS 84)]  142.62334ºE [142.62334° E (WGS 84)].}",,Southern Highlands Prov.,F Kraus,25 Mar 2009,"-5.66954, 142.62334",2177 m,Papua New Guinea,Southern Highlands Prov.,"Mt. Itukua, E slope (4.13 km SW Tangi), camp 1    ","Mt. Itukua, E slope (4.13 km SW Tangi)",-5.66954,142.62334,5.66954ºS 142.62334ºE ,A
FK 12809,Oreophryne notata,33696,alcoholic + alc gut,"installed, Oct 2009","Papua New Guinea: Southern Highlands Prov., Camp 1 (5.66954° S, 142.62334° E), 2177 m) = from F Kraus field catalogue *;* E slope Mt. Itukua = from email by F Kraus dated 24 Aug 2009.","Mt. Itukua, E slope (4.13 km SW Tangi) {Papua New Guinea: Southern Highlands Prov.: Mt. Itukua, E slope (4.13 km SW Tangi), camp 1    :    2177 m    :    5.66954ºS [5.66954° S (WGS 84)]  142.62334ºE [142.62334° E (WGS 84)].}",,Southern Highlands Prov.,F Kraus,25 Mar 2009,"-5.66954, 142.62334",2177 m,Papua New Guinea,Southern Highlands Prov.,"Mt. Itukua, E slope (4.13 km SW Tangi), camp 1    ","Mt. Itukua, E slope (4.13 km SW Tangi)",-5.66954,142.62334,5.66954ºS 142.62334ºE ,A
FK 12856,Oreophryne notata,33697,alcoholic + alc gut,"installed, Oct 2009","Papua New Guinea: Southern Highlands Prov., Camp 1 (5.66954° S, 142.62334° E), 2177 m) = from F Kraus field catalogue *;* E slope Mt. Itukua = from email by F Kraus dated 24 Aug 2009.","Mt. Itukua, E slope (4.13 km SW Tangi) {Papua New Guinea: Southern Highlands Prov.: Mt. Itukua, E slope (4.13 km SW Tangi), camp 1    :    2177 m    :    5.66954ºS [5.66954° S (WGS 84)]  142.62334ºE [142.62334° E (WGS 84)].}",,Southern Highlands Prov.,F Kraus,26 Mar 2009,"-5.66954, 142.62334",2177 m,Papua New Guinea,Southern Highlands Prov.,"Mt. Itukua, E slope (4.13 km SW Tangi), camp 1    ","Mt. Itukua, E slope (4.13 km SW Tangi)",-5.66954,142.62334,5.66954ºS 142.62334ºE ,A
FK 12857,Oreophryne notata,33698,alcoholic + alc gut,"installed, Oct 2009","Papua New Guinea: Southern Highlands Prov., Camp 1 (5.66954° S, 142.62334° E), 2177 m) = from F Kraus field catalogue *;* E slope Mt. Itukua = from email by F Kraus dated 24 Aug 2009.","Mt. Itukua, E slope (4.13 km SW Tangi) {Papua New Guinea: Southern Highlands Prov.: Mt. Itukua, E slope (4.13 km SW Tangi), camp 1    :    2177 m    :    5.66954ºS [5.66954° S (WGS 84)]  142.62334ºE [142.62334° E (WGS 84)].}",,Southern Highlands Prov.,F Kraus,26 Mar 2009,"-5.66954, 142.62334",2177 m,Papua New Guinea,Southern Highlands Prov.,"Mt. Itukua, E slope (4.13 km SW Tangi), camp 1    ","Mt. Itukua, E slope (4.13 km SW Tangi)",-5.66954,142.62334,5.66954ºS 142.62334ºE ,A
FK 12858,Oreophryne notata,33699,alcoholic + alc gut,"installed, Oct 2009","Papua New Guinea: Southern Highlands Prov., Camp 1 (5.66954° S, 142.62334° E), 2177 m) = from F Kraus field catalogue *;* E slope Mt. Itukua = from email by F Kraus dated 24 Aug 2009.","Mt. Itukua, E slope (4.13 km SW Tangi) {Papua New Guinea: Southern Highlands Prov.: Mt. Itukua, E slope (4.13 km SW Tangi), camp 1    :    2177 m    :    5.66954ºS [5.66954° S (WGS 84)]  142.62334ºE [142.62334° E (WGS 84)].}",,Southern Highlands Prov.,F Kraus,26 Mar 2009,"-5.66954, 142.62334",2177 m,Papua New Guinea,Southern Highlands Prov.,"Mt. Itukua, E slope (4.13 km SW Tangi), camp 1    ","Mt. Itukua, E slope (4.13 km SW Tangi)",-5.66954,142.62334,5.66954ºS 142.62334ºE ,A
FK 12859,Oreophryne notata,33700,alcoholic + alc gut,"installed, Oct 2009","Papua New Guinea: Southern Highlands Prov., Camp 1 (5.66954° S, 142.62334° E), 2177 m) = from F Kraus field catalogue *;* E slope Mt. Itukua = from email by F Kraus dated 24 Aug 2009.","Mt. Itukua, E slope (4.13 km SW Tangi) {Papua New Guinea: Southern Highlands Prov.: Mt. Itukua, E slope (4.13 km SW Tangi), camp 1    :    2177 m    :    5.66954ºS [5.66954° S (WGS 84)]  142.62334ºE [142.62334° E (WGS 84)].}",,Southern Highlands Prov.,F Kraus,26 Mar 2009,"-5.66954, 142.62334",2177 m,Papua New Guinea,Southern Highlands Prov.,"Mt. Itukua, E slope (4.13 km SW Tangi), camp 1    ","Mt. Itukua, E slope (4.13 km SW Tangi)",-5.66954,142.62334,5.66954ºS 142.62334ºE ,A
FK 12860,Oreophryne notata,33701,alcoholic + alc gut,"installed, Oct 2009","Papua New Guinea: Southern Highlands Prov., Camp 1 (5.66954° S, 142.62334° E), 2177 m) = from F Kraus field catalogue *;* E slope Mt. Itukua = from email by F Kraus dated 24 Aug 2009.","Mt. Itukua, E slope (4.13 km SW Tangi) {Papua New Guinea: Southern Highlands Prov.: Mt. Itukua, E slope (4.13 km SW Tangi), camp 1    :    2177 m    :    5.66954ºS [5.66954° S (WGS 84)]  142.62334ºE [142.62334° E (WGS 84)].}",,Southern Highlands Prov.,F Kraus,26 Mar 2009,"-5.66954, 142.62334",2177 m,Papua New Guinea,Southern Highlands Prov.,"Mt. Itukua, E slope (4.13 km SW Tangi), camp 1    ","Mt. Itukua, E slope (4.13 km SW Tangi)",-5.66954,142.62334,5.66954ºS 142.62334ºE ,A
FK 12861,Oreophryne notata,33702,alcoholic + alc gut,"installed, Oct 2009","Papua New Guinea: Southern Highlands Prov., Camp 1 (5.66954° S, 142.62334° E), 2177 m) = from F Kraus field catalogue *;* E slope Mt. Itukua = from email by F Kraus dated 24 Aug 2009.","Mt. Itukua, E slope (4.13 km SW Tangi) {Papua New Guinea: Southern Highlands Prov.: Mt. Itukua, E slope (4.13 km SW Tangi), camp 1    :    2177 m    :    5.66954ºS [5.66954° S (WGS 84)]  142.62334ºE [142.62334° E (WGS 84)].}",,Southern Highlands Prov.,F Kraus,26 Mar 2009,"-5.66954, 142.62334",2177 m,Papua New Guinea,Southern Highlands Prov.,"Mt. Itukua, E slope (4.13 km SW Tangi), camp 1    ","Mt. Itukua, E slope (4.13 km SW Tangi)",-5.66954,142.62334,5.66954ºS 142.62334ºE ,A
FK 12862,Oreophryne notata,33703,alcoholic + alc gut,"installed, Oct 2009","Papua New Guinea: Southern Highlands Prov., Camp 1 (5.66954° S, 142.62334° E), 2177 m) = from F Kraus field catalogue *;* E slope Mt. Itukua = from email by F Kraus dated 24 Aug 2009.","Mt. Itukua, E slope (4.13 km SW Tangi) {Papua New Guinea: Southern Highlands Prov.: Mt. Itukua, E slope (4.13 km SW Tangi), camp 1    :    2177 m    :    5.66954ºS [5.66954° S (WGS 84)]  142.62334ºE [142.62334° E (WGS 84)].}",,Southern Highlands Prov.,F Kraus,26 Mar 2009,"-5.66954, 142.62334",2177 m,Papua New Guinea,Southern Highlands Prov.,"Mt. Itukua, E slope (4.13 km SW Tangi), camp 1    ","Mt. Itukua, E slope (4.13 km SW Tangi)",-5.66954,142.62334,5.66954ºS 142.62334ºE ,A
FK 12863,Oreophryne notata,33704,alcoholic + alc gut,"installed, Oct 2009","Papua New Guinea: Southern Highlands Prov., Camp 1 (5.66954° S, 142.62334° E), 2177 m) = from F Kraus field catalogue *;* E slope Mt. Itukua = from email by F Kraus dated 24 Aug 2009.","Mt. Itukua, E slope (4.13 km SW Tangi) {Papua New Guinea: Southern Highlands Prov.: Mt. Itukua, E slope (4.13 km SW Tangi), camp 1    :    2177 m    :    5.66954ºS [5.66954° S (WGS 84)]  142.62334ºE [142.62334° E (WGS 84)].}",,Southern Highlands Prov.,F Kraus,26 Mar 2009,"-5.66954, 142.62334",2177 m,Papua New Guinea,Southern Highlands Prov.,"Mt. Itukua, E slope (4.13 km SW Tangi), camp 1    ","Mt. Itukua, E slope (4.13 km SW Tangi)",-5.66954,142.62334,5.66954ºS 142.62334ºE ,A
FK 12864,Oreophryne notata,33705,alcoholic + alc gut,"installed, Oct 2009","Papua New Guinea: Southern Highlands Prov., Camp 1 (5.66954° S, 142.62334° E), 2177 m) = from F Kraus field catalogue *;* E slope Mt. Itukua = from email by F Kraus dated 24 Aug 2009.","Mt. Itukua, E slope (4.13 km SW Tangi) {Papua New Guinea: Southern Highlands Prov.: Mt. Itukua, E slope (4.13 km SW Tangi), camp 1    :    2177 m    :    5.66954ºS [5.66954° S (WGS 84)]  142.62334ºE [142.62334° E (WGS 84)].}",,Southern Highlands Prov.,F Kraus,26 Mar 2009,"-5.66954, 142.62334",2177 m,Papua New Guinea,Southern Highlands Prov.,"Mt. Itukua, E slope (4.13 km SW Tangi), camp 1    ","Mt. Itukua, E slope (4.13 km SW Tangi)",-5.66954,142.62334,5.66954ºS 142.62334ºE ,A
FK 12867,Oreophryne notata,33706,alcoholic + alc gut,"installed, Oct 2009","Papua New Guinea: Southern Highlands Prov., Camp 1 (5.66954° S, 142.62334° E), 2177 m) = from F Kraus field catalogue *;* E slope Mt. Itukua = from email by F Kraus dated 24 Aug 2009.","Mt. Itukua, E slope (4.13 km SW Tangi) {Papua New Guinea: Southern Highlands Prov.: Mt. Itukua, E slope (4.13 km SW Tangi), camp 1    :    2177 m    :    5.66954ºS [5.66954° S (WGS 84)]  142.62334ºE [142.62334° E (WGS 84)].}",,Southern Highlands Prov.,F Kraus,26 Mar 2009,"-5.66954, 142.62334",2177 m,Papua New Guinea,Southern Highlands Prov.,"Mt. Itukua, E slope (4.13 km SW Tangi), camp 1    ","Mt. Itukua, E slope (4.13 km SW Tangi)",-5.66954,142.62334,5.66954ºS 142.62334ºE ,A
FK 12917,Oreophryne notata,33772,alcoholic,"installed, Oct 2009","Papua New Guinea: Southern Highlands Prov., Camp 1 (5.66954° S, 142.62334° E), 2177 m) = from F Kraus field catalogue *;* E slope Mt. Itukua = from email by F Kraus dated 24 Aug 2009.","Mt. Itukua, E slope (4.13 km SW Tangi) {Papua New Guinea: Southern Highlands Prov.: Mt. Itukua, E slope (4.13 km SW Tangi), camp 1    :    2177 m    :    5.66954ºS [5.66954° S (WGS 84)]  142.62334ºE [142.62334° E (WGS 84)].}",,Southern Highlands Prov.,F Kraus,30 Mar 2009,"-5.66954, 142.62334",2177 m,Papua New Guinea,Southern Highlands Prov.,"Mt. Itukua, E slope (4.13 km SW Tangi), camp 1    ","Mt. Itukua, E slope (4.13 km SW Tangi)",-5.66954,142.62334,5.66954ºS 142.62334ºE ,A
FK 11437,Oreophryne parkeri,22781,alcoholic + alc gut,installed June 2017,"West Sepik Prov., Parkop, 3.42457° S, 142.51866° E, 416 m = F Kraus field catalog","Torricelli Mtns., Parkop, 6.5 km S Mt. Sapau summit {Papua New Guinea: West Sepik Prov.: Torricelli Mtns., Parkop, 6.5 km S Mt. Sapau summit    :    416 m    :    3.42457ºS  142.51866ºE.}",,West Sepik Prov.,F Kraus,14 May 2005,"-3.42457, 142.51866",416 m,Papua New Guinea,West Sepik Prov.,"Torricelli Mtns., Parkop, 6.5 km S Mt. Sapau summit    ","Torricelli Mtns., Parkop, 6.5 km S Mt. Sapau summit",-3.42457,142.51866,3.42457ºS 142.51866ºE,A
FK 11464,Oreophryne parkeri,22782,alcoholic + alc gut,installed June 2017,"West Sepik Prov., Parkop, 3.42457° S, 142.51866° E, 416 m = F Kraus field catalog","Torricelli Mtns., Parkop, 6.5 km S Mt. Sapau summit {Papua New Guinea: West Sepik Prov.: Torricelli Mtns., Parkop, 6.5 km S Mt. Sapau summit    :    416 m    :    3.42457ºS  142.51866ºE.}",,West Sepik Prov.,F Kraus,15 May 2005,"-3.42457, 142.51866",416 m,Papua New Guinea,West Sepik Prov.,"Torricelli Mtns., Parkop, 6.5 km S Mt. Sapau summit    ","Torricelli Mtns., Parkop, 6.5 km S Mt. Sapau summit",-3.42457,142.51866,3.42457ºS 142.51866ºE,A
FK 11465,Oreophryne parkeri,22783,alcoholic + alc gut,installed June 2017,"West Sepik Prov., Parkop, 3.42457° S, 142.51866° E, 416 m = F Kraus field catalog","Torricelli Mtns., Parkop, 6.5 km S Mt. Sapau summit {Papua New Guinea: West Sepik Prov.: Torricelli Mtns., Parkop, 6.5 km S Mt. Sapau summit    :    416 m    :    3.42457ºS  142.51866ºE.}",,West Sepik Prov.,F Kraus,15 May 2005,"-3.42457, 142.51866",416 m,Papua New Guinea,West Sepik Prov.,"Torricelli Mtns., Parkop, 6.5 km S Mt. Sapau summit    ","Torricelli Mtns., Parkop, 6.5 km S Mt. Sapau summit",-3.42457,142.51866,3.42457ºS 142.51866ºE,A
FK 11466,Oreophryne parkeri,22784,alcoholic + alc gut,installed June 2017,"West Sepik Prov., Parkop, 3.42457° S, 142.51866° E, 416 m = F Kraus field catalog","Torricelli Mtns., Parkop, 6.5 km S Mt. Sapau summit {Papua New Guinea: West Sepik Prov.: Torricelli Mtns., Parkop, 6.5 km S Mt. Sapau summit    :    416 m    :    3.42457ºS  142.51866ºE.}",,West Sepik Prov.,F Kraus,15 May 2005,"-3.42457, 142.51866",416 m,Papua New Guinea,West Sepik Prov.,"Torricelli Mtns., Parkop, 6.5 km S Mt. Sapau summit    ","Torricelli Mtns., Parkop, 6.5 km S Mt. Sapau summit",-3.42457,142.51866,3.42457ºS 142.51866ºE,A
FK 11494,Oreophryne parkeri,22785,alcoholic + alc gut,installed June 2017,"West Sepik Prov., Torricelli Mtns., Camp 1, 3.39329° S, 142.52826° E (AGD66), 550 m = F Kraus field catalog","Torricelli Mtns., 3.2 km SSE Mt. Sapau summit, (Camp 1) {Papua New Guinea: West Sepik Prov.: Torricelli Mtns., 3.2 km SSE Mt. Sapau summit, (Camp 1)    :    550 m    :    3.39329ºS  142.52826ºE.}",,West Sepik Prov.,F Kraus,18 May 2005,"-3.39329, 142.52826",550 m,Papua New Guinea,West Sepik Prov.,"Torricelli Mtns., 3.2 km SSE Mt. Sapau summit, (Camp 1)    ","Torricelli Mtns., 3.2 km SSE Mt. Sapau summit, (Camp 1)",-3.39329,142.52826,3.39329ºS 142.52826ºE,A
AA 12066,Oreophryne parkeri,23475,alcoholic,installed June 2017,"vic. Trifas, ca 340 m = A Allison catalog.  5.9 km N, 7.3 km E Utai.  3.333S 141.651E = master list of bird & mammal locals for Bewani Exp. compiled by A Engilis, Jr.","Trefas Village (vicinity of), 5.9 km N, 7.3 km E of Utai {Papua New Guinea: West Sepik Prov.: Trefas Village (vicinity of), 5.9 km N, 7.3 km E of Utai    :    340 m    :    3.333ºS  141.651ºE.}",,West Sepik Prov.,A Allison,24 Oct 1986,"-3.333, 141.651",340 m,Papua New Guinea,West Sepik Prov.,"Trefas Village (vicinity of), 5.9 km N, 7.3 km E of Utai    ","Trefas Village (vicinity of), 5.9 km N, 7.3 km E of Utai",-3.333,141.651,3.333ºS 141.651ºE,A
AA 12067,Oreophryne parkeri,23476,alcoholic,installed June 2017,"vic. Trifas, ca 340 m = A Allison catalog.  5.9 km N, 7.3 km E Utai.  3.333S 141.651E = master list of bird & mammal locals for Bewani Exp. compiled by A Engilis, Jr.","Trefas Village (vicinity of), 5.9 km N, 7.3 km E of Utai {Papua New Guinea: West Sepik Prov.: Trefas Village (vicinity of), 5.9 km N, 7.3 km E of Utai    :    340 m    :    3.333ºS  141.651ºE.}",,West Sepik Prov.,A Allison,24 Oct 1986,"-3.333, 141.651",340 m,Papua New Guinea,West Sepik Prov.,"Trefas Village (vicinity of), 5.9 km N, 7.3 km E of Utai    ","Trefas Village (vicinity of), 5.9 km N, 7.3 km E of Utai",-3.333,141.651,3.333ºS 141.651ºE,A
AA 13577,Oreophryne parkeri,23477,alcoholic,installed June 2017,"Bani - Camp 1 - Hunstein Mts.  =  Allison catalog.  Papua New Guinea, East Sepik Prov., ""Bani"" area, Hunstein River, 8.7 km N & 9.8 km E Mt. Hunstein summit, (Camp 1), 75 m  = master list of Hunstein River Exp. collection localities (see acc'n file and Ve","Hunstein River, ""Bani"" area, 8.7 km N, 9.8 km E of Mt. Hunstein summit, (Camp 1) {Papua New Guinea: East Sepik Prov.: Hunstein River, ""Bani"" area, 8.7 km N, 9.8 km E of Mt. Hunstein summit, (Camp 1)    :    75 m    :    4.4320652ºS  142.7414414ºE.}",,East Sepik Prov.,A Allison,18 Sep 1989,"-4.4320652, 142.7414414",75 m,Papua New Guinea,East Sepik Prov.,"Hunstein River, ""Bani"" area, 8.7 km N, 9.8 km E of Mt. Hunstein summit, (Camp 1)    ","Hunstein River, Bani area, 8.7 km N, 9.8 km E of Mt. Hunstein summit, (Camp 1)",-4.4320652,142.7414414,4.4320652ºS 142.7414414ºE,A
AA 13578,Oreophryne parkeri,23478,alcoholic,installed June 2017,"Bani - Camp 1 - Hunstein Mts.  =  Allison catalog.  Papua New Guinea, East Sepik Prov., ""Bani"" area, Hunstein River, 8.7 km N & 9.8 km E Mt. Hunstein summit, (Camp 1), 75 m  = master list of Hunstein River Exp. collection localities (see acc'n file and Ve","Hunstein River, ""Bani"" area, 8.7 km N, 9.8 km E of Mt. Hunstein summit, (Camp 1) {Papua New Guinea: East Sepik Prov.: Hunstein River, ""Bani"" area, 8.7 km N, 9.8 km E of Mt. Hunstein summit, (Camp 1)    :    75 m    :    4.4320652ºS  142.7414414ºE.}",,East Sepik Prov.,A Allison,18 Sep 1989,"-4.4320652, 142.7414414",75 m,Papua New Guinea,East Sepik Prov.,"Hunstein River, ""Bani"" area, 8.7 km N, 9.8 km E of Mt. Hunstein summit, (Camp 1)    ","Hunstein River, Bani area, 8.7 km N, 9.8 km E of Mt. Hunstein summit, (Camp 1)",-4.4320652,142.7414414,4.4320652ºS 142.7414414ºE,A
AA 13579,Oreophryne parkeri,23479,alcoholic,installed June 2017,"Bani - Camp 1 - Hunstein Mts.  =  Allison catalog.  Papua New Guinea, East Sepik Prov., ""Bani"" area, Hunstein River, 8.7 km N & 9.8 km E Mt. Hunstein summit, (Camp 1), 75 m  = master list of Hunstein River Exp. collection localities (see acc'n file and Ve","Hunstein River, ""Bani"" area, 8.7 km N, 9.8 km E of Mt. Hunstein summit, (Camp 1) {Papua New Guinea: East Sepik Prov.: Hunstein River, ""Bani"" area, 8.7 km N, 9.8 km E of Mt. Hunstein summit, (Camp 1)    :    75 m    :    4.4320652ºS  142.7414414ºE.}",,East Sepik Prov.,A Allison,18 Sep 1989,"-4.4320652, 142.7414414",75 m,Papua New Guinea,East Sepik Prov.,"Hunstein River, ""Bani"" area, 8.7 km N, 9.8 km E of Mt. Hunstein summit, (Camp 1)    ","Hunstein River, Bani area, 8.7 km N, 9.8 km E of Mt. Hunstein summit, (Camp 1)",-4.4320652,142.7414414,4.4320652ºS 142.7414414ºE,A
AA 13693,Oreophryne parkeri,23480,alcoholic,installed June 2017,"Camp 4, Hunstein Mts., East Sepik Prov., Papua New Guinea  = Allison catalog.  Papua New Guinea, East Sepik Prov., Hunstein Range, 1.3 km. S & 2.3 km. E Mt. Hunstein summit, (Camp 4), 1000 m.  =  master list of Hunstein River Exp. collection localities (s","Hunstein Range, 1.3 km S, 2.3 km E of Mt. Hunstein summit, (Camp 4) {Papua New Guinea: East Sepik Prov.: Hunstein Range, 1.3 km S, 2.3 km E of Mt. Hunstein summit, (Camp 4)    :    1000 m    :    4.5226449ºS  142.6747747ºE.}",,East Sepik Prov.,A Allison,26 Sep 1989,"-4.5226449, 142.6747747",1000 m,Papua New Guinea,East Sepik Prov.,"Hunstein Range, 1.3 km S, 2.3 km E of Mt. Hunstein summit, (Camp 4)    ","Hunstein Range, 1.3 km S, 2.3 km E of Mt. Hunstein summit, (Camp 4)",-4.5226449,142.6747747,4.5226449ºS 142.6747747ºE,A
AA 18859,Oreophryne parkeri,31472,alcoholic,installed June 2017,Wanang -5° 13.931; 145° 10.841 = from A Allison field catalog,Wanang {Papua New Guinea: Madang Prov.: Wanang    :    120 m    :    5.23218ºS  145.18068ºE.},,Madang Prov.,A Allison,31 Mar 2007,"-5.23218, 145.18068",120 m,Papua New Guinea,Madang Prov.,Wanang    ,Wanang,-5.23218,145.18068,5.23218ºS 145.18068ºE,A
AA 19143,Oreophryne parkeri,31878,alcoholic,installed June 2017,Cliffside Stream = from AA electronic catalogue,"Kamiali Wildlife Management Area, 1.3 km N and 6.2 km W of Cape Dinga {Papua New Guinea: Morobe Prov.: Kamiali Wildlife Management Area, 1.3 km N and 6.2 km W of Cape Dinga, Cliffside Camp    :    500 m    :    7.295997634ºS  147.092878935ºE.}",stream along Cliffside Camp,Morobe Prov.,A Allison,01 Jul 2008,"-7.295997634, 147.092878935",500 m,Papua New Guinea,Morobe Prov.,"Kamiali Wildlife Management Area, 1.3 km N and 6.2 km W of Cape Dinga, Cliffside Camp    ","Kamiali Wildlife Management Area, 1.3 km N and 6.2 km W of Cape Dinga",-7.295997634,147.0928789,7.295997634ºS 147.092878935ºE,A
FK 13392,Oreophryne parkeri,34644,alcoholic + alc gut,installed June 2017,"East Sepik Prov., Farinara, 3° 36.009' S, 143° 29.622' E,  357 m = from F Kraus field notes",Farinara {Papua New Guinea: East Sepik Prov.: Farinara    :    357 m    :    3.60015ºS [3° 36.009' S (AGD 84)]  143.4937ºE [143° 29.622' E (AGD 84)].},,East Sepik Prov.,F Kraus,17 Sep 2009,"-3.60015, 143.4937",357 m,Papua New Guinea,East Sepik Prov.,Farinara    ,Farinara,-3.60015,143.4937,3.60015ºS 143.4937ºE ,A
FK 13552,Oreophryne parkeri,34645,alcoholic + alc gut,installed July 2017,"East Sepik Prov., Mindangua Stream, 3° 36.339' S, 143° 29.527' E, 410 m = from F Kraus field  notes",Mindangua Stream {Papua New Guinea: East Sepik Prov.: Mindangua Stream    :    410 m    :    3.60565ºS [3° 36.339' S (AGD 84)]  143.49212ºE [143° 29.527' E (AGD 84)].},,East Sepik Prov.,F Kraus,21 Sep 2009,"-3.60565, 143.49212",410 m,Papua New Guinea,East Sepik Prov.,Mindangua Stream    ,Mindangua Stream,-3.60565,143.49212,3.60565ºS 143.49212ºE ,A
FK 13570,Oreophryne parkeri,34646,alcoholic + alc gut,installed June 2017,"East Sepik Prov., Camp 2, 3° 34.731' S, 143° 30.020 E, 227 m = from F Kraus field notes",,,East Sepik Prov.,F Kraus,23 Sep 2009,", ",,,,,,-3.34731,143.302,,A
FK 13627,Oreophryne parkeri,34647,alcoholic + alc gut,installed June 2017,"East Sepik Prov., Camp 2, 3° 34.731' S, 143° 30.020 E, 227 m = from F Kraus field notes",,,East Sepik Prov.,F Kraus,25 Sep 2009,", ",,,,,,-3.34731,143.302,,A
FK 13628,Oreophryne parkeri,34648,alcoholic + alc gut,installed June 2017,"East Sepik Prov., Camp 2, 3° 34.731' S, 143° 30.020 E, 227 m = from F Kraus field notes",,,East Sepik Prov.,F Kraus,25 Sep 2009,", ",,,,,,-3.34731,143.302,,A
FK 13629,Oreophryne parkeri,34649,alcoholic + alc gut,installed June 2017,"East Sepik Prov., Camp 2, 3° 34.731' S, 143° 30.020 E, 227 m = from F Kraus field notes",,,East Sepik Prov.,F Kraus,25 Sep 2009,", ",,,,,,-3.34731,143.302,,A
FK 11845,Oreophryne parkopanorum,22787,alcoholic,"installed, May 2015","West Sepik Prov., Torricelli Mtns., btw. Pts. 8 & 9 = F Kraus field catalog  ;  from F Kraus field catalog Pt. 8 = Camp 2 @ 3.38074° S, 142.51548° E (AGD66), 1120 m , and Pt. 9 = ridge @ 3.38161° S, 142.51968° E, 1300 m.","Torricelli Mtns., 1.2 km S Mt. Sapau summit, (btw. Camp 2 & Pt. 9) {Papua New Guinea: West Sepik Prov.: Torricelli Mtns., 1.2 km S Mt. Sapau summit, (btw. Camp 2 & Pt. 9)    :    1120-1320 m    :    3.3772645ºS  142.518018ºE.}",,West Sepik Prov.,F Kraus,27 May 2005,"-3.3772645, 142.518018",1120-1320 m,Papua New Guinea,West Sepik Prov.,"Torricelli Mtns., 1.2 km S Mt. Sapau summit, (btw. Camp 2 & Pt. 9)    ","Torricelli Mtns., 1.2 km S Mt. Sapau summit, (btw. Camp 2 & Pt. 9)",-3.3772645,142.518018,3.3772645ºS 142.518018ºE,A
FK 11846,Oreophryne parkopanorum,22788,alcoholic,"installed, May 2015","West Sepik Prov., Torricelli Mtns., btw. Pts. 8 & 9 = F Kraus field catalog  ;  from F Kraus field catalog Pt. 8 = Camp 2 @ 3.38074° S, 142.51548° E (AGD66), 1120 m , and Pt. 9 = ridge @ 3.38161° S, 142.51968° E, 1300 m.","Torricelli Mtns., 1.2 km S Mt. Sapau summit, (btw. Camp 2 & Pt. 9) {Papua New Guinea: West Sepik Prov.: Torricelli Mtns., 1.2 km S Mt. Sapau summit, (btw. Camp 2 & Pt. 9)    :    1120-1320 m    :    3.3772645ºS  142.518018ºE.}",,West Sepik Prov.,F Kraus,27 May 2005,"-3.3772645, 142.518018",1120-1320 m,Papua New Guinea,West Sepik Prov.,"Torricelli Mtns., 1.2 km S Mt. Sapau summit, (btw. Camp 2 & Pt. 9)    ","Torricelli Mtns., 1.2 km S Mt. Sapau summit, (btw. Camp 2 & Pt. 9)",-3.3772645,142.518018,3.3772645ºS 142.518018ºE,A
FK 11847,Oreophryne parkopanorum,22789,alcoholic,"installed in types cabinet, March 2016","West Sepik Prov., Torricelli Mtns., btw. Pts. 8 & 9 = F Kraus field catalog  ;  from F Kraus field catalog Pt. 8 = Camp 2 @ 3.38074° S, 142.51548° E (AGD66), 1120 m , and Pt. 9 = ridge @ 3.38161° S, 142.51968° E, 1300 m.","Torricelli Mtns., 1.2 km S Mt. Sapau summit, (btw. Camp 2 & Pt. 9) {Papua New Guinea: West Sepik Prov.: Torricelli Mtns., 1.2 km S Mt. Sapau summit, (btw. Camp 2 & Pt. 9)    :    1120-1320 m    :    3.3772645ºS  142.518018ºE.}",,West Sepik Prov.,F Kraus,27 May 2005,"-3.3772645, 142.518018",1120-1320 m,Papua New Guinea,West Sepik Prov.,"Torricelli Mtns., 1.2 km S Mt. Sapau summit, (btw. Camp 2 & Pt. 9)    ","Torricelli Mtns., 1.2 km S Mt. Sapau summit, (btw. Camp 2 & Pt. 9)",-3.3772645,142.518018,3.3772645ºS 142.518018ºE,A
FK 11870,Oreophryne parkopanorum,22790,alcoholic,"installed, May 2015","West Sepik Prov., Torricelli Mtns., stream below Camp 2, 1050 m = F Kraus field catalog  ;  from F Kraus field catalog Camp 2 = 3.38074° S, 142.51548° E (AGD66), 1120 m.","Torricelli Mtns., 1.6 km SSW Mt. Sapau summit, (stream below Camp 2) {Papua New Guinea: West Sepik Prov.: Torricelli Mtns., 1.6 km SSW Mt. Sapau summit, (stream below Camp 2)    :    1050 m    :    3.38074ºS  142.51548ºE.}",,West Sepik Prov.,F Kraus,25 May 2005,"-3.38074, 142.51548",1050 m,Papua New Guinea,West Sepik Prov.,"Torricelli Mtns., 1.6 km SSW Mt. Sapau summit, (stream below Camp 2)    ","Torricelli Mtns., 1.6 km SSW Mt. Sapau summit, (stream below Camp 2)",-3.38074,142.51548,3.38074ºS 142.51548ºE,A
FK 6609,Oreophryne philosylleptoris,16552,alcoholic,installed July 2017,"Normanby Is., Saidowai - 9° 57.824' S, 150° 57.273' E, 0m. = F Kraus field catalogue; see master list of localities in the Accession file",Saidowai {Papua New Guinea: Milne Bay Prov.: Normanby Island: Saidowai    :    0 m    :    9.9637333ºS  150.95455ºE.},,Milne Bay Prov.,F Kraus,25 Sep 2002,"-9.9637333, 150.95455",0 m,Papua New Guinea,Milne Bay Prov.,Normanby Island,Saidowai,-9.9637333,150.95455,9.9637333ºS 150.95455ºE,A
FK 6610,Oreophryne philosylleptoris,16553,alcoholic,installed July 2017,"Normanby Is., Saidowai - 9° 57.824' S, 150° 57.273' E, 0m. = F Kraus field catalogue; see master list of localities in the Accession file",Saidowai {Papua New Guinea: Milne Bay Prov.: Normanby Island: Saidowai    :    0 m    :    9.9637333ºS  150.95455ºE.},,Milne Bay Prov.,F Kraus,25 Sep 2002,"-9.9637333, 150.95455",0 m,Papua New Guinea,Milne Bay Prov.,Normanby Island,Saidowai,-9.9637333,150.95455,9.9637333ºS 150.95455ºE,A
FK 6634,Oreophryne philosylleptoris,16554,alcoholic,installed July 2017,"Normanby Is., Saidowai - 9° 57.824' S, 150° 57.273' E, 0m. = F Kraus field catalogue; see master list of localities in the Accession file",Saidowai {Papua New Guinea: Milne Bay Prov.: Normanby Island: Saidowai    :    0 m    :    9.9637333ºS  150.95455ºE.},,Milne Bay Prov.,F Kraus,26 Sep 2002,"-9.9637333, 150.95455",0 m,Papua New Guinea,Milne Bay Prov.,Normanby Island,Saidowai,-9.9637333,150.95455,9.9637333ºS 150.95455ºE,A
FK 6672,Oreophryne philosylleptoris,16555,alcoholic,installed July 2017,"Normanby Is., btw. Points 2 & 3 = F Kraus field catalogue; see master list of localities in the Accession file","Sewa Bay, S end, ""between Points 2 & 3"" {Papua New Guinea: Milne Bay Prov.: Normanby Island: Sewa Bay, S end, ""between Points 2 & 3""    :    40-50 m    :    10.0407608ºS  150.97445ºE.}",,Milne Bay Prov.,F Kraus,28 Sep 2002,"-10.0407608, 150.97445",40-50 m,Papua New Guinea,Milne Bay Prov.,Normanby Island,"Sewa Bay, S end, between Points 2 & 3",-10.0407608,150.97445,10.0407608ºS 150.97445ºE,A
FK 10644,Oreophryne philosylleptoris,20573,alcoholic,installed July 2017,"Normanby Island, 1/2 way btw. L. bibonius type locality & Sibonai (FROM TRIP 2) = Kraus field catalog","Sibonai to ""Litoria bibonius type locality"", 1/2 way between {Papua New Guinea: Milne Bay Prov.: Normanby Island: Sibonai to ""Litoria bibonius type locality"", 1/2 way between    :    40 m    :    10.0375905ºS  150.9753424ºE.}",,Milne Bay Prov.,F Kraus,25 May 2004,"-10.0375905, 150.9753424",40 m,Papua New Guinea,Milne Bay Prov.,Normanby Island,"Sibonai to Litoria bibonius type locality, 1/2 way between",-10.0375905,150.9753424,10.0375905ºS 150.9753424ºE,A
FK 10645,Oreophryne philosylleptoris,20574,alcoholic,installed June 2017,"Normanby Island, L. bibonius type locality = Kraus field catalog","Sewa Bay, S end, ""Litoria bibonius type locality"" {Papua New Guinea: Milne Bay Prov.: Normanby Island: Sewa Bay, S end, ""Litoria bibonius type locality""    :    40 m    :    10.033ºS  150.9770666ºE.}",,Milne Bay Prov.,F Kraus,25 May 2004,"-10.033, 150.9770666",40 m,Papua New Guinea,Milne Bay Prov.,Normanby Island,"Sewa Bay, S end, Litoria bibonius type locality",-10.033,150.9770666,10.033ºS 150.9770666ºE,A
FK 10676,Oreophryne philosylleptoris,20575,alcoholic,installed June 2017,"Normanby Island, between Pts. 40 & 41.  Point 40 = L. bibonius type locality (FROM TRIP 2).  Point 41 = 10.04260° S, 150.97273° E [Aus66], 50 m. = Kraus field catalog","Sewa Bay, SE of, ""between Point 41 and Litoria bibonius type locality"" {Papua New Guinea: Milne Bay Prov.: Normanby Island: Sewa Bay, SE of, ""between Point 41 and Litoria bibonius type locality""    :    80 m    :    10.0407608ºS  150.9771689ºE.}",,Milne Bay Prov.,F Kraus,26 May 2004,"-10.0407608, 150.9771689",80 m,Papua New Guinea,Milne Bay Prov.,Normanby Island,"Sewa Bay, SE of, between Point 41 and Litoria bibonius type locality",-10.0407608,150.9771689,10.0407608ºS 150.9771689ºE,A
FK 10677,Oreophryne philosylleptoris,20576,alcoholic,installed June 2017,"Normanby Island, between Pts. 40 & 41.  Point 40 = L. bibonius type locality (FROM TRIP 2).  Point 41 = 10.04260° S, 150.97273° E [Aus66], 50 m. = Kraus field catalog","Sewa Bay, SE of, ""between Point 41 and Litoria bibonius type locality"" {Papua New Guinea: Milne Bay Prov.: Normanby Island: Sewa Bay, SE of, ""between Point 41 and Litoria bibonius type locality""    :    80 m    :    10.0407608ºS  150.9771689ºE.}",,Milne Bay Prov.,F Kraus,26 May 2004,"-10.0407608, 150.9771689",80 m,Papua New Guinea,Milne Bay Prov.,Normanby Island,"Sewa Bay, SE of, between Point 41 and Litoria bibonius type locality",-10.0407608,150.9771689,10.0407608ºS 150.9771689ºE,A
FK 10684,Oreophryne philosylleptoris,20577,alcoholic,installed June 2017,"Normanby Island, between Pt. 42 & Sibonai.  Point 42 = 10.03005° S, 150.98057° E [Aus66], 65 m. = Kraus field catalog","Sibonai to ""Point 42"", between {Papua New Guinea: Milne Bay Prov.: Normanby Island: Sibonai to ""Point 42"", between    :    40-80 m    :    10.0326086ºS  150.9753424ºE.}",,Milne Bay Prov.,F Kraus,27 May 2004,"-10.0326086, 150.9753424",40-80 m,Papua New Guinea,Milne Bay Prov.,Normanby Island,"Sibonai to Point 42, between",-10.0326086,150.9753424,10.0326086ºS 150.9753424ºE,A
FK 10685,Oreophryne philosylleptoris,20578,alcoholic,installed June 2017,"Normanby Island, between Pt. 42 & Sibonai.  Point 42 = 10.03005° S, 150.98057° E [Aus66], 65 m. = Kraus field catalog","Sibonai to ""Point 42"", between {Papua New Guinea: Milne Bay Prov.: Normanby Island: Sibonai to ""Point 42"", between    :    40-80 m    :    10.0326086ºS  150.9753424ºE.}",,Milne Bay Prov.,F Kraus,27 May 2004,"-10.0326086, 150.9753424",40-80 m,Papua New Guinea,Milne Bay Prov.,Normanby Island,"Sibonai to Point 42, between",-10.0326086,150.9753424,10.0326086ºS 150.9753424ºE,A